X,Y,id,ref,@spider,amenity,cuisine,takeaway,addr:full,addr:city,addr:state,addr:postcode,addr:country,name,phone,website,brand,brand:wikidata,nsi_id
-77.6326810,39.9344320,7TiYufUJ6SWBdgvewEGfDmYssaU=,"Pavillion Gateway, Chambersburg, PA - Jersey Mike's Subs",jerseymikes,fast_food,sandwich,yes,Pavillion Gateway,Chambersburg,PA,17201-3503,US,"Pavillion Gateway, Chambersburg, PA - Jersey Mike's Subs", ,https://www.jerseymikes.com/8031/chambersburg-pa,Jersey Mike's Subs,Q6184897,jerseymikessubs-4d2ff4
-122.9558050,45.5048970,V0LWnmwohbCtzytcINdd-DfaImk=,"2515 SE Tualatin Valley Hwy., Hillsboro, OR - Jersey Mike's Subs",jerseymikes,fast_food,sandwich,yes,2515 SE Tualatin Valley Hwy.,Hillsboro,OR,97123-7935,US,"2515 SE Tualatin Valley Hwy., Hillsboro, OR - Jersey Mike's Subs", ,https://www.jerseymikes.com/32020/hillsboro-or,Jersey Mike's Subs,Q6184897,jerseymikessubs-4d2ff4
-97.5119850,35.3910750,cOR88rJ2eySGL-YQKFqgZuwWxz4=,"7500 South Santa Fe Avenue, Oklahoma City, OK - Jersey Mike's Subs",jerseymikes,fast_food,sandwich,yes,7500 South Santa Fe Avenue,Oklahoma City,OK,73139-8016,US,"7500 South Santa Fe Avenue, Oklahoma City, OK - Jersey Mike's Subs", ,https://www.jerseymikes.com/23001/oklahoma-city-ok,Jersey Mike's Subs,Q6184897,jerseymikessubs-4d2ff4
-84.1573800,39.6585400,yeRNjQwNvb65o51pNTSggiuAtU0=,"6002 Far Hills Avenue, Centerville, OH - Jersey Mike's Subs",jerseymikes,fast_food,sandwich,yes,6002 Far Hills Avenue,Centerville,OH,45459-1924,US,"6002 Far Hills Avenue, Centerville, OH - Jersey Mike's Subs", ,https://www.jerseymikes.com/2040/centerville-oh,Jersey Mike's Subs,Q6184897,jerseymikessubs-4d2ff4
-96.8840060,46.8411150,ePmYF1NyYokgan8hRqBNILpLMW4=,"833 24th Ave E, West Fargo, ND - Jersey Mike's Subs",jerseymikes,fast_food,sandwich,yes,833 24th Ave E,West Fargo,ND,58078-7871,US,"833 24th Ave E, West Fargo, ND - Jersey Mike's Subs", ,https://www.jerseymikes.com/47001/west-fargo-nd,Jersey Mike's Subs,Q6184897,jerseymikessubs-4d2ff4
-79.4695190,36.0819330,oxNJnKO15FkAZkMLEcZm89xgxQI=,"2138 South Church Street, Burlington, NC - Jersey Mike's Subs",jerseymikes,fast_food,sandwich,yes,2138 South Church Street,Burlington,NC,27215-5328,US,"2138 South Church Street, Burlington, NC - Jersey Mike's Subs", ,https://www.jerseymikes.com/3033/burlington-nc,Jersey Mike's Subs,Q6184897,jerseymikessubs-4d2ff4
-73.8888400,40.8550850,aYXVYbsjtQDN4qg5TeSVMTN6v18=,"2368 Hoffman Street, Bronx, NY - Jersey Mike's Subs",jerseymikes,fast_food,sandwich,yes,2368 Hoffman Street,Bronx,NY,10458-8003,US,"2368 Hoffman Street, Bronx, NY - Jersey Mike's Subs", ,https://www.jerseymikes.com/34079/bronx-ny,Jersey Mike's Subs,Q6184897,jerseymikessubs-4d2ff4
-106.0287350,35.6190920,9f5VqaMrZ96S_7lKs5wkxHddQ88=,"4980 Promenade Blvd., Santa Fe, NM - Jersey Mike's Subs",jerseymikes,fast_food,sandwich,yes,4980 Promenade Blvd.,Santa Fe,NM,87507-5503,US,"4980 Promenade Blvd., Santa Fe, NM - Jersey Mike's Subs", ,https://www.jerseymikes.com/39009/santa-fe-nm,Jersey Mike's Subs,Q6184897,jerseymikessubs-4d2ff4
-74.7264620,40.8869600,cnjoTcZGs5aosVghAFnqhCe8N44=,"100 Route 46 West, Budd Lake, NJ - Jersey Mike's Subs",jerseymikes,fast_food,sandwich,yes,100 Route 46 West,Budd Lake,NJ,07828-0061,US,"100 Route 46 West, Budd Lake, NJ - Jersey Mike's Subs", ,https://www.jerseymikes.com/1118/budd-lake-nj,Jersey Mike's Subs,Q6184897,jerseymikessubs-4d2ff4
-71.5594830,43.4588910,KhYKS97XFHqQgrFkHDwoCsX8tWo=,"120 Laconia Road, Tilton, NH - Jersey Mike's Subs",jerseymikes,fast_food,sandwich,yes,120 Laconia Road,Tilton,NH,03276-5238,US,"120 Laconia Road, Tilton, NH - Jersey Mike's Subs", ,https://www.jerseymikes.com/37006/tilton-nh,Jersey Mike's Subs,Q6184897,jerseymikessubs-4d2ff4
-115.1543050,36.1188710,D_y41JwLUedEeZZtkdNt4D54wOs=,"3900 Paradise Road, Las Vegas, NV - Jersey Mike's Subs",jerseymikes,fast_food,sandwich,yes,3900 Paradise Road,Las Vegas,NV,89169-0929,US,"3900 Paradise Road, Las Vegas, NV - Jersey Mike's Subs", ,https://www.jerseymikes.com/17011/las-vegas-nv,Jersey Mike's Subs,Q6184897,jerseymikessubs-4d2ff4
-96.0228190,41.1621270,8Bsj2bem45T0jdyEgzykT1kQxcQ=,"9820 S. 71st Plaza , Papillion, NE - Jersey Mike's Subs",jerseymikes,fast_food,sandwich,yes,9820 S. 71st Plaza ,Papillion,NE,68133-2252,US,"9820 S. 71st Plaza , Papillion, NE - Jersey Mike's Subs", ,https://www.jerseymikes.com/33004/papillion-ne,Jersey Mike's Subs,Q6184897,jerseymikessubs-4d2ff4
-114.0409730,46.8944080,e92LcpAvNKVam0s7s2rnLcRxAIM=,"3275 North Reserve Street, Missoula, MT - Jersey Mike's Subs",jerseymikes,fast_food,sandwich,yes,3275 North Reserve Street,Missoula,MT,59808-1562,US,"3275 North Reserve Street, Missoula, MT - Jersey Mike's Subs", ,https://www.jerseymikes.com/41005/missoula-mt,Jersey Mike's Subs,Q6184897,jerseymikessubs-4d2ff4
-90.3577560,38.5656010,FOHGf2090mLm1qBSxNZ7uPwVfHQ=,"8567 Watson Rd., Webster Groves, MO - Jersey Mike's Subs",jerseymikes,fast_food,sandwich,yes,8567 Watson Rd.,Webster Groves,MO,63119-5251,US,"8567 Watson Rd., Webster Groves, MO - Jersey Mike's Subs", ,https://www.jerseymikes.com/25001/webster-groves-mo,Jersey Mike's Subs,Q6184897,jerseymikessubs-4d2ff4
-88.8437730,33.4457850,kB12vu76LDeks9Qe8YwKeXNdyuQ=,"831 Highway 12 West, Starkville, MS - Jersey Mike's Subs",jerseymikes,fast_food,sandwich,yes,831 Highway 12 West,Starkville,MS,39759-3719,US,"831 Highway 12 West, Starkville, MS - Jersey Mike's Subs", ,https://www.jerseymikes.com/45002/starkville-ms,Jersey Mike's Subs,Q6184897,jerseymikessubs-4d2ff4
-93.1526660,44.8331850,WndLN1SrbU__VhATZUPb1l-z54s=,"3405 Promenade Ave., Eagan, MN - Jersey Mike's Subs",jerseymikes,fast_food,sandwich,yes,3405 Promenade Ave.,Eagan,MN,55123-4420,US,"3405 Promenade Ave., Eagan, MN - Jersey Mike's Subs", ,https://www.jerseymikes.com/24016/eagan-mn,Jersey Mike's Subs,Q6184897,jerseymikessubs-4d2ff4
-105.5537330,41.3089710,yjLuOY3I_KggCstVg0KMWEC7Fgs=,"3225 E Grand Avenue, Laramie, WY - Jersey Mike's Subs",jerseymikes,fast_food,sandwich,yes,3225 E Grand Avenue,Laramie,WY,82070-5146,US,"3225 E Grand Avenue, Laramie, WY - Jersey Mike's Subs", ,https://www.jerseymikes.com/40003/laramie-wy,Jersey Mike's Subs,Q6184897,jerseymikessubs-4d2ff4
-106.2614400,42.8474220,IfCnYQ0Z5QXGTs3JeGr51lNMzMM=,"4851 E. 2nd Street, Casper, WY - Jersey Mike's Subs",jerseymikes,fast_food,sandwich,yes,4851 E. 2nd Street,Casper,WY,82609-4256,US,"4851 E. 2nd Street, Casper, WY - Jersey Mike's Subs", ,https://www.jerseymikes.com/40002/casper-wy,Jersey Mike's Subs,Q6184897,jerseymikessubs-4d2ff4
-106.3637710,42.8152790,-v0rrgqiUhHQM1aa--vLIKNT8B8=,"3095 Talon Drive, Casper, WY - Jersey Mike's Subs",jerseymikes,fast_food,sandwich,yes,3095 Talon Drive,Casper,WY,82604-3394,US,"3095 Talon Drive, Casper, WY - Jersey Mike's Subs", ,https://www.jerseymikes.com/40001/casper-wy,Jersey Mike's Subs,Q6184897,jerseymikessubs-4d2ff4
-92.1496710,46.8031970,TYyDLGQGeuiutRnyCaiwXM_T1Ok=,"905 West Central Entrance, Duluth, MN - Jersey Mike's Subs",jerseymikes,fast_food,sandwich,yes,905 West Central Entrance,Duluth,MN,55811-5460,US,"905 West Central Entrance, Duluth, MN - Jersey Mike's Subs", ,https://www.jerseymikes.com/24026/duluth-mn,Jersey Mike's Subs,Q6184897,jerseymikessubs-4d2ff4
-93.3551820,45.1986720,1aSg2OOW3ucZFOTApkAsm4asUiA=,"3473 River Rapids Dr., Coon Rapids, MN - Jersey Mike's Subs",jerseymikes,fast_food,sandwich,yes,3473 River Rapids Dr.,Coon Rapids,MN,55448-4102,US,"3473 River Rapids Dr., Coon Rapids, MN - Jersey Mike's Subs", ,https://www.jerseymikes.com/24003/coon-rapids-mn,Jersey Mike's Subs,Q6184897,jerseymikessubs-4d2ff4
-93.5458860,44.8618430,cPQqKodDl3ec5OOMk-u4X3KKfMo=,"945 W. 78th St., Chanhassen, MN - Jersey Mike's Subs",jerseymikes,fast_food,sandwich,yes,945 W. 78th St.,Chanhassen,MN,55317,US,"945 W. 78th St., Chanhassen, MN - Jersey Mike's Subs", ,https://www.jerseymikes.com/24018/chanhassen-mn,Jersey Mike's Subs,Q6184897,jerseymikessubs-4d2ff4
-93.3906710,45.1731760,t0Lk2IFqKSg4d2zeydmmoTArOb8=,"11995 Business Park Boulevard, Champlin, MN - Jersey Mike's Subs",jerseymikes,fast_food,sandwich,yes,11995 Business Park Boulevard,Champlin,MN,55316-2005,US,"11995 Business Park Boulevard, Champlin, MN - Jersey Mike's Subs", ,https://www.jerseymikes.com/24014/champlin-mn,Jersey Mike's Subs,Q6184897,jerseymikessubs-4d2ff4
-93.2973920,44.7469330,-TiSsjukRLK-t8YIAjB-OSDeRm8=,"1404 County Road 42 W., Burnsville, MN - Jersey Mike's Subs",jerseymikes,fast_food,sandwich,yes,1404 County Road 42 W.,Burnsville,MN,55337-4721,US,"1404 County Road 42 W., Burnsville, MN - Jersey Mike's Subs", ,https://www.jerseymikes.com/24029/burnsville-mn,Jersey Mike's Subs,Q6184897,jerseymikessubs-4d2ff4
-93.3570880,45.1242250,fGymDVe0xtyci3KAashicuaNEgI=,"5901 94th Ave. North, Brooklyn Park, MN - Jersey Mike's Subs",jerseymikes,fast_food,sandwich,yes,5901 94th Ave. North,Brooklyn Park,MN,55443-2388,US,"5901 94th Ave. North, Brooklyn Park, MN - Jersey Mike's Subs", ,https://www.jerseymikes.com/24027/brooklyn-park-mn,Jersey Mike's Subs,Q6184897,jerseymikessubs-4d2ff4
-93.2343870,45.1586500,Y3fxayoy57qnWlVewS7OAe4XwWQ=,"10340 Baltimore Street NW, Blaine, MN - Jersey Mike's Subs",jerseymikes,fast_food,sandwich,yes,10340 Baltimore Street NW,Blaine,MN,55449-5155,US,"10340 Baltimore Street NW, Blaine, MN - Jersey Mike's Subs", ,https://www.jerseymikes.com/24006/blaine-mn,Jersey Mike's Subs,Q6184897,jerseymikessubs-4d2ff4
-93.1640140,45.1646380,FHyMfBab41ICgQdJtWaxaLFfxX8=,"4190 108th Avenue NE, Blaine, MN - Jersey Mike's Subs",jerseymikes,fast_food,sandwich,yes,4190 108th Avenue NE,Blaine,MN,55449,US,"4190 108th Avenue NE, Blaine, MN - Jersey Mike's Subs", ,https://www.jerseymikes.com/24042/blaine-mn,Jersey Mike's Subs,Q6184897,jerseymikessubs-4d2ff4
-94.2452120,46.3583200,l1y6jhAglESx5Q-E0N8NN8LSJpg=,"14203 Edgewood Drive, Baxter, MN - Jersey Mike's Subs",jerseymikes,fast_food,sandwich,yes,14203 Edgewood Drive,Baxter,MN,56425-6101,US,"14203 Edgewood Drive, Baxter, MN - Jersey Mike's Subs", ,https://www.jerseymikes.com/24037/baxter-mn,Jersey Mike's Subs,Q6184897,jerseymikessubs-4d2ff4
-93.2173800,44.7348600,h8dAI8gWDrsHiu_PI0fatAMKjW0=,"14750 Cedar Avenue South, Apple Valley, MN - Jersey Mike's Subs",jerseymikes,fast_food,sandwich,yes,14750 Cedar Avenue South,Apple Valley,MN,55124-4506,US,"14750 Cedar Avenue South, Apple Valley, MN - Jersey Mike's Subs", ,https://www.jerseymikes.com/24031/apple-valley-mn,Jersey Mike's Subs,Q6184897,jerseymikessubs-4d2ff4
-93.3583960,43.6815340,HOOjEXyvGE0MgNlOeMeP4ck_0vA=,"2524 Bridge Ave, Albert Lea, MN - Jersey Mike's Subs",jerseymikes,fast_food,sandwich,yes,2524 Bridge Ave,Albert Lea,MN,56007-2097,US,"2524 Bridge Ave, Albert Lea, MN - Jersey Mike's Subs", ,https://www.jerseymikes.com/24045/albert-lea-mn,Jersey Mike's Subs,Q6184897,jerseymikessubs-4d2ff4
-89.8747070,34.9629740,NxtLpmsORnYEY4D_YJb-jgJMLN0=,"6518 Goodman Road, Olive Branch, MS - Jersey Mike's Subs",jerseymikes,fast_food,sandwich,yes,6518 Goodman Road,Olive Branch,MS,38654-9809,US,"6518 Goodman Road, Olive Branch, MS - Jersey Mike's Subs", ,https://www.jerseymikes.com/45001/olive-branch-ms,Jersey Mike's Subs,Q6184897,jerseymikessubs-4d2ff4
-90.1096990,32.4634230,s6i39BZeTj7na8jpWXB8ba724hQ=,"1060 US Highway 51, Madison, MS - Jersey Mike's Subs",jerseymikes,fast_food,sandwich,yes,1060 US Highway 51,Madison,MS,39110-7000,US,"1060 US Highway 51, Madison, MS - Jersey Mike's Subs", ,https://www.jerseymikes.com/45003/madison-ms,Jersey Mike's Subs,Q6184897,jerseymikessubs-4d2ff4
-90.1085080,32.5164260,PKkSPUln18ujiO7i-uH_W0yXXIQ=,"1091 Gluckstadt Rd, Gluckstadt, MS - Jersey Mike's Subs",jerseymikes,fast_food,sandwich,yes,1091 Gluckstadt Rd,Gluckstadt,MS,39110-9442,US,"1091 Gluckstadt Rd, Gluckstadt, MS - Jersey Mike's Subs", ,https://www.jerseymikes.com/45005/gluckstadt-ms,Jersey Mike's Subs,Q6184897,jerseymikessubs-4d2ff4
-90.0630390,32.3372850,ODlymj67KEGdjacvXN5imrcusvs=,"264 Dogwood Blvd, Flowood, MS - Jersey Mike's Subs",jerseymikes,fast_food,sandwich,yes,264 Dogwood Blvd,Flowood,MS,39232-8602,US,"264 Dogwood Blvd, Flowood, MS - Jersey Mike's Subs", ,https://www.jerseymikes.com/45004/flowood-ms,Jersey Mike's Subs,Q6184897,jerseymikessubs-4d2ff4
-88.9000560,30.4561600,mxC3rGJmN17i-sKpVIMwudrYZjA=,"3821B Promenade Pkwy, D'Iberville, MS - Jersey Mike's Subs",jerseymikes,fast_food,sandwich,yes,3821B Promenade Pkwy,D'Iberville,MS,39540-5375,US,"3821B Promenade Pkwy, D'Iberville, MS - Jersey Mike's Subs", ,https://www.jerseymikes.com/45007/diberville-ms,Jersey Mike's Subs,Q6184897,jerseymikessubs-4d2ff4
-90.3986420,38.7367380,m0WtvYG71USiVaFhuveQq3RbcGI=,"991 Northwest Plaza Dr, St. Ann, MO - Jersey Mike's Subs",jerseymikes,fast_food,sandwich,yes,991 Northwest Plaza Dr,St. Ann,MO,63074-2207,US,"991 Northwest Plaza Dr, St. Ann, MO - Jersey Mike's Subs", ,https://www.jerseymikes.com/25013/st-ann-mo,Jersey Mike's Subs,Q6184897,jerseymikessubs-4d2ff4
-93.2818590,37.1592470,C0nkbBwDhzNPODnBuE5isUbySMo=,"1008 East Battlefield Road, Springfield, MO - Jersey Mike's Subs",jerseymikes,fast_food,sandwich,yes,1008 East Battlefield Road,Springfield,MO,65807-5870,US,"1008 East Battlefield Road, Springfield, MO - Jersey Mike's Subs", ,https://www.jerseymikes.com/25010/springfield-mo,Jersey Mike's Subs,Q6184897,jerseymikessubs-4d2ff4
-93.2632070,37.1797820,BmfozwXeir3uzh1cYKTSGmxX6Xk=,"1903 S Glenstone Ave, Springfield, MO - Jersey Mike's Subs",jerseymikes,fast_food,sandwich,yes,1903 S Glenstone Ave,Springfield,MO,65804-2304,US,"1903 S Glenstone Ave, Springfield, MO - Jersey Mike's Subs", ,https://www.jerseymikes.com/25004/springfield-mo,Jersey Mike's Subs,Q6184897,jerseymikessubs-4d2ff4
-90.6999930,38.7736790,J8MCe_Vf6jEO_yvNnYh4EYTNEBU=,"2508 Hwy K, OFallon, MO - Jersey Mike's Subs",jerseymikes,fast_food,sandwich,yes,2508 Hwy K,OFallon,MO,63368-6625,US,"2508 Hwy K, OFallon, MO - Jersey Mike's Subs", ,https://www.jerseymikes.com/25005/ofallon-mo,Jersey Mike's Subs,Q6184897,jerseymikessubs-4d2ff4
-94.4024540,38.9305450,8xfRxMWxdYv_7KKxqZHDVhAKjGk=,"940 NW Blue Parkway , Lee's Summit, MO - Jersey Mike's Subs",jerseymikes,fast_food,sandwich,yes,940 NW Blue Parkway ,Lee's Summit,MO,64086-6074,US,"940 NW Blue Parkway , Lee's Summit, MO - Jersey Mike's Subs", ,https://www.jerseymikes.com/25009/lees-summit-mo,Jersey Mike's Subs,Q6184897,jerseymikessubs-4d2ff4
-92.2061210,38.5809200,4svfrpH6hBnDQAqeEwPgL4cohLI=,"2111 Missouri Blvd., Jefferson City, MO - Jersey Mike's Subs",jerseymikes,fast_food,sandwich,yes,2111 Missouri Blvd.,Jefferson City,MO,65109-4773,US,"2111 Missouri Blvd., Jefferson City, MO - Jersey Mike's Subs", ,https://www.jerseymikes.com/25012/jefferson-city-mo,Jersey Mike's Subs,Q6184897,jerseymikessubs-4d2ff4
-90.4376700,38.6033470,2i6BNBbFsJyUNwID46dRU0hIQXM=,"12113 Manchester Rd, Des Peres, MO - Jersey Mike's Subs",jerseymikes,fast_food,sandwich,yes,12113 Manchester Rd,Des Peres,MO,63131-4310,US,"12113 Manchester Rd, Des Peres, MO - Jersey Mike's Subs", ,https://www.jerseymikes.com/25008/des-peres-mo,Jersey Mike's Subs,Q6184897,jerseymikessubs-4d2ff4
-92.3707200,38.9626610,4Dz_WFPYreRiHJ4OBV5Wjpg3gho=,Sandwiches & Subs at Worley Street - Jersey Mike's,jerseymikes,fast_food,sandwich,yes,2001 West Worley Street,Columbia,MO,65203-5003,US,Sandwiches & Subs at Worley Street - Jersey Mike's, ,https://www.jerseymikes.com/25011/columbia-mo,Jersey Mike's Subs,Q6184897,jerseymikessubs-4d2ff4
-92.3226790,38.9115520,PeMHkc2H3PR8bEOFtnueeziRgTE=,Sandwiches & Subs at Grindstone Parkway - Jersey Mike's,jerseymikes,fast_food,sandwich,yes,1101 Grindstone Parkway,Columbia,MO,65201-3757,US,Sandwiches & Subs at Grindstone Parkway - Jersey Mike's, ,https://www.jerseymikes.com/25007/columbia-mo,Jersey Mike's Subs,Q6184897,jerseymikessubs-4d2ff4
-90.5984490,38.6684210,EeoQvd2ZgeoavCEc3nI--lDwuZU=,"17273 Chesterfield Airport Rd, Chesterfield, MO - Jersey Mike's Subs",jerseymikes,fast_food,sandwich,yes,17273 Chesterfield Airport Rd,Chesterfield,MO,63005-1423,US,"17273 Chesterfield Airport Rd, Chesterfield, MO - Jersey Mike's Subs", ,https://www.jerseymikes.com/25003/chesterfield-mo,Jersey Mike's Subs,Q6184897,jerseymikessubs-4d2ff4
-94.2468370,39.0260570,n6YKG4rbb_l9bzu21VyJ4oa2aBg=,"1209 NE Coronado Drive, Blue Springs, MO - Jersey Mike's Subs",jerseymikes,fast_food,sandwich,yes,1209 NE Coronado Drive,Blue Springs,MO,64014-2928,US,"1209 NE Coronado Drive, Blue Springs, MO - Jersey Mike's Subs", ,https://www.jerseymikes.com/25006/blue-springs-mo,Jersey Mike's Subs,Q6184897,jerseymikessubs-4d2ff4
-111.3153030,47.5122640,mkvVSAyRd5afrqVR0GCB8DRLeQI=,"413 3rd Street NW, Great Falls, MT - Jersey Mike's Subs",jerseymikes,fast_food,sandwich,yes,413 3rd Street NW,Great Falls,MT,59404,US,"413 3rd Street NW, Great Falls, MT - Jersey Mike's Subs", ,https://www.jerseymikes.com/41006/great-falls-mt,Jersey Mike's Subs,Q6184897,jerseymikessubs-4d2ff4
-111.1867480,45.6765390,wc5T2mGbsrdQvKry9pPxAAtbIRg=,"85 Milltown Loop , Bozeman, MT - Jersey Mike's Subs",jerseymikes,fast_food,sandwich,yes,85 Milltown Loop ,Bozeman,MT,59718-5140,US,"85 Milltown Loop , Bozeman, MT - Jersey Mike's Subs", ,https://www.jerseymikes.com/41007/bozeman-mt,Jersey Mike's Subs,Q6184897,jerseymikessubs-4d2ff4
-111.0582280,45.6796840,6fCflF_ncDsWD6_ylQcNz7mLo4Q=,"1531 West Main Street, Bozeman, MT - Jersey Mike's Subs",jerseymikes,fast_food,sandwich,yes,1531 West Main Street,Bozeman,MT,59715-4000,US,"1531 West Main Street, Bozeman, MT - Jersey Mike's Subs", ,https://www.jerseymikes.com/41001/bozeman-mt,Jersey Mike's Subs,Q6184897,jerseymikessubs-4d2ff4
-108.6162440,45.7505090,zLJ2Nl583eOAkpCHEML7GKMnSG0=,"1020 Shiloh Crossing Blvd., Billings, MT - Jersey Mike's Subs",jerseymikes,fast_food,sandwich,yes,1020 Shiloh Crossing Blvd.,Billings,MT,59102-7337,US,"1020 Shiloh Crossing Blvd., Billings, MT - Jersey Mike's Subs", ,https://www.jerseymikes.com/41002/billings-mt,Jersey Mike's Subs,Q6184897,jerseymikessubs-4d2ff4
-108.4764420,45.8042270,ZhtOeWiz8F27xmUqfC_DZgEPgyE=,"315 Main Street, Billings, MT - Jersey Mike's Subs",jerseymikes,fast_food,sandwich,yes,315 Main Street,Billings,MT,59105-3265,US,"315 Main Street, Billings, MT - Jersey Mike's Subs", ,https://www.jerseymikes.com/41004/billings-mt,Jersey Mike's Subs,Q6184897,jerseymikessubs-4d2ff4
-111.1832680,45.7736090,u1cl2r9B-H_A97rbsXVlY5YDbmg=,"203 West Madison Ave., Belgrade, MT - Jersey Mike's Subs",jerseymikes,fast_food,sandwich,yes,203 West Madison Ave.,Belgrade,MT,59714-3959,US,"203 West Madison Ave., Belgrade, MT - Jersey Mike's Subs", ,https://www.jerseymikes.com/41003/belgrade-mt,Jersey Mike's Subs,Q6184897,jerseymikessubs-4d2ff4
-96.1961380,41.2584920,KeqprYB0o4FyOk3CVzoRZ1AvF60=,"203 N. 180th Street, Omaha, NE - Jersey Mike's Subs",jerseymikes,fast_food,sandwich,yes,203 N. 180th Street,Omaha,NE,68118-3565,US,"203 N. 180th Street, Omaha, NE - Jersey Mike's Subs", ,https://www.jerseymikes.com/33007/omaha-ne,Jersey Mike's Subs,Q6184897,jerseymikessubs-4d2ff4
-96.0238320,41.2466100,oTcYwuolKabXhBBNsIsbnMh_zuo=,"1303 S. 72nd Street, Omaha, NE - Jersey Mike's Subs",jerseymikes,fast_food,sandwich,yes,1303 S. 72nd Street,Omaha,NE,68124-1605,US,"1303 S. 72nd Street, Omaha, NE - Jersey Mike's Subs", ,https://www.jerseymikes.com/33003/omaha-ne,Jersey Mike's Subs,Q6184897,jerseymikessubs-4d2ff4
-96.6508270,40.8131310,zW0uB0NpXXLh03HigGd_jWEiq5Q=,"5001 O Street , Lincoln, NE - Jersey Mike's Subs",jerseymikes,fast_food,sandwich,yes,5001 O Street ,Lincoln,NE,68510-1937,US,"5001 O Street , Lincoln, NE - Jersey Mike's Subs", ,https://www.jerseymikes.com/33002/lincoln-ne,Jersey Mike's Subs,Q6184897,jerseymikessubs-4d2ff4
-96.6800470,40.7387190,13iNtNe4R6Gm6N_OaDV2hSBz76Q=,"2801 Pine Lake Road, Lincoln, NE - Jersey Mike's Subs",jerseymikes,fast_food,sandwich,yes,2801 Pine Lake Road,Lincoln,NE,68516-6041,US,"2801 Pine Lake Road, Lincoln, NE - Jersey Mike's Subs", ,https://www.jerseymikes.com/33006/lincoln-ne,Jersey Mike's Subs,Q6184897,jerseymikessubs-4d2ff4
-95.9359420,41.1592690,lwbKVMZLvkuCVCiEuwF89ZvWYzw=,"10110 South 15th Street, Bellevue, NE - Jersey Mike's Subs",jerseymikes,fast_food,sandwich,yes,10110 South 15th Street,Bellevue,NE,68123-4036,US,"10110 South 15th Street, Bellevue, NE - Jersey Mike's Subs", ,https://www.jerseymikes.com/33005/bellevue-ne,Jersey Mike's Subs,Q6184897,jerseymikessubs-4d2ff4
-115.2809120,36.0560750,_51VEB0woKjBNaEbAs3-OPGUAXg=,"8680 W. Warm Springs Road , Las Vegas, NV - Jersey Mike's Subs",jerseymikes,fast_food,sandwich,yes,8680 W. Warm Springs Road ,Las Vegas,NV,89148-1826,US,"8680 W. Warm Springs Road , Las Vegas, NV - Jersey Mike's Subs", ,https://www.jerseymikes.com/17008/las-vegas-nv,Jersey Mike's Subs,Q6184897,jerseymikessubs-4d2ff4
-115.2430600,36.1521600,TcF_yJwOX4DgA3jnYWLGjpiTB0k=,"1770 S. Rainbow Blvd., Las Vegas, NV - Jersey Mike's Subs",jerseymikes,fast_food,sandwich,yes,1770 S. Rainbow Blvd.,Las Vegas,NV,89146-0005,US,"1770 S. Rainbow Blvd., Las Vegas, NV - Jersey Mike's Subs", ,https://www.jerseymikes.com/17006/las-vegas-nv,Jersey Mike's Subs,Q6184897,jerseymikessubs-4d2ff4
-115.1506500,36.0851290,3_5K6o3VREMQ3kjYGxmY4n92Euo=,"5757 Wayne Newton Blvd., Las Vegas, NV - Jersey Mike's Subs",jerseymikes,fast_food,sandwich,yes,5757 Wayne Newton Blvd.,Las Vegas,NV,89111-8037,US,"5757 Wayne Newton Blvd., Las Vegas, NV - Jersey Mike's Subs", ,https://www.jerseymikes.com/17010/las-vegas-nv,Jersey Mike's Subs,Q6184897,jerseymikessubs-4d2ff4
-115.3001630,36.1154210,zyf30BzU_kRpdTTKem522qh9dyU=,"9540 West Flamingo, Las Vegas, NV - Jersey Mike's Subs",jerseymikes,fast_food,sandwich,yes,9540 West Flamingo,Las Vegas,NV,89147-5752,US,"9540 West Flamingo, Las Vegas, NV - Jersey Mike's Subs", ,https://www.jerseymikes.com/17018/las-vegas-nv,Jersey Mike's Subs,Q6184897,jerseymikessubs-4d2ff4
-115.2768110,36.2190150,iIKvldXJwtlwgV0mx_xAnssvZso=,"8410 W. Cheyenne, Las Vegas, NV - Jersey Mike's Subs",jerseymikes,fast_food,sandwich,yes,8410 W. Cheyenne,Las Vegas,NV,89129-5110,US,"8410 W. Cheyenne, Las Vegas, NV - Jersey Mike's Subs", ,https://www.jerseymikes.com/17015/las-vegas-nv,Jersey Mike's Subs,Q6184897,jerseymikessubs-4d2ff4
-115.1239030,36.2401970,T_zlpgd7i9F1YpblPfexkyrwudY=,"1620 E. Craig Road, Las Vegas, NV - Jersey Mike's Subs",jerseymikes,fast_food,sandwich,yes,1620 E. Craig Road,Las Vegas,NV,89030-3376,US,"1620 E. Craig Road, Las Vegas, NV - Jersey Mike's Subs", ,https://www.jerseymikes.com/17023/las-vegas-nv,Jersey Mike's Subs,Q6184897,jerseymikessubs-4d2ff4
-115.2673440,36.2705820,sjsbB5XQIqjZuSwnSpCupQFGMyg=,"7901 W. Tropical Parkway, Las Vegas, NV - Jersey Mike's Subs",jerseymikes,fast_food,sandwich,yes,7901 W. Tropical Parkway,Las Vegas,NV,89149-4550,US,"7901 W. Tropical Parkway, Las Vegas, NV - Jersey Mike's Subs", ,https://www.jerseymikes.com/17022/las-vegas-nv,Jersey Mike's Subs,Q6184897,jerseymikessubs-4d2ff4
-115.2645480,36.0195510,Q206ZqySJwYEbJyhbq3nMYq9yAA=,"7959 Blue Diamond Rd, Las Vegas, NV - Jersey Mike's Subs",jerseymikes,fast_food,sandwich,yes,7959 Blue Diamond Rd,Las Vegas,NV,89178-9351,US,"7959 Blue Diamond Rd, Las Vegas, NV - Jersey Mike's Subs", ,https://www.jerseymikes.com/17025/las-vegas-nv,Jersey Mike's Subs,Q6184897,jerseymikessubs-4d2ff4
-115.1302280,35.9410340,XUrhzvd-ZxNh-NZ0lE82kHi-vTE=,"2345 Via Inspirada Parkway, Henderson, NV - Jersey Mike's Subs",jerseymikes,fast_food,sandwich,yes,2345 Via Inspirada Parkway,Henderson,NV,89044-1849,US,"2345 Via Inspirada Parkway, Henderson, NV - Jersey Mike's Subs", ,https://www.jerseymikes.com/17024/henderson-nv,Jersey Mike's Subs,Q6184897,jerseymikessubs-4d2ff4
-115.0478350,36.0336120,xul2hB7OlgKO49XxkjlLbTDNl1U=,"55 N. Stephanie St., Henderson, NV - Jersey Mike's Subs",jerseymikes,fast_food,sandwich,yes,55 N. Stephanie St.,Henderson,NV,89074-8079,US,"55 N. Stephanie St., Henderson, NV - Jersey Mike's Subs", ,https://www.jerseymikes.com/17021/henderson-nv,Jersey Mike's Subs,Q6184897,jerseymikessubs-4d2ff4
-115.1056100,36.0005400,dnwx6l5ECFm78aJpZaiNQNTRXKY=,"10520 S. Eastern Ave., Henderson, NV - Jersey Mike's Subs",jerseymikes,fast_food,sandwich,yes,10520 S. Eastern Ave.,Henderson,NV,89052-3921,US,"10520 S. Eastern Ave., Henderson, NV - Jersey Mike's Subs", ,https://www.jerseymikes.com/17014/henderson-nv,Jersey Mike's Subs,Q6184897,jerseymikessubs-4d2ff4
-70.8816190,43.2271850,-2K7wY_dplN5gf1xrf_wtwsm94A=,"120 Tri City Road, Somersworth, NH - Jersey Mike's Subs",jerseymikes,fast_food,sandwich,yes,120 Tri City Road,Somersworth,NH,03878-1325,US,"120 Tri City Road, Somersworth, NH - Jersey Mike's Subs", ,https://www.jerseymikes.com/37009/somersworth-nh,Jersey Mike's Subs,Q6184897,jerseymikessubs-4d2ff4
-70.8709020,42.8943210,p8Q6TBt_JMHGVWQV6b-tKlqhwzY=,"652 Lafayette Road, Seabrook, NH - Jersey Mike's Subs",jerseymikes,fast_food,sandwich,yes,652 Lafayette Road,Seabrook,NH,03874-4346,US,"652 Lafayette Road, Seabrook, NH - Jersey Mike's Subs", ,https://www.jerseymikes.com/37005/seabrook-nh,Jersey Mike's Subs,Q6184897,jerseymikessubs-4d2ff4
-70.7911800,43.0883240,VUFgcFjghtKhOBvXDwGrHB76WIE=,"1600 Woodbury Avenue, Portsmouth, NH - Jersey Mike's Subs",jerseymikes,fast_food,sandwich,yes,1600 Woodbury Avenue,Portsmouth,NH,03801-3250,US,"1600 Woodbury Avenue, Portsmouth, NH - Jersey Mike's Subs", ,https://www.jerseymikes.com/37011/portsmouth-nh,Jersey Mike's Subs,Q6184897,jerseymikessubs-4d2ff4
-71.4376130,42.9599840,wJgKWGppL5Yv1W6-yyf1zo0mVFE=,"1229 South Willow Street, Manchester, NH - Jersey Mike's Subs",jerseymikes,fast_food,sandwich,yes,1229 South Willow Street,Manchester,NH,03103-4030,US,"1229 South Willow Street, Manchester, NH - Jersey Mike's Subs", ,https://www.jerseymikes.com/37007/manchester-nh,Jersey Mike's Subs,Q6184897,jerseymikessubs-4d2ff4
-71.3526820,42.8635030,Ss_Yfx9_hPmmBSMWQ4QkQqXjTkU=,"4 Orchard View Drive, Londonderry, NH - Jersey Mike's Subs",jerseymikes,fast_food,sandwich,yes,4 Orchard View Drive,Londonderry,NH,03053-3372,US,"4 Orchard View Drive, Londonderry, NH - Jersey Mike's Subs", ,https://www.jerseymikes.com/37008/londonderry-nh,Jersey Mike's Subs,Q6184897,jerseymikessubs-4d2ff4
-72.2901220,42.9235000,7cuCqakDev80sFBm3WBjZRqfNic=,"348 Winchester Street, Keene, NH - Jersey Mike's Subs",jerseymikes,fast_food,sandwich,yes,348 Winchester Street,Keene,NH,03431-3936,US,"348 Winchester Street, Keene, NH - Jersey Mike's Subs", ,https://www.jerseymikes.com/37001/keene-nh,Jersey Mike's Subs,Q6184897,jerseymikessubs-4d2ff4
-71.4262500,42.7319800,QiHSFaldMKI403xTyvEBShAxHbM=,"6 Flagstone Drive, Hudson, NH - Jersey Mike's Subs",jerseymikes,fast_food,sandwich,yes,6 Flagstone Drive,Hudson,NH,03051-4904,US,"6 Flagstone Drive, Hudson, NH - Jersey Mike's Subs", ,https://www.jerseymikes.com/37002/hudson-nh,Jersey Mike's Subs,Q6184897,jerseymikessubs-4d2ff4
-70.9311190,42.9897050,rAoWVbyaqaDAisfoaqKbWvfrddU=,"141 Portsmouth Avenue, Exeter, NH - Jersey Mike's Subs",jerseymikes,fast_food,sandwich,yes,141 Portsmouth Avenue,Exeter,NH,03833-2105,US,"141 Portsmouth Avenue, Exeter, NH - Jersey Mike's Subs", ,https://www.jerseymikes.com/37003/exeter-nh,Jersey Mike's Subs,Q6184897,jerseymikessubs-4d2ff4
-71.5801020,43.2888060,Fd4LvEkq3Boj4xI9fHRrAuxwL34=,"4 Merchants Way, Concord, NH - Jersey Mike's Subs",jerseymikes,fast_food,sandwich,yes,4 Merchants Way,Concord,NH,3301,US,"4 Merchants Way, Concord, NH - Jersey Mike's Subs", ,https://www.jerseymikes.com/37004/concord-nh,Jersey Mike's Subs,Q6184897,jerseymikessubs-4d2ff4
-74.1101600,40.0461400,SIdub3xGn-VXhZNQubaJg4G8fOM=,"602 Mantoloking Road, Brick, NJ - Jersey Mike's Subs",jerseymikes,fast_food,sandwich,yes,602 Mantoloking Road,Brick,NJ,08723-5572,US,"602 Mantoloking Road, Brick, NJ - Jersey Mike's Subs", ,https://www.jerseymikes.com/1026/brick-nj,Jersey Mike's Subs,Q6184897,jerseymikessubs-4d2ff4
-74.1046820,40.0756560,dwu3l2RdvxNgyzOxLICrlRHPfAI=,"2085 Route 88, Brick, NJ - Jersey Mike's Subs",jerseymikes,fast_food,sandwich,yes,2085 Route 88,Brick,NJ,08724-3270,US,"2085 Route 88, Brick, NJ - Jersey Mike's Subs", ,https://www.jerseymikes.com/1007/brick-nj,Jersey Mike's Subs,Q6184897,jerseymikessubs-4d2ff4
-74.1388420,40.0574410,d6KPF2RwmEqKrWnuO4V1BnO0A1s=,"56 Chambers Bridge Road, Brick, NJ - Jersey Mike's Subs",jerseymikes,fast_food,sandwich,yes,56 Chambers Bridge Road,Brick,NJ,08723-4148,US,"56 Chambers Bridge Road, Brick, NJ - Jersey Mike's Subs", ,https://www.jerseymikes.com/1029/brick-nj,Jersey Mike's Subs,Q6184897,jerseymikessubs-4d2ff4
-74.3980680,40.9080810,F_LHGr_d3P_lD5urIcYylNx3f9E=,"534 Myrtle Avenue, Boonton, NJ - Jersey Mike's Subs",jerseymikes,fast_food,sandwich,yes,534 Myrtle Avenue,Boonton,NJ,07005-1914,US,"534 Myrtle Avenue, Boonton, NJ - Jersey Mike's Subs", ,https://www.jerseymikes.com/1119/boonton-nj,Jersey Mike's Subs,Q6184897,jerseymikessubs-4d2ff4
-74.5634390,40.7203350,felDsKNGI0321crCxYce9j68cEc=,"80 Morristown Road, Bernardsville, NJ - Jersey Mike's Subs",jerseymikes,fast_food,sandwich,yes,80 Morristown Road,Bernardsville,NJ,07924-2313,US,"80 Morristown Road, Bernardsville, NJ - Jersey Mike's Subs", ,https://www.jerseymikes.com/1070/bernardsville-nj,Jersey Mike's Subs,Q6184897,jerseymikessubs-4d2ff4
-74.0136210,40.1764730,VEeFxr7-SrIBi1IvANayyzI-8I4=,"1001 Ocean Avenue, Belmar, NJ - Jersey Mike's Subs",jerseymikes,fast_food,sandwich,yes,1001 Ocean Avenue,Belmar,NJ,07719-2350,US,"1001 Ocean Avenue, Belmar, NJ - Jersey Mike's Subs", ,https://www.jerseymikes.com/1141/belmar-nj,Jersey Mike's Subs,Q6184897,jerseymikessubs-4d2ff4
-74.0237330,40.1843320,drRKjLoW6yt5sHwGHJIVuUNYH8I=,"500 Main Street, Belmar, NJ - Jersey Mike's Subs",jerseymikes,fast_food,sandwich,yes,500 Main Street,Belmar,NJ,07719-2175,US,"500 Main Street, Belmar, NJ - Jersey Mike's Subs", ,https://www.jerseymikes.com/1108/belmar-nj,Jersey Mike's Subs,Q6184897,jerseymikessubs-4d2ff4
-74.1617490,39.9206660,mS21m73pkqc58XqwYoH6RWYr16M=,"333 Atlantic City Blvd., Bayville, NJ - Jersey Mike's Subs",jerseymikes,fast_food,sandwich,yes,333 Atlantic City Blvd.,Bayville,NJ,08721-1262,US,"333 Atlantic City Blvd., Bayville, NJ - Jersey Mike's Subs", ,https://www.jerseymikes.com/1031/bayville-nj,Jersey Mike's Subs,Q6184897,jerseymikessubs-4d2ff4
-74.1082120,40.6605770,nSkd0W3TBipTKcC0swqNki1Ef9E=,"901 Bayonne Crossing Way, Bayonne, NJ - Jersey Mike's Subs",jerseymikes,fast_food,sandwich,yes,901 Bayonne Crossing Way,Bayonne,NJ,07002-5307,US,"901 Bayonne Crossing Way, Bayonne, NJ - Jersey Mike's Subs", ,https://www.jerseymikes.com/1086/bayonne-nj,Jersey Mike's Subs,Q6184897,jerseymikessubs-4d2ff4
-74.2570680,39.7575150,3drAB5iqqh88IyVYkdKWCI2jMF4=,"770D-A  Lighthouse Drive, Barnegat, NJ - Jersey Mike's Subs",jerseymikes,fast_food,sandwich,yes,770D-A  Lighthouse Drive,Barnegat,NJ,08005-2373,US,"770D-A  Lighthouse Drive, Barnegat, NJ - Jersey Mike's Subs", ,https://www.jerseymikes.com/1099/barnegat-nj,Jersey Mike's Subs,Q6184897,jerseymikessubs-4d2ff4
-74.0411190,40.4089410,R23u37_gEnnVTGp65H3XIP3W9Fo=,"7 Bayshore Plaza, Atlantic Highlands, NJ - Jersey Mike's Subs",jerseymikes,fast_food,sandwich,yes,7 Bayshore Plaza,Atlantic Highlands,NJ,07716-1109,US,"7 Bayshore Plaza, Atlantic Highlands, NJ - Jersey Mike's Subs", ,https://www.jerseymikes.com/1071/atlantic-highlands-nj,Jersey Mike's Subs,Q6184897,jerseymikessubs-4d2ff4
-106.6975640,35.2393710,H0dJnFIY0WrymuygorSuD7o9CXY=,"1121 Unser Blvd SE, Rio Rancho, NM - Jersey Mike's Subs",jerseymikes,fast_food,sandwich,yes,1121 Unser Blvd SE,Rio Rancho,NM,87124-6372,US,"1121 Unser Blvd SE, Rio Rancho, NM - Jersey Mike's Subs", ,https://www.jerseymikes.com/39004/rio-rancho-nm,Jersey Mike's Subs,Q6184897,jerseymikessubs-4d2ff4
-106.7536940,34.8144010,1cqQlXhKwon2dCkYQFQEuvf5e7g=,"1660 Main Street, Los Lunas, NM - Jersey Mike's Subs",jerseymikes,fast_food,sandwich,yes,1660 Main Street,Los Lunas,NM,87031-4884,US,"1660 Main Street, Los Lunas, NM - Jersey Mike's Subs", ,https://www.jerseymikes.com/39007/los-lunas-nm,Jersey Mike's Subs,Q6184897,jerseymikessubs-4d2ff4
-106.6624450,35.1871620,yyLpgLLfOQVF8i7q0VX6r01AWv4=,"9411 Coors Blvd., Albuquerque, NM - Jersey Mike's Subs",jerseymikes,fast_food,sandwich,yes,9411 Coors Blvd.,Albuquerque,NM,87114-4007,US,"9411 Coors Blvd., Albuquerque, NM - Jersey Mike's Subs", ,https://www.jerseymikes.com/39008/albuquerque-nm,Jersey Mike's Subs,Q6184897,jerseymikessubs-4d2ff4
-106.5764220,35.1754630,IDI1utg-xfj6_08SM6kWyEPhkvE=,"6400 Holly Avenue, Albuquerque, NM - Jersey Mike's Subs",jerseymikes,fast_food,sandwich,yes,6400 Holly Avenue,Albuquerque,NM,87113-2549,US,"6400 Holly Avenue, Albuquerque, NM - Jersey Mike's Subs", ,https://www.jerseymikes.com/39006/albuquerque-nm,Jersey Mike's Subs,Q6184897,jerseymikessubs-4d2ff4
-106.6167820,35.0805730,Uw7xV7WwTXn4gS5ElrFQ8MmN55M=,"2608 Central Ave SE, Albuquerque, NM - Jersey Mike's Subs",jerseymikes,fast_food,sandwich,yes,2608 Central Ave SE,Albuquerque,NM,87106-3610,US,"2608 Central Ave SE, Albuquerque, NM - Jersey Mike's Subs", ,https://www.jerseymikes.com/39005/albuquerque-nm,Jersey Mike's Subs,Q6184897,jerseymikessubs-4d2ff4
-106.5351100,35.1290760,B6Y_mFT20m6M-neXS5ZYFar1Wc4=,"9500 Montgomery Blvd NE, Albuquerque, NM - Jersey Mike's Subs",jerseymikes,fast_food,sandwich,yes,9500 Montgomery Blvd NE,Albuquerque,NM,87111-2569,US,"9500 Montgomery Blvd NE, Albuquerque, NM - Jersey Mike's Subs", ,https://www.jerseymikes.com/39003/albuquerque-nm,Jersey Mike's Subs,Q6184897,jerseymikessubs-4d2ff4
-106.5858760,35.1445370,-aiXfPtQuHmp4mdcbhR5NtRzfOk=,"6060 San Mateo Blvd NE, Albuquerque, NM - Jersey Mike's Subs",jerseymikes,fast_food,sandwich,yes,6060 San Mateo Blvd NE,Albuquerque,NM,87109-3451,US,"6060 San Mateo Blvd NE, Albuquerque, NM - Jersey Mike's Subs", ,https://www.jerseymikes.com/39002/albuquerque-nm,Jersey Mike's Subs,Q6184897,jerseymikessubs-4d2ff4
-106.7032350,35.1131970,kKQHwImVoNOvzbAvuy1ki8zV8ao=,"2621 Coors Blvd. NW, Albuquerque, NM - Jersey Mike's Subs",jerseymikes,fast_food,sandwich,yes,2621 Coors Blvd. NW,Albuquerque,NM,87120-1729,US,"2621 Coors Blvd. NW, Albuquerque, NM - Jersey Mike's Subs", ,https://www.jerseymikes.com/39001/albuquerque-nm,Jersey Mike's Subs,Q6184897,jerseymikessubs-4d2ff4
-75.8971350,42.1569150,nwEn2gDRGv4h7uOr0N40LzaZKCw=,"1257 Upper Front Street, Binghamton, NY - Jersey Mike's Subs",jerseymikes,fast_food,sandwich,yes,1257 Upper Front Street,Binghamton,NY,13905,US,"1257 Upper Front Street, Binghamton, NY - Jersey Mike's Subs", ,https://www.jerseymikes.com/34051/binghamton-ny,Jersey Mike's Subs,Q6184897,jerseymikessubs-4d2ff4
-73.4871160,40.7257290,jBkfNZXFedIR6b9YdEoey1AxUTA=,"4025C  Hempstead Turnpike, Bethpage, NY - Jersey Mike's Subs",jerseymikes,fast_food,sandwich,yes,4025C  Hempstead Turnpike,Bethpage,NY,11714-5602,US,"4025C  Hempstead Turnpike, Bethpage, NY - Jersey Mike's Subs", ,https://www.jerseymikes.com/34038/bethpage-ny,Jersey Mike's Subs,Q6184897,jerseymikessubs-4d2ff4
-73.5249080,40.6685180,n_V4ArI1BBaI2EulTYP6unnmPTg=,"2756 Sunrise Hwy, Bellmore, NY - Jersey Mike's Subs",jerseymikes,fast_food,sandwich,yes,2756 Sunrise Hwy,Bellmore,NY,11710-3639,US,"2756 Sunrise Hwy, Bellmore, NY - Jersey Mike's Subs", ,https://www.jerseymikes.com/34018/bellmore-ny,Jersey Mike's Subs,Q6184897,jerseymikessubs-4d2ff4
-73.0489120,40.7482080,AEo_i3-5IcWmmFVI6tIBJJ-olMA=,"869 Montauk Highway, Bayport, NY - Jersey Mike's Subs",jerseymikes,fast_food,sandwich,yes,869 Montauk Highway,Bayport,NY,11705-1613,US,"869 Montauk Highway, Bayport, NY - Jersey Mike's Subs", ,https://www.jerseymikes.com/34017/bayport-ny,Jersey Mike's Subs,Q6184897,jerseymikessubs-4d2ff4
-73.2295000,40.7288220,Drd01VzNbg3mTKYks9IDUrq7yOE=,"585 Main Street (Montauk Highway), Bay Shore, NY - Jersey Mike's Subs",jerseymikes,fast_food,sandwich,yes,585 Main Street (Montauk Highway),Bay Shore,NY,11706-8505,US,"585 Main Street (Montauk Highway), Bay Shore, NY - Jersey Mike's Subs", ,https://www.jerseymikes.com/34045/bay-shore-ny,Jersey Mike's Subs,Q6184897,jerseymikessubs-4d2ff4
-74.1876690,42.9654040,EP9p7OaZYNjkX1HctaUsp3GCouM=,"4930 State Highway 30, Amsterdam, NY - Jersey Mike's Subs",jerseymikes,fast_food,sandwich,yes,4930 State Highway 30,Amsterdam,NY,12010-7567,US,"4930 State Highway 30, Amsterdam, NY - Jersey Mike's Subs", ,https://www.jerseymikes.com/34031/amsterdam-ny,Jersey Mike's Subs,Q6184897,jerseymikessubs-4d2ff4
-78.6973850,42.9890320,1IHMhlCg02OdyA4AjLNEtqhkGwg=,"8100 Transit Rd, Amherst, NY - Jersey Mike's Subs",jerseymikes,fast_food,sandwich,yes,8100 Transit Rd,Amherst,NY,14221-4200,US,"8100 Transit Rd, Amherst, NY - Jersey Mike's Subs", ,https://www.jerseymikes.com/34070/amherst-ny,Jersey Mike's Subs,Q6184897,jerseymikessubs-4d2ff4
-78.8194340,42.9993040,H6odeMvPYonRdiuJmz1KrHE1mNk=,"1595 Niagara Falls Blvd, Amherst, NY - Jersey Mike's Subs",jerseymikes,fast_food,sandwich,yes,1595 Niagara Falls Blvd,Amherst,NY,14228-2852,US,"1595 Niagara Falls Blvd, Amherst, NY - Jersey Mike's Subs", ,https://www.jerseymikes.com/34053/amherst-ny,Jersey Mike's Subs,Q6184897,jerseymikessubs-4d2ff4
-73.8088680,42.7165700,lxca-IS78mMbPWAmHbP9ScW2uQE=,"109 Wolf Road, Albany, NY - Jersey Mike's Subs",jerseymikes,fast_food,sandwich,yes,109 Wolf Road,Albany,NY,12205-1239,US,"109 Wolf Road, Albany, NY - Jersey Mike's Subs", ,https://www.jerseymikes.com/34030/albany-ny,Jersey Mike's Subs,Q6184897,jerseymikessubs-4d2ff4
-73.8271510,42.6775930,PHs8e8d7eQdvM4R0-1wkJBwrh6w=,"1206-10 Western Avenue, Albany, NY - Jersey Mike's Subs",jerseymikes,fast_food,sandwich,yes,1206-10 Western Avenue,Albany,NY,12203,US,"1206-10 Western Avenue, Albany, NY - Jersey Mike's Subs", ,https://www.jerseymikes.com/34024/albany-ny,Jersey Mike's Subs,Q6184897,jerseymikessubs-4d2ff4
-79.5224960,36.0703560,s9SwtOBhh22xYRLMK3DZ1KBw7I0=,"1433 University Drive, Burlington, NC - Jersey Mike's Subs",jerseymikes,fast_food,sandwich,yes,1433 University Drive,Burlington,NC,27215-8335,US,"1433 University Drive, Burlington, NC - Jersey Mike's Subs", ,https://www.jerseymikes.com/3218/burlington-nc,Jersey Mike's Subs,Q6184897,jerseymikessubs-4d2ff4
-82.7231250,35.2451770,FU00kucNl3s3dg11buHaDly1vpM=,"192 Asheville Hwy., Brevard, NC - Jersey Mike's Subs",jerseymikes,fast_food,sandwich,yes,192 Asheville Hwy.,Brevard,NC,28712,US,"192 Asheville Hwy., Brevard, NC - Jersey Mike's Subs", ,https://www.jerseymikes.com/3203/brevard-nc,Jersey Mike's Subs,Q6184897,jerseymikessubs-4d2ff4
-81.6630440,36.2188200,VZZTYvgdPjdb5Hhs-N1O39KutC4=,"119 New Market Center, Boone, NC - Jersey Mike's Subs",jerseymikes,fast_food,sandwich,yes,119 New Market Center,Boone,NC,28607-3992,US,"119 New Market Center, Boone, NC - Jersey Mike's Subs", ,https://www.jerseymikes.com/3112/boone-nc,Jersey Mike's Subs,Q6184897,jerseymikessubs-4d2ff4
-81.0359270,35.2237260,jufZLqTdvUA3nxGv7lqbbaCEGy4=,"905 South Point Road, Belmont, NC - Jersey Mike's Subs",jerseymikes,fast_food,sandwich,yes,905 South Point Road,Belmont,NC,28012-9520,US,"905 South Point Road, Belmont, NC - Jersey Mike's Subs", ,https://www.jerseymikes.com/3164/belmont-nc,Jersey Mike's Subs,Q6184897,jerseymikessubs-4d2ff4
-82.6034490,35.5827780,qGn48D9BfuHSoWMyrNPVxY1DFbA=,"1341 Parkwood Road, Asheville, NC - Jersey Mike's Subs",jerseymikes,fast_food,sandwich,yes,1341 Parkwood Road,Asheville,NC,28806-8703,US,"1341 Parkwood Road, Asheville, NC - Jersey Mike's Subs", ,https://www.jerseymikes.com/3117/asheville-nc,Jersey Mike's Subs,Q6184897,jerseymikessubs-4d2ff4
-82.5227260,35.5054410,wllUW22CyaMjHtA7ObRnQrwON2o=,"1816 Hendersonville Road, Asheville, NC - Jersey Mike's Subs",jerseymikes,fast_food,sandwich,yes,1816 Hendersonville Road,Asheville,NC,28803-3207,US,"1816 Hendersonville Road, Asheville, NC - Jersey Mike's Subs", ,https://www.jerseymikes.com/3113/asheville-nc,Jersey Mike's Subs,Q6184897,jerseymikessubs-4d2ff4
-82.5187680,35.5750390,qzLqZ_sUwOPTYMw9FzJ6-lfHSAA=,"104A River Hills Road, Asheville, NC - Jersey Mike's Subs",jerseymikes,fast_food,sandwich,yes,104A River Hills Road,Asheville,NC,28805-2545,US,"104A River Hills Road, Asheville, NC - Jersey Mike's Subs", ,https://www.jerseymikes.com/3111/asheville-nc,Jersey Mike's Subs,Q6184897,jerseymikessubs-4d2ff4
-82.5263680,35.4514980,5E3opCWUFzsUxvt73TKflhyWQbg=,"300 Airport Rd., Arden, NC - Jersey Mike's Subs",jerseymikes,fast_food,sandwich,yes,300 Airport Rd.,Arden,NC,28704-9257,US,"300 Airport Rd., Arden, NC - Jersey Mike's Subs", ,https://www.jerseymikes.com/3125/arden-nc,Jersey Mike's Subs,Q6184897,jerseymikessubs-4d2ff4
-78.8210480,35.7456190,KPIO4YVEAeNtXHkLT2QYOt_pGso=,"922 Highway 64, Apex, NC - Jersey Mike's Subs",jerseymikes,fast_food,sandwich,yes,922 Highway 64,Apex,NC,27523-7184,US,"922 Highway 64, Apex, NC - Jersey Mike's Subs", ,https://www.jerseymikes.com/3028/apex-nc,Jersey Mike's Subs,Q6184897,jerseymikessubs-4d2ff4
-78.8772030,35.7589890,TRQlSLxP1Jj5EEEwOZW2--KSKKg=,"1761 Highway 55, Apex, NC - Jersey Mike's Subs",jerseymikes,fast_food,sandwich,yes,1761 Highway 55,Apex,NC,27523,US,"1761 Highway 55, Apex, NC - Jersey Mike's Subs", ,https://www.jerseymikes.com/3080/apex-nc,Jersey Mike's Subs,Q6184897,jerseymikessubs-4d2ff4
-79.4165180,35.1539260,F4cl4h2RlVTauNKMy-DQ3yS7Wno=,"11109 US Hwy 15/501, Aberdeen, NC - Jersey Mike's Subs",jerseymikes,fast_food,sandwich,yes,11109 US Hwy 15/501,Aberdeen,NC,28315-2428,US,"11109 US Hwy 15/501, Aberdeen, NC - Jersey Mike's Subs", ,https://www.jerseymikes.com/3102/aberdeen-nc,Jersey Mike's Subs,Q6184897,jerseymikessubs-4d2ff4
-101.2970090,48.2401960,UZ7mYw8Y1Z2IIzwSvIOg6vEYpZs=,"304 4th Ave. NW, Minot, ND - Jersey Mike's Subs",jerseymikes,fast_food,sandwich,yes,304 4th Ave. NW,Minot,ND,58703-3173,US,"304 4th Ave. NW, Minot, ND - Jersey Mike's Subs", ,https://www.jerseymikes.com/47004/minot-nd,Jersey Mike's Subs,Q6184897,jerseymikessubs-4d2ff4
-97.0674040,47.9013010,W6UsrIDX9ypzEoi3EXuBpF3UD0Y=,"1970 South Columbia Road, Grand Forks, ND - Jersey Mike's Subs",jerseymikes,fast_food,sandwich,yes,1970 South Columbia Road,Grand Forks,ND,58201-5814,US,"1970 South Columbia Road, Grand Forks, ND - Jersey Mike's Subs", ,https://www.jerseymikes.com/47003/grand-forks-nd,Jersey Mike's Subs,Q6184897,jerseymikessubs-4d2ff4
-96.8275420,46.8045860,1oZneks3jjgTrq-gMc5pXsineNQ=,"5050 Timber Parkway South, Fargo, ND - Jersey Mike's Subs",jerseymikes,fast_food,sandwich,yes,5050 Timber Parkway South,Fargo,ND,58104-4810,US,"5050 Timber Parkway South, Fargo, ND - Jersey Mike's Subs", ,https://www.jerseymikes.com/47002/fargo-nd,Jersey Mike's Subs,Q6184897,jerseymikessubs-4d2ff4
-81.4806190,40.8602000,3_ApAKr4d4rZb_MxQjBQa_ncmgI=,"7064 Fulton Road NW, Canton, OH - Jersey Mike's Subs",jerseymikes,fast_food,sandwich,yes,7064 Fulton Road NW,Canton,OH,44718-1521,US,"7064 Fulton Road NW, Canton, OH - Jersey Mike's Subs", ,https://www.jerseymikes.com/2089/canton-oh,Jersey Mike's Subs,Q6184897,jerseymikessubs-4d2ff4
-81.8071980,41.2378290,Ks-rQEpOEXIWKxd9m3siM7o3ppY=,"3362 Center Road, Brunswick, OH - Jersey Mike's Subs",jerseymikes,fast_food,sandwich,yes,3362 Center Road,Brunswick,OH,44212-6508,US,"3362 Center Road, Brunswick, OH - Jersey Mike's Subs", ,https://www.jerseymikes.com/2074/brunswick-oh,Jersey Mike's Subs,Q6184897,jerseymikessubs-4d2ff4
-81.6577830,41.3145410,fVqLjNdAhSPomNeLb10nB1kDhJ0=,"4223 E. Royalton Road, Broadview Heights, OH - Jersey Mike's Subs",jerseymikes,fast_food,sandwich,yes,4223 E. Royalton Road,Broadview Heights,OH,44147-2932,US,"4223 E. Royalton Road, Broadview Heights, OH - Jersey Mike's Subs", ,https://www.jerseymikes.com/2071/broadview-heights-oh,Jersey Mike's Subs,Q6184897,jerseymikessubs-4d2ff4
-80.6395050,41.0237110,RbO2xYr_cUrOfJMX8XRB7CBW1CY=,"813 Boardman Poland Road, Boardman, OH - Jersey Mike's Subs",jerseymikes,fast_food,sandwich,yes,813 Boardman Poland Road,Boardman,OH,44512-5129,US,"813 Boardman Poland Road, Boardman, OH - Jersey Mike's Subs", ,https://www.jerseymikes.com/2073/boardman-oh,Jersey Mike's Subs,Q6184897,jerseymikessubs-4d2ff4
-84.3740700,39.2700800,Rg6n-SkoF75Bnbo7gQYlIYf8O30=,"4776 Cornell Road, Blue Ash, OH - Jersey Mike's Subs",jerseymikes,fast_food,sandwich,yes,4776 Cornell Road,Blue Ash,OH,45241-2414,US,"4776 Cornell Road, Blue Ash, OH - Jersey Mike's Subs", ,https://www.jerseymikes.com/2002/blue-ash-oh,Jersey Mike's Subs,Q6184897,jerseymikessubs-4d2ff4
-82.8104900,39.9829700,hExOPng2nILj8vkHkYRQyWnwOtA=,"7175 East Broad Street, Blacklick, OH - Jersey Mike's Subs",jerseymikes,fast_food,sandwich,yes,7175 East Broad Street,Blacklick,OH,43004-8411,US,"7175 East Broad Street, Blacklick, OH - Jersey Mike's Subs", ,https://www.jerseymikes.com/2011/blacklick-oh,Jersey Mike's Subs,Q6184897,jerseymikessubs-4d2ff4
-84.0611610,39.7717960,KQk9IC_EBsyvrWRLAzZXtKx1kXo=,"3510 Pentagon Blvd, Beavercreek, OH - Jersey Mike's Subs",jerseymikes,fast_food,sandwich,yes,3510 Pentagon Blvd,Beavercreek,OH,45431-2781,US,"3510 Pentagon Blvd, Beavercreek, OH - Jersey Mike's Subs", ,https://www.jerseymikes.com/2049/beavercreek-oh,Jersey Mike's Subs,Q6184897,jerseymikessubs-4d2ff4
-81.3902550,41.3559630,4FVpuhnM_fhb1YyXgP9d8erbjcM=,"7037 N. Aurora Road, Aurora, OH - Jersey Mike's Subs",jerseymikes,fast_food,sandwich,yes,7037 N. Aurora Road,Aurora,OH,44202,US,"7037 N. Aurora Road, Aurora, OH - Jersey Mike's Subs", ,https://www.jerseymikes.com/2086/aurora-oh,Jersey Mike's Subs,Q6184897,jerseymikessubs-4d2ff4
-82.2701630,40.8578390,7Hr1Uo0fUkpbYVddBzI84eKjWjU=,"1049 Commerce Parkway, Ashland, OH - Jersey Mike's Subs",jerseymikes,fast_food,sandwich,yes,1049 Commerce Parkway,Ashland,OH,44805,US,"1049 Commerce Parkway, Ashland, OH - Jersey Mike's Subs", ,https://www.jerseymikes.com/2106/ashland-oh,Jersey Mike's Subs,Q6184897,jerseymikessubs-4d2ff4
-84.2435200,39.0462800,8WdttmZamtYeWXZjDxJsV-mj1_c=,"1264 State Route 125, Amelia, OH - Jersey Mike's Subs",jerseymikes,fast_food,sandwich,yes,1264 State Route 125,Amelia,OH,45102-2497,US,"1264 State Route 125, Amelia, OH - Jersey Mike's Subs", ,https://www.jerseymikes.com/2062/amelia-oh,Jersey Mike's Subs,Q6184897,jerseymikessubs-4d2ff4
-81.1109740,40.9011520,KD5MiTiXr33JnWdtpDB9Q0efYfg=,"320 West State Street, Alliance, OH - Jersey Mike's Subs",jerseymikes,fast_food,sandwich,yes,320 West State Street,Alliance,OH,44601-4770,US,"320 West State Street, Alliance, OH - Jersey Mike's Subs", ,https://www.jerseymikes.com/2069/alliance-oh,Jersey Mike's Subs,Q6184897,jerseymikessubs-4d2ff4
-97.6314410,35.4620400,8Ri9VF8E999eT-4exQnziqqrp58=,"6815 SW 3rd Street, Oklahoma City, OK - Jersey Mike's Subs",jerseymikes,fast_food,sandwich,yes,6815 SW 3rd Street,Oklahoma City,OK,73128-2205,US,"6815 SW 3rd Street, Oklahoma City, OK - Jersey Mike's Subs", ,https://www.jerseymikes.com/23008/oklahoma-city-ok,Jersey Mike's Subs,Q6184897,jerseymikessubs-4d2ff4
-97.5381930,35.4929280,h64t5e8ZxmK6T7gS2YaV8-lZpKY=,"1630 NW 23rd Street, Oklahoma City, OK - Jersey Mike's Subs",jerseymikes,fast_food,sandwich,yes,1630 NW 23rd Street,Oklahoma City,OK,73106-3625,US,"1630 NW 23rd Street, Oklahoma City, OK - Jersey Mike's Subs", ,https://www.jerseymikes.com/23004/oklahoma-city-ok,Jersey Mike's Subs,Q6184897,jerseymikessubs-4d2ff4
-97.5659430,35.5400150,i0RRBLgNnss07WN0wfiX0-TG7Jg=,"6719 North May Avenue, Oklahoma City, OK - Jersey Mike's Subs",jerseymikes,fast_food,sandwich,yes,6719 North May Avenue,Oklahoma City,OK,73116-3431,US,"6719 North May Avenue, Oklahoma City, OK - Jersey Mike's Subs", ,https://www.jerseymikes.com/23009/oklahoma-city-ok,Jersey Mike's Subs,Q6184897,jerseymikessubs-4d2ff4
-97.4874800,35.2334000,66r4J157u-HV3v5o9WFcPZo50Ls=,"1204 N. Interstate Dr., Norman, OK - Jersey Mike's Subs",jerseymikes,fast_food,sandwich,yes,1204 N. Interstate Dr.,Norman,OK,73072-3355,US,"1204 N. Interstate Dr., Norman, OK - Jersey Mike's Subs", ,https://www.jerseymikes.com/23006/norman-ok,Jersey Mike's Subs,Q6184897,jerseymikessubs-4d2ff4
-97.4978590,35.3192180,JSmuKCx5sKl8U8LLzTkIoBK8858=,"660 SW 19th Street, Moore, OK - Jersey Mike's Subs",jerseymikes,fast_food,sandwich,yes,660 SW 19th Street,Moore,OK,73160-5405,US,"660 SW 19th Street, Moore, OK - Jersey Mike's Subs", ,https://www.jerseymikes.com/23015/moore-ok,Jersey Mike's Subs,Q6184897,jerseymikessubs-4d2ff4
-97.4056500,35.4457170,dTDHySqTVrI-Cg5KK8Vu6-uSD1s=,"1940 S. Air Depot Blvd., Midwest City, OK - Jersey Mike's Subs",jerseymikes,fast_food,sandwich,yes,1940 S. Air Depot Blvd.,Midwest City,OK,73110-5522,US,"1940 S. Air Depot Blvd., Midwest City, OK - Jersey Mike's Subs", ,https://www.jerseymikes.com/23003/midwest-city-ok,Jersey Mike's Subs,Q6184897,jerseymikessubs-4d2ff4
-98.4259110,34.6222940,5NKKONIjUuyiPNK2bmVjnx17GhM=,"2504 NW Cache Road, Lawton, OK - Jersey Mike's Subs",jerseymikes,fast_food,sandwich,yes,2504 NW Cache Road,Lawton,OK,73505-5228,US,"2504 NW Cache Road, Lawton, OK - Jersey Mike's Subs", ,https://www.jerseymikes.com/23013/lawton-ok,Jersey Mike's Subs,Q6184897,jerseymikessubs-4d2ff4
-97.4832330,35.6361650,CLcwMzs5vDTBZxS_-qcPyGKW3jE=,"1724 S Broadway Extension, Edmond, OK - Jersey Mike's Subs",jerseymikes,fast_food,sandwich,yes,1724 S Broadway Extension,Edmond,OK,73013-4013,US,"1724 S Broadway Extension, Edmond, OK - Jersey Mike's Subs", ,https://www.jerseymikes.com/23005/edmond-ok,Jersey Mike's Subs,Q6184897,jerseymikessubs-4d2ff4
-95.7817310,36.0677950,JofDLTqwfH1ECwvBuAlRfbuaZdU=,"854 E Hillside Dr, Broken Arrow, OK - Jersey Mike's Subs",jerseymikes,fast_food,sandwich,yes,854 E Hillside Dr,Broken Arrow,OK,74012-2307,US,"854 E Hillside Dr, Broken Arrow, OK - Jersey Mike's Subs", ,https://www.jerseymikes.com/23016/broken-arrow-ok,Jersey Mike's Subs,Q6184897,jerseymikessubs-4d2ff4
-97.1515560,34.1877510,_yui0LljKpTfb4AFgX_Y4y8q4AY=,"1885 12th Ave NW, Ardmore, OK - Jersey Mike's Subs",jerseymikes,fast_food,sandwich,yes,1885 12th Ave NW,Ardmore,OK,73401-1346,US,"1885 12th Ave NW, Ardmore, OK - Jersey Mike's Subs", ,https://www.jerseymikes.com/23022/ardmore-ok,Jersey Mike's Subs,Q6184897,jerseymikessubs-4d2ff4
-99.3344750,34.6625360,q9kuAwSW9lACsST3mCkkGuOPKpA=,"2221 N. Main Street, Altus, OK - Jersey Mike's Subs",jerseymikes,fast_food,sandwich,yes,2221 N. Main Street,Altus,OK,73521-1607,US,"2221 N. Main Street, Altus, OK - Jersey Mike's Subs", ,https://www.jerseymikes.com/23018/altus-ok,Jersey Mike's Subs,Q6184897,jerseymikessubs-4d2ff4
-122.9349870,45.5333150,s382UvRARJwAmz-PbliwgbL1FUU=,"4544  NE Cornell Road, Hillsboro, OR - Jersey Mike's Subs",jerseymikes,fast_food,sandwich,yes,4544  NE Cornell Road,Hillsboro,OR,97124-6026,US,"4544  NE Cornell Road, Hillsboro, OR - Jersey Mike's Subs", ,https://www.jerseymikes.com/32016/hillsboro-or,Jersey Mike's Subs,Q6184897,jerseymikessubs-4d2ff4
-122.4888020,45.4272290,GUY6Prtm2EAT3Fqh2phdXdbiYi0=,"17015 SE Sunnyside Rd, Happy Valley, OR - Jersey Mike's Subs",jerseymikes,fast_food,sandwich,yes,17015 SE Sunnyside Rd,Happy Valley,OR,97015-8731,US,"17015 SE Sunnyside Rd, Happy Valley, OR - Jersey Mike's Subs", ,https://www.jerseymikes.com/32021/happy-valley-or,Jersey Mike's Subs,Q6184897,jerseymikessubs-4d2ff4
-123.3037100,42.4370120,YGyDW7fexs46QDXyJI3DxH_qX8Y=,"200 Terry Lane, Grants Pass, OR - Jersey Mike's Subs",jerseymikes,fast_food,sandwich,yes,200 Terry Lane,Grants Pass,OR,97526-4805,US,"200 Terry Lane, Grants Pass, OR - Jersey Mike's Subs", ,https://www.jerseymikes.com/32022/grants-pass-or,Jersey Mike's Subs,Q6184897,jerseymikessubs-4d2ff4
-123.0968560,44.0948370,oaKbpr9ORVen0ERVTJyYzj-6Uuk=,"3003 North Delta Hwy, Eugene, OR - Jersey Mike's Subs",jerseymikes,fast_food,sandwich,yes,3003 North Delta Hwy,Eugene,OR,97408-7104,US,"3003 North Delta Hwy, Eugene, OR - Jersey Mike's Subs", ,https://www.jerseymikes.com/32013/eugene-or,Jersey Mike's Subs,Q6184897,jerseymikessubs-4d2ff4
-123.0798540,44.0456210,MJj4CESwiscWl2HV1PLBePKTfrA=,"801 E. 13th Avenue, Eugene, OR - Jersey Mike's Subs",jerseymikes,fast_food,sandwich,yes,801 E. 13th Avenue,Eugene,OR,97401-3788,US,"801 E. 13th Avenue, Eugene, OR - Jersey Mike's Subs", ,https://www.jerseymikes.com/32017/eugene-or,Jersey Mike's Subs,Q6184897,jerseymikessubs-4d2ff4
-123.2761980,44.5683160,7IPaXXDDQali5BrEy9_LIAIOdTM=,"2051 Monroe Street , Corvallis, OR - Jersey Mike's Subs",jerseymikes,fast_food,sandwich,yes,2051 Monroe Street ,Corvallis,OR,97330-5577,US,"2051 Monroe Street , Corvallis, OR - Jersey Mike's Subs", ,https://www.jerseymikes.com/32015/corvallis-or,Jersey Mike's Subs,Q6184897,jerseymikessubs-4d2ff4
-122.5607160,45.4340830,qTbHWBqgwzwRg3WzFECgRdfsI9Y=,"10117 SE Sunnyside Rd, Clackamas, OR - Jersey Mike's Subs",jerseymikes,fast_food,sandwich,yes,10117 SE Sunnyside Rd,Clackamas,OR,97015-7708,US,"10117 SE Sunnyside Rd, Clackamas, OR - Jersey Mike's Subs", ,https://www.jerseymikes.com/32011/clackamas-or,Jersey Mike's Subs,Q6184897,jerseymikessubs-4d2ff4
-121.3033520,44.0549370,yYl6uPLJTUGY5Y9sKwWMzKTXPVc=,"222 NE Emerson Avenue, Bend, OR - Jersey Mike's Subs",jerseymikes,fast_food,sandwich,yes,222 NE Emerson Avenue,Bend,OR,97701-7383,US,"222 NE Emerson Avenue, Bend, OR - Jersey Mike's Subs", ,https://www.jerseymikes.com/32009/bend-or,Jersey Mike's Subs,Q6184897,jerseymikessubs-4d2ff4
-121.3324090,44.0493380,aVE-2cDuTIzof8JLXlr9MCdP_Qs=,"143 SW Century Drive, Bend, OR - Jersey Mike's Subs",jerseymikes,fast_food,sandwich,yes,143 SW Century Drive,Bend,OR,97702-1131,US,"143 SW Century Drive, Bend, OR - Jersey Mike's Subs", ,https://www.jerseymikes.com/32008/bend-or,Jersey Mike's Subs,Q6184897,jerseymikessubs-4d2ff4
-122.7909990,45.4474370,uepAJbUSbhWzGp4ToTKMw16cq7g=,"10035 SW Nimbus Ave, Beaverton, OR - Jersey Mike's Subs",jerseymikes,fast_food,sandwich,yes,10035 SW Nimbus Ave,Beaverton,OR,97008-7177,US,"10035 SW Nimbus Ave, Beaverton, OR - Jersey Mike's Subs", ,https://www.jerseymikes.com/32002/beaverton-or,Jersey Mike's Subs,Q6184897,jerseymikessubs-4d2ff4
-122.8116610,45.4962160,VSP3HiOoMEk-U4UjYXrd6u6rloI=,"3205 SW Cedar Hill Blvd, Beaverton, OR - Jersey Mike's Subs",jerseymikes,fast_food,sandwich,yes,3205 SW Cedar Hill Blvd,Beaverton,OR,97005-1347,US,"3205 SW Cedar Hill Blvd, Beaverton, OR - Jersey Mike's Subs", ,https://www.jerseymikes.com/32001/beaverton-or,Jersey Mike's Subs,Q6184897,jerseymikessubs-4d2ff4
-76.9345080,40.2407940,92sPubw-KW3ejbPeUHhZsGKdtPU=,"25 North 32nd Street, Camp Hill, PA - Jersey Mike's Subs",jerseymikes,fast_food,sandwich,yes,25 North 32nd Street,Camp Hill,PA,17011-2918,US,"25 North 32nd Street, Camp Hill, PA - Jersey Mike's Subs", ,https://www.jerseymikes.com/8037/camp-hill-pa,Jersey Mike's Subs,Q6184897,jerseymikessubs-4d2ff4
-76.8933920,40.2307120,iOqr1NNhTJcQ3f4LvKzJWuXQddY=,"1120 Carlisle Road, Camp Hill, PA - Jersey Mike's Subs",jerseymikes,fast_food,sandwich,yes,1120 Carlisle Road,Camp Hill,PA,17011-6202,US,"1120 Carlisle Road, Camp Hill, PA - Jersey Mike's Subs", ,https://www.jerseymikes.com/8073/camp-hill-pa,Jersey Mike's Subs,Q6184897,jerseymikessubs-4d2ff4
-79.9460150,40.8763040,INl6o45eb_QiK6vso8A1Tx6MDxw=,"340 New Castle Rd, Butler, PA - Jersey Mike's Subs",jerseymikes,fast_food,sandwich,yes,340 New Castle Rd,Butler,PA,16001-2440,US,"340 New Castle Rd, Butler, PA - Jersey Mike's Subs", ,https://www.jerseymikes.com/8058/butler-pa,Jersey Mike's Subs,Q6184897,jerseymikessubs-4d2ff4
-80.1050830,40.3694720,mRQQFiOhzPXGqm6F0kd6CPkAT_c=,"1155 Washington Pike, Bridgeville, PA - Jersey Mike's Subs",jerseymikes,fast_food,sandwich,yes,1155 Washington Pike,Bridgeville,PA,15017-2827,US,"1155 Washington Pike, Bridgeville, PA - Jersey Mike's Subs", ,https://www.jerseymikes.com/8014/bridgeville-pa,Jersey Mike's Subs,Q6184897,jerseymikessubs-4d2ff4
-75.2913330,40.1656680,XFZJLTWMOvuBN7XLU7Gt16NfhZQ=,"960 Dekalb Pike, Blue Bell, PA - Jersey Mike's Subs",jerseymikes,fast_food,sandwich,yes,960 Dekalb Pike,Blue Bell,PA,19422-1810,US,"960 Dekalb Pike, Blue Bell, PA - Jersey Mike's Subs", ,https://www.jerseymikes.com/8028/blue-bell-pa,Jersey Mike's Subs,Q6184897,jerseymikessubs-4d2ff4
-79.8659120,40.4943440,pb4ZBoKaLiO4rDJ-6b9b_cMoHJ8=,"171 Freeport Road, Blawnox, PA - Jersey Mike's Subs",jerseymikes,fast_food,sandwich,yes,171 Freeport Road,Blawnox,PA,15238-3426,US,"171 Freeport Road, Blawnox, PA - Jersey Mike's Subs", ,https://www.jerseymikes.com/8066/blawnox-pa,Jersey Mike's Subs,Q6184897,jerseymikessubs-4d2ff4
-80.0218700,40.3324790,ZX2RO3ONNpG_Rnk138gNcloIB7M=,"5255 Library Road, Bethel Park, PA - Jersey Mike's Subs",jerseymikes,fast_food,sandwich,yes,5255 Library Road,Bethel Park,PA,15102-2714,US,"5255 Library Road, Bethel Park, PA - Jersey Mike's Subs", ,https://www.jerseymikes.com/8032/bethel-park-pa,Jersey Mike's Subs,Q6184897,jerseymikessubs-4d2ff4
-75.2718360,41.0002380,m9UfhPu4dtX2Ra_4yMh4uxfmuSM=,"3578 Route 611, Bartonsville, PA - Jersey Mike's Subs",jerseymikes,fast_food,sandwich,yes,3578 Route 611,Bartonsville,PA,18321-1770,US,"3578 Route 611, Bartonsville, PA - Jersey Mike's Subs", ,https://www.jerseymikes.com/8012/bartonsville-pa,Jersey Mike's Subs,Q6184897,jerseymikessubs-4d2ff4
-78.4027970,40.4789890,xeMQGeZOMlCzxEXnwy1Ib63ie1E=,"505 E. Plank Road, Altoona, PA - Jersey Mike's Subs",jerseymikes,fast_food,sandwich,yes,505 E. Plank Road,Altoona,PA,16602,US,"505 E. Plank Road, Altoona, PA - Jersey Mike's Subs", ,https://www.jerseymikes.com/8035/altoona-pa,Jersey Mike's Subs,Q6184897,jerseymikessubs-4d2ff4
-79.9467730,40.5996950,901qJwGtoscDm6H9q6Up9BCw0cU=,"4848 Route 8, Allison Park, PA - Jersey Mike's Subs",jerseymikes,fast_food,sandwich,yes,4848 Route 8,Allison Park,PA,15101-2362,US,"4848 Route 8, Allison Park, PA - Jersey Mike's Subs", ,https://www.jerseymikes.com/8060/allison-park-pa,Jersey Mike's Subs,Q6184897,jerseymikessubs-4d2ff4
-75.5611870,40.5882850,Hk0RHul_yZHIzwsrDUhoHRwvJLE=,"4670 Broadway Road, Allentown, PA - Jersey Mike's Subs",jerseymikes,fast_food,sandwich,yes,4670 Broadway Road,Allentown,PA,18104-3214,US,"4670 Broadway Road, Allentown, PA - Jersey Mike's Subs", ,https://www.jerseymikes.com/8040/allentown-pa,Jersey Mike's Subs,Q6184897,jerseymikessubs-4d2ff4
-89.5022710,43.0592190,CdxNM7Zh61rM_Q6kYC-X1YBCZoU=,"434 Gammon Place, Madison, WI - Jersey Mike's Subs",jerseymikes,fast_food,sandwich,yes,434 Gammon Place,Madison,WI,53717-1207,US,"434 Gammon Place, Madison, WI - Jersey Mike's Subs", ,https://www.jerseymikes.com/29027/madison-wi,Jersey Mike's Subs,Q6184897,jerseymikessubs-4d2ff4
-81.5486780,39.3052070,fl3K853sg4ItQin0ikMDJSXd8Gw=,"718 Grand Central Ave., Vienna, WV - Jersey Mike's Subs",jerseymikes,fast_food,sandwich,yes,718 Grand Central Ave.,Vienna,WV,26105-2144,US,"718 Grand Central Ave., Vienna, WV - Jersey Mike's Subs", ,https://www.jerseymikes.com/26008/vienna-wv,Jersey Mike's Subs,Q6184897,jerseymikessubs-4d2ff4
-122.5791590,47.3020110,IaFi5x1pF8LX0dJ0EmMiY-_l1cM=,"4819 Point Fosdick Drive NW, Gig Harbor, WA - Jersey Mike's Subs",jerseymikes,fast_food,sandwich,yes,4819 Point Fosdick Drive NW,Gig Harbor,WA,98335-1787,US,"4819 Point Fosdick Drive NW, Gig Harbor, WA - Jersey Mike's Subs", ,https://www.jerseymikes.com/18010/gig-harbor-wa,Jersey Mike's Subs,Q6184897,jerseymikessubs-4d2ff4
-77.4444800,38.8702630,mypq5yb6sT_UvBqdT5y8H852qLM=,"5005 Westone Plaza Blvd., Chantilly, VA - Jersey Mike's Subs",jerseymikes,fast_food,sandwich,yes,5005 Westone Plaza Blvd.,Chantilly,VA,20151-4207,US,"5005 Westone Plaza Blvd., Chantilly, VA - Jersey Mike's Subs", ,https://www.jerseymikes.com/6029/chantilly-va,Jersey Mike's Subs,Q6184897,jerseymikessubs-4d2ff4
-73.1072120,44.4483370,wjxUHgVx5B3FNgtdjD2QvKRYVVg=,"69 Market Street, Williston, VT - Jersey Mike's Subs",jerseymikes,fast_food,sandwich,yes,69 Market Street,Williston,VT,05495-8155,US,"69 Market Street, Williston, VT - Jersey Mike's Subs", ,https://www.jerseymikes.com/50001/williston-vt,Jersey Mike's Subs,Q6184897,jerseymikessubs-4d2ff4
-111.6916710,40.2953920,Pg5dZHy0qHenLbYl2J-ltOaxvvY=,"73 South State St, Orem, UT - Jersey Mike's Subs",jerseymikes,fast_food,sandwich,yes,73 South State St,Orem,UT,84058-5417,US,"73 South State St, Orem, UT - Jersey Mike's Subs", ,https://www.jerseymikes.com/42006/orem-ut,Jersey Mike's Subs,Q6184897,jerseymikessubs-4d2ff4
-97.7210770,30.2998840,dzFcwRou9iaPXQQ1WTx6p6Gjj2U=,Sandwiches & Subs at Hancock Center - Jersey Mike's,jerseymikes,fast_food,sandwich,yes,1000 East 41 Street,Austin,TX,78751-4857,US,Sandwiches & Subs at Hancock Center - Jersey Mike's, ,https://www.jerseymikes.com/15069/austin-tx,Jersey Mike's Subs,Q6184897,jerseymikessubs-4d2ff4
-86.8078370,35.9499530,w9UXHjwDqLwH9XCjPA7u_KFRq0g=,"1175 Meridian Blvd., Franklin, TN - Jersey Mike's Subs",jerseymikes,fast_food,sandwich,yes,1175 Meridian Blvd.,Franklin,TN,37067-6349,US,"1175 Meridian Blvd., Franklin, TN - Jersey Mike's Subs", ,https://www.jerseymikes.com/4037/franklin-tn,Jersey Mike's Subs,Q6184897,jerseymikessubs-4d2ff4
-96.6553670,43.5425110,RYTUPW1vB0qEbsFgM-yUk2Fe7EQ=,"613 South Highline Place, Sioux Falls, SD - Jersey Mike's Subs",jerseymikes,fast_food,sandwich,yes,613 South Highline Place,Sioux Falls,SD,57110-3069,US,"613 South Highline Place, Sioux Falls, SD - Jersey Mike's Subs", ,https://www.jerseymikes.com/48002/sioux-falls-sd,Jersey Mike's Subs,Q6184897,jerseymikessubs-4d2ff4
-82.8363250,34.6916740,vtUJOJK_7feqEFedXtmoZhj1Jgw=,"1067 Tiger Boulevard, Clemson, SC - Jersey Mike's Subs",jerseymikes,fast_food,sandwich,yes,1067 Tiger Boulevard,Clemson,SC,29631-2924,US,"1067 Tiger Boulevard, Clemson, SC - Jersey Mike's Subs", ,https://www.jerseymikes.com/7022/clemson-sc,Jersey Mike's Subs,Q6184897,jerseymikessubs-4d2ff4
-71.4040900,41.7545200,QsSzBTZHKdGX_IPxK21euR-XOdI=,"782 Warwick Avenue, Warwick, RI - Jersey Mike's Subs",jerseymikes,fast_food,sandwich,yes,782 Warwick Avenue,Warwick,RI,02888-2675,US,"782 Warwick Avenue, Warwick, RI - Jersey Mike's Subs", ,https://www.jerseymikes.com/14003/warwick-ri,Jersey Mike's Subs,Q6184897,jerseymikessubs-4d2ff4
-83.2518630,42.3040820,HfqXRBMcsT2GK8XcPWnLclMAfBI=,"22439 Michigan Ave., Dearborn, MI - Jersey Mike's Subs",jerseymikes,fast_food,sandwich,yes,22439 Michigan Ave.,Dearborn,MI,48124-2130,US,"22439 Michigan Ave., Dearborn, MI - Jersey Mike's Subs", ,https://www.jerseymikes.com/31035/dearborn-mi,Jersey Mike's Subs,Q6184897,jerseymikessubs-4d2ff4
-71.2327540,42.0134600,RTD5-4iDy_HQTYQ3p_iKZQkHqhw=,"333 School Street, Mansfield, MA - Jersey Mike's Subs",jerseymikes,fast_food,sandwich,yes,333 School Street,Mansfield,MA,02048-1858,US,"333 School Street, Mansfield, MA - Jersey Mike's Subs", ,https://www.jerseymikes.com/16016/mansfield-ma,Jersey Mike's Subs,Q6184897,jerseymikessubs-4d2ff4
-76.5033420,39.2770000,UpMWLA_XIYeROSZ7LfGngxLbcII=,"1401 Merritt Blvd, Dundalk, MD - Jersey Mike's Subs",jerseymikes,fast_food,sandwich,yes,1401 Merritt Blvd,Dundalk,MD,21222-2140,US,"1401 Merritt Blvd, Dundalk, MD - Jersey Mike's Subs", ,https://www.jerseymikes.com/28041/dundalk-md,Jersey Mike's Subs,Q6184897,jerseymikessubs-4d2ff4
-70.4411050,43.8398440,Jp-IY5fcwX6LboKIzBykARdwWw0=,"795 Roosevelt Trail, Windham, ME - Jersey Mike's Subs",jerseymikes,fast_food,sandwich,yes,795 Roosevelt Trail,Windham,ME,04062-5348,US,"795 Roosevelt Trail, Windham, ME - Jersey Mike's Subs", ,https://www.jerseymikes.com/49002/windham-me,Jersey Mike's Subs,Q6184897,jerseymikessubs-4d2ff4
-89.7791740,30.2851150,zmhe2VAamJymNb1mPFuFOUpwofY=,"1290 Front Street, Slidell, LA - Jersey Mike's Subs",jerseymikes,fast_food,sandwich,yes,1290 Front Street,Slidell,LA,70458-2000,US,"1290 Front Street, Slidell, LA - Jersey Mike's Subs", ,https://www.jerseymikes.com/30004/slidell-la,Jersey Mike's Subs,Q6184897,jerseymikessubs-4d2ff4
-84.4270920,38.0388530,5IHcBQ_2ihi3euFNzHCw4Hvh_f0=,"2200 War Admiral Way, Lexington, KY - Jersey Mike's Subs",jerseymikes,fast_food,sandwich,yes,2200 War Admiral Way,Lexington,KY,40509-2498,US,"2200 War Admiral Way, Lexington, KY - Jersey Mike's Subs", ,https://www.jerseymikes.com/10015/lexington-ky,Jersey Mike's Subs,Q6184897,jerseymikessubs-4d2ff4
-84.5148250,38.0393650,QgKmCszVvmNVJshj2GipFVHhp8E=,"867 South Broadway , Lexington, KY - Jersey Mike's Subs",jerseymikes,fast_food,sandwich,yes,867 South Broadway ,Lexington,KY,40504-2866,US,"867 South Broadway , Lexington, KY - Jersey Mike's Subs", ,https://www.jerseymikes.com/10014/lexington-ky,Jersey Mike's Subs,Q6184897,jerseymikessubs-4d2ff4
-84.5753850,38.0023930,haUVdf4iNnq3QWUUdu6OZo_x6QM=,"3901 Fountainblue Lane, Lexington, KY - Jersey Mike's Subs",jerseymikes,fast_food,sandwich,yes,3901 Fountainblue Lane,Lexington,KY,40513-1389,US,"3901 Fountainblue Lane, Lexington, KY - Jersey Mike's Subs", ,https://www.jerseymikes.com/10022/lexington-ky,Jersey Mike's Subs,Q6184897,jerseymikessubs-4d2ff4
-87.4871000,36.8491200,ve2mqP3xCR9RniSmY7GkcTv7s18=,"2916 B Fort Campbell Blvd, Hopkinsville, KY - Jersey Mike's Subs",jerseymikes,fast_food,sandwich,yes,2916 B Fort Campbell Blvd,Hopkinsville,KY,42240-4902,US,"2916 B Fort Campbell Blvd, Hopkinsville, KY - Jersey Mike's Subs", ,https://www.jerseymikes.com/10010/hopkinsville-ky,Jersey Mike's Subs,Q6184897,jerseymikessubs-4d2ff4
-85.9268000,37.0077710,ppfrQ5Sfz9UD7vcZJF6zGAMNfRE=,"360 N Rogers Wells Blvd, Glasgow, KY - Jersey Mike's Subs",jerseymikes,fast_food,sandwich,yes,360 N Rogers Wells Blvd,Glasgow,KY,42141-1300,US,"360 N Rogers Wells Blvd, Glasgow, KY - Jersey Mike's Subs", ,https://www.jerseymikes.com/10023/glasgow-ky,Jersey Mike's Subs,Q6184897,jerseymikessubs-4d2ff4
-84.5330920,38.2305750,DfcmuTUbtjkZKbQoX0kwAkmSY4g=,"100 Ikebana Path, Georgetown, KY - Jersey Mike's Subs",jerseymikes,fast_food,sandwich,yes,100 Ikebana Path,Georgetown,KY,40324-8502,US,"100 Ikebana Path, Georgetown, KY - Jersey Mike's Subs", ,https://www.jerseymikes.com/10019/georgetown-ky,Jersey Mike's Subs,Q6184897,jerseymikessubs-4d2ff4
-84.5604950,39.0361610,mMJyIfhQzsVVDJtVwotHLR4py1s=,"2501 Dixie Highway, US 42, Ft. Mitchell, KY - Jersey Mike's Subs",jerseymikes,fast_food,sandwich,yes,"2501 Dixie Highway, US 42",Ft. Mitchell,KY,41017-3097,US,"2501 Dixie Highway, US 42, Ft. Mitchell, KY - Jersey Mike's Subs", ,https://www.jerseymikes.com/10017/ft-mitchell-ky,Jersey Mike's Subs,Q6184897,jerseymikessubs-4d2ff4
-84.8134370,38.1755480,pkP2O0IhFKW-_IEaluw0ZDkuwM4=,"101 Jett Blvd, Frankfort, KY - Jersey Mike's Subs",jerseymikes,fast_food,sandwich,yes,101 Jett Blvd,Frankfort,KY,40601-7778,US,"101 Jett Blvd, Frankfort, KY - Jersey Mike's Subs", ,https://www.jerseymikes.com/10024/frankfort-ky,Jersey Mike's Subs,Q6184897,jerseymikessubs-4d2ff4
-84.6264400,38.9563400,kqKsobeNdbbkYdrvXtsLbAvofFw=,"310 Mt Zion Road, Florence, KY - Jersey Mike's Subs",jerseymikes,fast_food,sandwich,yes,310 Mt Zion Road,Florence,KY,41042-3294,US,"310 Mt Zion Road, Florence, KY - Jersey Mike's Subs", ,https://www.jerseymikes.com/10003/florence-ky,Jersey Mike's Subs,Q6184897,jerseymikessubs-4d2ff4
-84.6521090,39.0093210,gyXBJQIabwel62Cua8Wz9U-mj0Y=,"1035 Vandercar Way, Florence, KY - Jersey Mike's Subs",jerseymikes,fast_food,sandwich,yes,1035 Vandercar Way,Florence,KY,41042-1581,US,"1035 Vandercar Way, Florence, KY - Jersey Mike's Subs", ,https://www.jerseymikes.com/10012/florence-ky,Jersey Mike's Subs,Q6184897,jerseymikessubs-4d2ff4
-85.8894270,37.7343170,G2E6YfPJnAn7yYXewSFuwKv7bTM=,"143 Towne Drive, Elizabethtown, KY - Jersey Mike's Subs",jerseymikes,fast_food,sandwich,yes,143 Towne Drive,Elizabethtown,KY,42701-7497,US,"143 Towne Drive, Elizabethtown, KY - Jersey Mike's Subs", ,https://www.jerseymikes.com/10020/elizabethtown-ky,Jersey Mike's Subs,Q6184897,jerseymikessubs-4d2ff4
-86.4341400,36.9684280,1yc077-57UnYjZSbjrtBkuMXS2w=,"1713 Scottsville Road, Bowling Green, KY - Jersey Mike's Subs",jerseymikes,fast_food,sandwich,yes,1713 Scottsville Road,Bowling Green,KY,42104-5834,US,"1713 Scottsville Road, Bowling Green, KY - Jersey Mike's Subs", ,https://www.jerseymikes.com/10013/bowling-green-ky,Jersey Mike's Subs,Q6184897,jerseymikessubs-4d2ff4
-90.0838210,30.3929480,OmIsO2nhGvq98BlnmtY5ohJW0tE=,"3323 US Highway 190, Mandeville, LA - Jersey Mike's Subs",jerseymikes,fast_food,sandwich,yes,3323 US Highway 190,Mandeville,LA,70471-3141,US,"3323 US Highway 190, Mandeville, LA - Jersey Mike's Subs", ,https://www.jerseymikes.com/30005/mandeville-la,Jersey Mike's Subs,Q6184897,jerseymikessubs-4d2ff4
-90.4564070,30.4834900,JhIT3_CSmk1rmwwPRBApGwlgSbY=,"1823B SW Railroad Avenue, Hammond, LA - Jersey Mike's Subs",jerseymikes,fast_food,sandwich,yes,1823B SW Railroad Avenue,Hammond,LA,70403-6151,US,"1823B SW Railroad Avenue, Hammond, LA - Jersey Mike's Subs", ,https://www.jerseymikes.com/30003/hammond-la,Jersey Mike's Subs,Q6184897,jerseymikessubs-4d2ff4
-91.0980310,30.3801140,D_dvXw3Jxhid6OyVhGHxTBxqZMI=,"7770 Bluebonnet Blvd, Baton Rouge, LA - Jersey Mike's Subs",jerseymikes,fast_food,sandwich,yes,7770 Bluebonnet Blvd,Baton Rouge,LA,70810-1692,US,"7770 Bluebonnet Blvd, Baton Rouge, LA - Jersey Mike's Subs", ,https://www.jerseymikes.com/30006/baton-rouge-la,Jersey Mike's Subs,Q6184897,jerseymikessubs-4d2ff4
-91.1127640,30.4311360,5dW0IDrwHCvPfX5yJ8md_CJuxdk=,"7415 Corporate Blvd., Baton Rouge, LA - Jersey Mike's Subs",jerseymikes,fast_food,sandwich,yes,7415 Corporate Blvd.,Baton Rouge,LA,70809-1194,US,"7415 Corporate Blvd., Baton Rouge, LA - Jersey Mike's Subs", ,https://www.jerseymikes.com/30002/baton-rouge-la,Jersey Mike's Subs,Q6184897,jerseymikessubs-4d2ff4
-70.3439250,43.6243150,C9_lrDVu6yWv7uSo8tJtep_HKmA=,"550 Gallery Blvd., Scarborough, ME - Jersey Mike's Subs",jerseymikes,fast_food,sandwich,yes,550 Gallery Blvd.,Scarborough,ME,04074-6616,US,"550 Gallery Blvd., Scarborough, ME - Jersey Mike's Subs", ,https://www.jerseymikes.com/49001/scarborough-me,Jersey Mike's Subs,Q6184897,jerseymikessubs-4d2ff4
-69.9184620,43.9069210,ifBrC-7wOXrVr8c5MnqzY1JZAD4=,"172 Bath Road, Brunswick, ME - Jersey Mike's Subs",jerseymikes,fast_food,sandwich,yes,172 Bath Road,Brunswick,ME,04011-2610,US,"172 Bath Road, Brunswick, ME - Jersey Mike's Subs", ,https://www.jerseymikes.com/49005/brunswick-me,Jersey Mike's Subs,Q6184897,jerseymikessubs-4d2ff4
-68.7554570,44.8261420,d0Fp3nBQheInAaDYzgnNJegafQc=,"479 Stillwater Avenue, Bangor, ME - Jersey Mike's Subs",jerseymikes,fast_food,sandwich,yes,479 Stillwater Avenue,Bangor,ME,04401-3519,US,"479 Stillwater Avenue, Bangor, ME - Jersey Mike's Subs", ,https://www.jerseymikes.com/49006/bangor-me,Jersey Mike's Subs,Q6184897,jerseymikessubs-4d2ff4
-70.2258550,44.1246180,_yn7-VaeUoetmZbNunS8wl6FP8c=,"600 Center Street, Auburn, ME - Jersey Mike's Subs",jerseymikes,fast_food,sandwich,yes,600 Center Street,Auburn,ME,04210-6311,US,"600 Center Street, Auburn, ME - Jersey Mike's Subs", ,https://www.jerseymikes.com/49008/auburn-me,Jersey Mike's Subs,Q6184897,jerseymikessubs-4d2ff4
-76.6487190,39.4944700,C9OOR23c4tGdAx0c3b5hRCjvQa4=,"11331 York Road, Cockeysville, MD - Jersey Mike's Subs",jerseymikes,fast_food,sandwich,yes,11331 York Road,Cockeysville,MD,21030-1909,US,"11331 York Road, Cockeysville, MD - Jersey Mike's Subs", ,https://www.jerseymikes.com/28027/cockeysville-md,Jersey Mike's Subs,Q6184897,jerseymikessubs-4d2ff4
-76.8896120,38.7683750,wJbkWFSoA6oU1nNmxjNv9u1-isY=,"8797 Branch Avenue, Clinton, MD - Jersey Mike's Subs",jerseymikes,fast_food,sandwich,yes,8797 Branch Avenue,Clinton,MD,20735-2630,US,"8797 Branch Avenue, Clinton, MD - Jersey Mike's Subs", ,https://www.jerseymikes.com/28035/clinton-md,Jersey Mike's Subs,Q6184897,jerseymikessubs-4d2ff4
-76.8494150,38.8704730,UfpnePIzAnikkThYwJuaJZvMjlc=,"9100 Alaking Court, Capitol Heights, MD - Jersey Mike's Subs",jerseymikes,fast_food,sandwich,yes,9100 Alaking Court,Capitol Heights,MD,20743-5071,US,"9100 Alaking Court, Capitol Heights, MD - Jersey Mike's Subs", ,https://www.jerseymikes.com/28021/capitol-heights-md,Jersey Mike's Subs,Q6184897,jerseymikessubs-4d2ff4
-76.9352170,39.1121700,40yNHVZ-xCZW937HALMVFXoy4O0=,"15614 Old Columbia Pike, Burtonsville, MD - Jersey Mike's Subs",jerseymikes,fast_food,sandwich,yes,15614 Old Columbia Pike,Burtonsville,MD,20866-1630,US,"15614 Old Columbia Pike, Burtonsville, MD - Jersey Mike's Subs", ,https://www.jerseymikes.com/28029/burtonsville-md,Jersey Mike's Subs,Q6184897,jerseymikessubs-4d2ff4
-76.8279480,38.9551410,sEnKK8-R3hdIKpPsCKvMJNHyzg0=,"10201 Martin Luther King Jr. Hwy., Bowie, MD - Jersey Mike's Subs",jerseymikes,fast_food,sandwich,yes,10201 Martin Luther King Jr. Hwy.,Bowie,MD,20720-4254,US,"10201 Martin Luther King Jr. Hwy., Bowie, MD - Jersey Mike's Subs", ,https://www.jerseymikes.com/28020/bowie-md,Jersey Mike's Subs,Q6184897,jerseymikessubs-4d2ff4
-76.7303870,38.9834390,IGilXd7bBgXhNOiyHo-ALKKtUJU=,"6844 Race Track Road, Bowie, MD - Jersey Mike's Subs",jerseymikes,fast_food,sandwich,yes,6844 Race Track Road,Bowie,MD,20715-3011,US,"6844 Race Track Road, Bowie, MD - Jersey Mike's Subs", ,https://www.jerseymikes.com/28006/bowie-md,Jersey Mike's Subs,Q6184897,jerseymikessubs-4d2ff4
-76.3534680,39.5272690,o1k74l3r451_IeLKkOB3Kp5Dgno=,"573 Baltimore Pike, Bel Air, MD - Jersey Mike's Subs",jerseymikes,fast_food,sandwich,yes,573 Baltimore Pike,Bel Air,MD,21014-4319,US,"573 Baltimore Pike, Bel Air, MD - Jersey Mike's Subs", ,https://www.jerseymikes.com/28014/bel-air-md,Jersey Mike's Subs,Q6184897,jerseymikessubs-4d2ff4
-76.5481320,39.2868150,UNDeVAnNb-Wv_xYX9-qtCa9Csfk=,"5601 Eastern Ave., Baltimore, MD - Jersey Mike's Subs",jerseymikes,fast_food,sandwich,yes,5601 Eastern Ave.,Baltimore,MD,21224-2726,US,"5601 Eastern Ave., Baltimore, MD - Jersey Mike's Subs", ,https://www.jerseymikes.com/28036/baltimore-md,Jersey Mike's Subs,Q6184897,jerseymikessubs-4d2ff4
-76.6697810,39.2481850,jgoK6ITx3AHhr0EAgA2eu20lSYk=,"3611 Washington Blvd, Baltimore, MD - Jersey Mike's Subs",jerseymikes,fast_food,sandwich,yes,3611 Washington Blvd,Baltimore,MD,21227-1667,US,"3611 Washington Blvd, Baltimore, MD - Jersey Mike's Subs", ,https://www.jerseymikes.com/28026/baltimore-md,Jersey Mike's Subs,Q6184897,jerseymikessubs-4d2ff4
-76.4718890,39.3734870,9ElK0BgCOj1r0UvmK3Htg3GbLwc=,"7976 Honeygo Blvd., Baltimore, MD - Jersey Mike's Subs",jerseymikes,fast_food,sandwich,yes,7976 Honeygo Blvd.,Baltimore,MD,21236-4919,US,"7976 Honeygo Blvd., Baltimore, MD - Jersey Mike's Subs", ,https://www.jerseymikes.com/28028/baltimore-md,Jersey Mike's Subs,Q6184897,jerseymikessubs-4d2ff4
-76.1816350,39.5253900,t2OYPTZQp2VM_Yx0HUY_gLvyo_A=,"983 Beards Hill Road, Aberdeen, MD - Jersey Mike's Subs",jerseymikes,fast_food,sandwich,yes,983 Beards Hill Road,Aberdeen,MD,21001-1734,US,"983 Beards Hill Road, Aberdeen, MD - Jersey Mike's Subs", ,https://www.jerseymikes.com/28043/aberdeen-md,Jersey Mike's Subs,Q6184897,jerseymikessubs-4d2ff4
-70.2977120,41.6686340,m6pdaoktaN3RXGUz3M73UwrRHIE=,"793 Iyannough Road, Hyannis, MA - Jersey Mike's Subs",jerseymikes,fast_food,sandwich,yes,793 Iyannough Road,Hyannis,MA,02601-5027,US,"793 Iyannough Road, Hyannis, MA - Jersey Mike's Subs", ,https://www.jerseymikes.com/16017/hyannis-ma,Jersey Mike's Subs,Q6184897,jerseymikessubs-4d2ff4
-70.9238670,42.2482330,m1Eqpqiwjil961118T04RWnH23c=,"400 Lincoln Street, Hingham, MA - Jersey Mike's Subs",jerseymikes,fast_food,sandwich,yes,400 Lincoln Street,Hingham,MA,02043-1505,US,"400 Lincoln Street, Hingham, MA - Jersey Mike's Subs", ,https://www.jerseymikes.com/16023/hingham-ma,Jersey Mike's Subs,Q6184897,jerseymikessubs-4d2ff4
-70.8461940,42.1484560,flMv4ru1DoKYIg8YfKpprlJZs9E=,"1810 Washington Street, Hanover, MA - Jersey Mike's Subs",jerseymikes,fast_food,sandwich,yes,1810 Washington Street,Hanover,MA,02339-1685,US,"1810 Washington Street, Hanover, MA - Jersey Mike's Subs", ,https://www.jerseymikes.com/16005/hanover-ma,Jersey Mike's Subs,Q6184897,jerseymikessubs-4d2ff4
-71.4167750,42.0889740,uTRvWHQP3aEGg0lAHfie2-f-kYo=,"471-W. Central St., Franklin, MA - Jersey Mike's Subs",jerseymikes,fast_food,sandwich,yes,471-W. Central St.,Franklin,MA,02038-2961,US,"471-W. Central St., Franklin, MA - Jersey Mike's Subs", ,https://www.jerseymikes.com/16007/franklin-ma,Jersey Mike's Subs,Q6184897,jerseymikessubs-4d2ff4
-71.1595700,41.6724360,Oq0j5Kt5mkNie_UZyjwsqnXn5uM=,"450 William S Canning Blvd., Fall River, MA - Jersey Mike's Subs",jerseymikes,fast_food,sandwich,yes,450 William S Canning Blvd.,Fall River,MA,02721-5603,US,"450 William S Canning Blvd., Fall River, MA - Jersey Mike's Subs", ,https://www.jerseymikes.com/16009/fall-river-ma,Jersey Mike's Subs,Q6184897,jerseymikessubs-4d2ff4
-70.8796580,41.6393220,cqeGURCAsaZv74mzKiQAZuVIVzM=,"215 Huttleston Ave, Fairhaven, MA - Jersey Mike's Subs",jerseymikes,fast_food,sandwich,yes,215 Huttleston Ave,Fairhaven,MA,02719-1956,US,"215 Huttleston Ave, Fairhaven, MA - Jersey Mike's Subs", ,https://www.jerseymikes.com/16028/fairhaven-ma,Jersey Mike's Subs,Q6184897,jerseymikessubs-4d2ff4
-71.1720850,42.2499600,CQV2Yj_BdU4w9kQtEbPYi_lRJ20=,"395 Providence Highway, Dedham, MA - Jersey Mike's Subs",jerseymikes,fast_food,sandwich,yes,395 Providence Highway,Dedham,MA,02026-1808,US,"395 Providence Highway, Dedham, MA - Jersey Mike's Subs", ,https://www.jerseymikes.com/16020/dedham-ma,Jersey Mike's Subs,Q6184897,jerseymikessubs-4d2ff4
-71.1590850,42.3487880,udglysMResHlv56f-VD-wA8G9Js=,"466 B Washington Street, Brighton, MA - Jersey Mike's Subs",jerseymikes,fast_food,sandwich,yes,466 B Washington Street,Brighton,MA,02135-2620,US,"466 B Washington Street, Brighton, MA - Jersey Mike's Subs", ,https://www.jerseymikes.com/16026/brighton-ma,Jersey Mike's Subs,Q6184897,jerseymikessubs-4d2ff4
-70.8905960,42.5760370,jYQw7bVutQpL2jNNT3a_y-6F96o=,"55 Dodge Street, Beverly, MA - Jersey Mike's Subs",jerseymikes,fast_food,sandwich,yes,55 Dodge Street,Beverly,MA,01915-1705,US,"55 Dodge Street, Beverly, MA - Jersey Mike's Subs", ,https://www.jerseymikes.com/16006/beverly-ma,Jersey Mike's Subs,Q6184897,jerseymikessubs-4d2ff4
-71.2726770,42.4898310,Iw4NoRHmBpykjEppEmNK1wPHNNw=,"186 Great Road, Bedford, MA - Jersey Mike's Subs",jerseymikes,fast_food,sandwich,yes,186 Great Road,Bedford,MA,01730-2710,US,"186 Great Road, Bedford, MA - Jersey Mike's Subs", ,https://www.jerseymikes.com/16022/bedford-ma,Jersey Mike's Subs,Q6184897,jerseymikessubs-4d2ff4
-71.3559670,41.9241620,GnUnOmeQBVQbxFZRhjlGn7hqHis=,"228 Washington Street, Attleboro, MA - Jersey Mike's Subs",jerseymikes,fast_food,sandwich,yes,228 Washington Street,Attleboro,MA,02703-5561,US,"228 Washington Street, Attleboro, MA - Jersey Mike's Subs", ,https://www.jerseymikes.com/16013/attleboro-ma,Jersey Mike's Subs,Q6184897,jerseymikessubs-4d2ff4
-83.5562820,43.0211980,2NxRRqkij7Y65RWs1Z-gDGNfvFE=,"1053 North Irish Road, Davison, MI - Jersey Mike's Subs",jerseymikes,fast_food,sandwich,yes,1053 North Irish Road,Davison,MI,48423-2208,US,"1053 North Irish Road, Davison, MI - Jersey Mike's Subs", ,https://www.jerseymikes.com/31059/davison-mi,Jersey Mike's Subs,Q6184897,jerseymikessubs-4d2ff4
-82.8569330,42.6295420,W3frUL5DwCXcD7ZXo022_HEkGWM=,"24830 William P. Rosso Highway, Clinton Township, MI - Jersey Mike's Subs",jerseymikes,fast_food,sandwich,yes,24830 William P. Rosso Highway,Clinton Township,MI,48036,US,"24830 William P. Rosso Highway, Clinton Township, MI - Jersey Mike's Subs", ,https://www.jerseymikes.com/31039/clinton-township-mi,Jersey Mike's Subs,Q6184897,jerseymikessubs-4d2ff4
-83.4188370,42.7213190,5RA0PeJy5WbgIZI-rpvq1-X8LbI=,"Dixie Hwy. & S. Main Street, Clarkston, MI - Jersey Mike's Subs",jerseymikes,fast_food,sandwich,yes,Dixie Hwy. & S. Main Street,Clarkston,MI,48346-2188,US,"Dixie Hwy. & S. Main Street, Clarkston, MI - Jersey Mike's Subs", ,https://www.jerseymikes.com/31034/clarkston-mi,Jersey Mike's Subs,Q6184897,jerseymikessubs-4d2ff4
-82.8342970,42.6747840,op553wNu4VM552JGApe5aid5JdE=,"27351 23 Mile Rd., Chesterfield, MI - Jersey Mike's Subs",jerseymikes,fast_food,sandwich,yes,27351 23 Mile Rd.,Chesterfield,MI,48051-2045,US,"27351 23 Mile Rd., Chesterfield, MI - Jersey Mike's Subs", ,https://www.jerseymikes.com/31012/chesterfield-mi,Jersey Mike's Subs,Q6184897,jerseymikessubs-4d2ff4
-83.4594080,42.3226000,NAcDN-FU7PI6YispEHryIhjhHbo=,"42448 Ford Road, Canton, MI - Jersey Mike's Subs",jerseymikes,fast_food,sandwich,yes,42448 Ford Road,Canton,MI,48187-3337,US,"42448 Ford Road, Canton, MI - Jersey Mike's Subs", ,https://www.jerseymikes.com/31010/canton-mi,Jersey Mike's Subs,Q6184897,jerseymikessubs-4d2ff4
-83.7607530,42.5210800,y9tmPhHjKrGsqawAfVMAXsilvjs=,"9974 East Grand River Ave., Brighton, MI - Jersey Mike's Subs",jerseymikes,fast_food,sandwich,yes,9974 East Grand River Ave.,Brighton,MI,48116-1924,US,"9974 East Grand River Ave., Brighton, MI - Jersey Mike's Subs", ,https://www.jerseymikes.com/31047/brighton-mi,Jersey Mike's Subs,Q6184897,jerseymikessubs-4d2ff4
-83.2908570,42.6024520,kL1WPI87hQyZI6tEpcx3YapwqO4=,"2510 S Telegraph Rd, Bloomfield Township, MI - Jersey Mike's Subs",jerseymikes,fast_food,sandwich,yes,2510 S Telegraph Rd,Bloomfield Township,MI,48302-0241,US,"2510 S Telegraph Rd, Bloomfield Township, MI - Jersey Mike's Subs", ,https://www.jerseymikes.com/31028/bloomfield-township-mi,Jersey Mike's Subs,Q6184897,jerseymikessubs-4d2ff4
-83.2855790,42.5455680,PSerO3Dm5Wxz43AWUTFGYITT41Q=,"6450 Telegraph Rd, Bloomfield Hills, MI - Jersey Mike's Subs",jerseymikes,fast_food,sandwich,yes,6450 Telegraph Rd,Bloomfield Hills,MI,48301-1720,US,"6450 Telegraph Rd, Bloomfield Hills, MI - Jersey Mike's Subs", ,https://www.jerseymikes.com/31029/bloomfield-hills-mi,Jersey Mike's Subs,Q6184897,jerseymikessubs-4d2ff4
-83.2050870,42.5372510,NPV0uR9Am2VH5gtGxQRUA9yrikg=,"33745 Woodward Avenue, Birmingham, MI - Jersey Mike's Subs",jerseymikes,fast_food,sandwich,yes,33745 Woodward Avenue,Birmingham,MI,48009-0913,US,"33745 Woodward Avenue, Birmingham, MI - Jersey Mike's Subs", ,https://www.jerseymikes.com/31004/birmingham-mi,Jersey Mike's Subs,Q6184897,jerseymikessubs-4d2ff4
-83.2207870,42.6735500,g1LOJpYCrKoQpkJjdfTOsKaIu0c=,"2041 North Squirrel Road, Auburn Hills, MI - Jersey Mike's Subs",jerseymikes,fast_food,sandwich,yes,2041 North Squirrel Road,Auburn Hills,MI,48326-2350,US,"2041 North Squirrel Road, Auburn Hills, MI - Jersey Mike's Subs", ,https://www.jerseymikes.com/31032/auburn-hills-mi,Jersey Mike's Subs,Q6184897,jerseymikessubs-4d2ff4
-83.7819230,42.2801550,CnDUCi6ULwf1EDvXRK7hGdUctkw=,"2561 Jackson Avenue, Ann Arbor, MI - Jersey Mike's Subs",jerseymikes,fast_food,sandwich,yes,2561 Jackson Avenue,Ann Arbor,MI,48103-3818,US,"2561 Jackson Avenue, Ann Arbor, MI - Jersey Mike's Subs", ,https://www.jerseymikes.com/31014/ann-arbor-mi,Jersey Mike's Subs,Q6184897,jerseymikessubs-4d2ff4
-71.4600400,41.6997100,ppHYtgOb4uI35AI9sFLVVi9yAaU=,"1350 Greenwich Avenue, Warwick, RI - Jersey Mike's Subs",jerseymikes,fast_food,sandwich,yes,1350 Greenwich Avenue,Warwick,RI,02886-4540,US,"1350 Greenwich Avenue, Warwick, RI - Jersey Mike's Subs", ,https://www.jerseymikes.com/14002/warwick-ri,Jersey Mike's Subs,Q6184897,jerseymikessubs-4d2ff4
-71.5322560,41.8707900,1ddLgsm-KLltXc7Vz7oMOVzOQsc=,"473 Putnam Pike, Smithfield, RI - Jersey Mike's Subs",jerseymikes,fast_food,sandwich,yes,473 Putnam Pike,Smithfield,RI,02828-3004,US,"473 Putnam Pike, Smithfield, RI - Jersey Mike's Subs", ,https://www.jerseymikes.com/14006/smithfield-ri,Jersey Mike's Subs,Q6184897,jerseymikessubs-4d2ff4
-71.4092060,41.8435800,yc0txWsVsxY0F0HKU0ZUuvX2xJQ=,"66 Branch Avenue, Providence, RI - Jersey Mike's Subs",jerseymikes,fast_food,sandwich,yes,66 Branch Avenue,Providence,RI,02904-2737,US,"66 Branch Avenue, Providence, RI - Jersey Mike's Subs", ,https://www.jerseymikes.com/14008/providence-ri,Jersey Mike's Subs,Q6184897,jerseymikessubs-4d2ff4
-71.4532820,41.8638300,WZjz6xFjSAKya0LYKqAkS7l_qe8=,"1401 Douglas Ave., North Providence, RI - Jersey Mike's Subs",jerseymikes,fast_food,sandwich,yes,1401 Douglas Ave.,North Providence,RI,02904-4058,US,"1401 Douglas Ave., North Providence, RI - Jersey Mike's Subs", ,https://www.jerseymikes.com/14001/north-providence-ri,Jersey Mike's Subs,Q6184897,jerseymikessubs-4d2ff4
-71.3000590,41.5164010,jzIINaNC20tXM2lg62RrmoGuqY8=,"7 East Main Road, Middletown, RI - Jersey Mike's Subs",jerseymikes,fast_food,sandwich,yes,7 East Main Road,Middletown,RI,02842-4911,US,"7 East Main Road, Middletown, RI - Jersey Mike's Subs", ,https://www.jerseymikes.com/14009/middletown-ri,Jersey Mike's Subs,Q6184897,jerseymikessubs-4d2ff4
-71.4983100,41.8207460,KUjYuNQlzgTGIiOMgKVQOG8cJKg=,"1412 Atwood Ave, Johnston, RI - Jersey Mike's Subs",jerseymikes,fast_food,sandwich,yes,1412 Atwood Ave,Johnston,RI,02919-4821,US,"1412 Atwood Ave, Johnston, RI - Jersey Mike's Subs", ,https://www.jerseymikes.com/14005/johnston-ri,Jersey Mike's Subs,Q6184897,jerseymikessubs-4d2ff4
-71.4533660,41.6572980,AUS_jv0W8yXhjDPMnB4RzO_u-NA=,"537 Main Street, East Greenwich, RI - Jersey Mike's Subs",jerseymikes,fast_food,sandwich,yes,537 Main Street,East Greenwich,RI,02818-3645,US,"537 Main Street, East Greenwich, RI - Jersey Mike's Subs", ,https://www.jerseymikes.com/14004/east-greenwich-ri,Jersey Mike's Subs,Q6184897,jerseymikessubs-4d2ff4
-71.4721750,41.7828490,OLm7FntbpBBdjSyyoVsmDbrfYOs=,"261 Atwood Ave, Cranston, RI - Jersey Mike's Subs",jerseymikes,fast_food,sandwich,yes,261 Atwood Ave,Cranston,RI,2920,US,"261 Atwood Ave, Cranston, RI - Jersey Mike's Subs", ,https://www.jerseymikes.com/14007/cranston-ri,Jersey Mike's Subs,Q6184897,jerseymikessubs-4d2ff4
-79.9417210,32.7929230,j1Lxi2wjswTgxD8DWqsya2SdQkI=,"595 King Street, Charleston, SC - Jersey Mike's Subs",jerseymikes,fast_food,sandwich,yes,595 King Street,Charleston,SC,29403-6944,US,"595 King Street, Charleston, SC - Jersey Mike's Subs", ,https://www.jerseymikes.com/7086/charleston-sc,Jersey Mike's Subs,Q6184897,jerseymikessubs-4d2ff4
-80.0831950,32.8253220,982Vy1pURudBXw2GbwLG6koVRN8=,"3875 West Ashley Circle, Charleston, SC - Jersey Mike's Subs",jerseymikes,fast_food,sandwich,yes,3875 West Ashley Circle,Charleston,SC,29414,US,"3875 West Ashley Circle, Charleston, SC - Jersey Mike's Subs", ,https://www.jerseymikes.com/7013/charleston-sc,Jersey Mike's Subs,Q6184897,jerseymikessubs-4d2ff4
-80.0420300,32.8132770,zR-yK_jDl9StAt_IFLtTkhII4zc=,"1975 Magwood Drive, Charleston, SC - Jersey Mike's Subs",jerseymikes,fast_food,sandwich,yes,1975 Magwood Drive,Charleston,SC,29414-5723,US,"1975 Magwood Drive, Charleston, SC - Jersey Mike's Subs", ,https://www.jerseymikes.com/7060/charleston-sc,Jersey Mike's Subs,Q6184897,jerseymikessubs-4d2ff4
-79.8720770,32.9222870,ELoJnzbkS1u6ZpQhXOilUYc7T-0=,"1721 Clements Ferry Road, Charleston, SC - Jersey Mike's Subs",jerseymikes,fast_food,sandwich,yes,1721 Clements Ferry Road,Charleston,SC,29492-7720,US,"1721 Clements Ferry Road, Charleston, SC - Jersey Mike's Subs", ,https://www.jerseymikes.com/7071/charleston-sc,Jersey Mike's Subs,Q6184897,jerseymikessubs-4d2ff4
-81.3514080,34.1649620,J4xZu7eeN7e3ieYahUcJuRlC3fc=,"1221 Chapin Road, Chapin, SC - Jersey Mike's Subs",jerseymikes,fast_food,sandwich,yes,1221 Chapin Road,Chapin,SC,29036-7142,US,"1221 Chapin Road, Chapin, SC - Jersey Mike's Subs", ,https://www.jerseymikes.com/7064/chapin-sc,Jersey Mike's Subs,Q6184897,jerseymikessubs-4d2ff4
-80.6469340,34.2489410,edaIJV5n17CdAeUHyhXeI-5ul08=,"2231 W. Dekalb St., Camden, SC - Jersey Mike's Subs",jerseymikes,fast_food,sandwich,yes,2231 W. Dekalb St.,Camden,SC,29020,US,"2231 W. Dekalb St., Camden, SC - Jersey Mike's Subs", ,https://www.jerseymikes.com/7070/camden-sc,Jersey Mike's Subs,Q6184897,jerseymikessubs-4d2ff4
-80.8490200,32.2562200,Zf2S7977-54VV5y7sEPH7QGBhQc=,"1019 Fording Island Road, Bluffton, SC - Jersey Mike's Subs",jerseymikes,fast_food,sandwich,yes,1019 Fording Island Road,Bluffton,SC,29910-7512,US,"1019 Fording Island Road, Bluffton, SC - Jersey Mike's Subs", ,https://www.jerseymikes.com/7039/bluffton-sc,Jersey Mike's Subs,Q6184897,jerseymikessubs-4d2ff4
-80.7271500,32.4261800,_yvzMroClTdvAZnoFo9eDg1O12c=,"272 Robert Smalls Pkwy, Beaufort, SC - Jersey Mike's Subs",jerseymikes,fast_food,sandwich,yes,272 Robert Smalls Pkwy,Beaufort,SC,29906-3705,US,"272 Robert Smalls Pkwy, Beaufort, SC - Jersey Mike's Subs", ,https://www.jerseymikes.com/7032/beaufort-sc,Jersey Mike's Subs,Q6184897,jerseymikessubs-4d2ff4
-80.6337510,32.4068660,x8BgDPTofFR-PwVzmUIkmxNtAg8=,"277 Sea Island Parkway, Beaufort, SC - Jersey Mike's Subs",jerseymikes,fast_food,sandwich,yes,277 Sea Island Parkway,Beaufort,SC,29907-1691,US,"277 Sea Island Parkway, Beaufort, SC - Jersey Mike's Subs", ,https://www.jerseymikes.com/7066/beaufort-sc,Jersey Mike's Subs,Q6184897,jerseymikessubs-4d2ff4
-82.6690990,34.5426600,ycT4DIdABTFeGfXQhSmxES_eu8c=,"3319 N. Main Street, Anderson, SC - Jersey Mike's Subs",jerseymikes,fast_food,sandwich,yes,3319 N. Main Street,Anderson,SC,29621-4113,US,"3319 N. Main Street, Anderson, SC - Jersey Mike's Subs", ,https://www.jerseymikes.com/7075/anderson-sc,Jersey Mike's Subs,Q6184897,jerseymikessubs-4d2ff4
-81.7150330,33.5109130,n-6IDe2oWBYL4sJWI8KZW1gRcx8=,"232 Eastgate Drive, Aiken, SC - Jersey Mike's Subs",jerseymikes,fast_food,sandwich,yes,232 Eastgate Drive,Aiken,SC,29803-7683,US,"232 Eastgate Drive, Aiken, SC - Jersey Mike's Subs", ,https://www.jerseymikes.com/7050/aiken-sc,Jersey Mike's Subs,Q6184897,jerseymikessubs-4d2ff4
-96.7703680,43.5006160,mO7DdiHSdNmWiWTzKTBGn1EIxmI=,"4908 S Louise Ave, Sioux Falls, SD - Jersey Mike's Subs",jerseymikes,fast_food,sandwich,yes,4908 S Louise Ave,Sioux Falls,SD,57106-2216,US,"4908 S Louise Ave, Sioux Falls, SD - Jersey Mike's Subs", ,https://www.jerseymikes.com/48001/sioux-falls-sd,Jersey Mike's Subs,Q6184897,jerseymikessubs-4d2ff4
-103.1826430,44.0965000,n2f1v5gCbZNLfiPlsBDnR4e1gyo=,"1745 Eglin St, Rapid City, SD - Jersey Mike's Subs",jerseymikes,fast_food,sandwich,yes,1745 Eglin St,Rapid City,SD,57701-6116,US,"1745 Eglin St, Rapid City, SD - Jersey Mike's Subs", ,https://www.jerseymikes.com/48003/rapid-city-sd,Jersey Mike's Subs,Q6184897,jerseymikessubs-4d2ff4
-87.3796370,36.0657780,-7HyacjBsOdp6ucIe97XRWuQJJU=,"407 Highway 46 South, Dickson, TN - Jersey Mike's Subs",jerseymikes,fast_food,sandwich,yes,407 Highway 46 South,Dickson,TN,37055-2558,US,"407 Highway 46 South, Dickson, TN - Jersey Mike's Subs", ,https://www.jerseymikes.com/4057/dickson-tn,Jersey Mike's Subs,Q6184897,jerseymikessubs-4d2ff4
-85.5011680,36.1534180,ZSsA4zYG3obc6BWhanVhcRa36rQ=,"447 South Jefferson Ave., Cookeville, TN - Jersey Mike's Subs",jerseymikes,fast_food,sandwich,yes,447 South Jefferson Ave.,Cookeville,TN,38501-0302,US,"447 South Jefferson Ave., Cookeville, TN - Jersey Mike's Subs", ,https://www.jerseymikes.com/4026/cookeville-tn,Jersey Mike's Subs,Q6184897,jerseymikessubs-4d2ff4
-87.0619370,35.6027960,35eAfNFdgGzEbnW5oO4WKnBJntI=,"1202 S. James Campbell Blvd., Columbia, TN - Jersey Mike's Subs",jerseymikes,fast_food,sandwich,yes,1202 S. James Campbell Blvd.,Columbia,TN,38401-0003,US,"1202 S. James Campbell Blvd., Columbia, TN - Jersey Mike's Subs", ,https://www.jerseymikes.com/4052/columbia-tn,Jersey Mike's Subs,Q6184897,jerseymikessubs-4d2ff4
-84.8651560,35.1777530,Dv8nYsPNHX7UJDzzrPTctPU2EKk=,"2416 N Ocoee St., Cleveland, TN - Jersey Mike's Subs",jerseymikes,fast_food,sandwich,yes,2416 N Ocoee St.,Cleveland,TN,37311-3854,US,"2416 N Ocoee St., Cleveland, TN - Jersey Mike's Subs", ,https://www.jerseymikes.com/4051/cleveland-tn,Jersey Mike's Subs,Q6184897,jerseymikessubs-4d2ff4
-87.2983000,36.5143300,N50_MnOBwt3Eh1JDYNQ3LSYPki0=,"1960 L Madison Street, Clarksville, TN - Jersey Mike's Subs",jerseymikes,fast_food,sandwich,yes,1960 L Madison Street,Clarksville,TN,37043-8039,US,"1960 L Madison Street, Clarksville, TN - Jersey Mike's Subs", ,https://www.jerseymikes.com/4012/clarksville-tn,Jersey Mike's Subs,Q6184897,jerseymikessubs-4d2ff4
-87.2938100,36.5889090,PCGcC-Wur3yjkzcPXsQkewtCZ_8=,"2808 Wilma Rudolph Blvd., Clarksville, TN - Jersey Mike's Subs",jerseymikes,fast_food,sandwich,yes,2808 Wilma Rudolph Blvd.,Clarksville,TN,37040,US,"2808 Wilma Rudolph Blvd., Clarksville, TN - Jersey Mike's Subs", ,https://www.jerseymikes.com/4039/clarksville-tn,Jersey Mike's Subs,Q6184897,jerseymikessubs-4d2ff4
-85.1502650,35.0368440,a8kBszDwcw14Hv5YqBFPPr_hz-Q=,"2260 Gunbarrel Road, Chattanooga, TN - Jersey Mike's Subs",jerseymikes,fast_food,sandwich,yes,2260 Gunbarrel Road,Chattanooga,TN,37421-2673,US,"2260 Gunbarrel Road, Chattanooga, TN - Jersey Mike's Subs", ,https://www.jerseymikes.com/4043/chattanooga-tn,Jersey Mike's Subs,Q6184897,jerseymikessubs-4d2ff4
-82.2644840,36.5909640,4RmpL4KXmrVKOiQtEdG9YreYN-M=,"420 Pinnacle Parkway, Bristol , TN - Jersey Mike's Subs",jerseymikes,fast_food,sandwich,yes,420 Pinnacle Parkway,Bristol ,TN,37620-8776,US,"420 Pinnacle Parkway, Bristol , TN - Jersey Mike's Subs", ,https://www.jerseymikes.com/4046/bristol-tn,Jersey Mike's Subs,Q6184897,jerseymikessubs-4d2ff4
-82.2138900,36.5586100,c6cYGMCH8t6ZbWWdF4fDEfrs7SE=,"1430 Volunteer Parkway, Bristol, TN - Jersey Mike's Subs",jerseymikes,fast_food,sandwich,yes,1430 Volunteer Parkway,Bristol,TN,37620-6062,US,"1430 Volunteer Parkway, Bristol, TN - Jersey Mike's Subs", ,https://www.jerseymikes.com/4035/bristol-tn,Jersey Mike's Subs,Q6184897,jerseymikessubs-4d2ff4
-86.8025000,36.0318500,A49Sm8c6E-0mkQqc-uOkRe0TPIE=,"214 Ward Circle, Brentwood, TN - Jersey Mike's Subs",jerseymikes,fast_food,sandwich,yes,214 Ward Circle,Brentwood,TN,37027-7563,US,"214 Ward Circle, Brentwood, TN - Jersey Mike's Subs", ,https://www.jerseymikes.com/4018/brentwood-tn,Jersey Mike's Subs,Q6184897,jerseymikessubs-4d2ff4
-89.8035240,35.2052860,rumwpo2uClz66fDsbHggKMKG1Ks=,"7780 US Hwy. 64, Bartlett, TN - Jersey Mike's Subs",jerseymikes,fast_food,sandwich,yes,7780 US Hwy. 64,Bartlett,TN,38133-4065,US,"7780 US Hwy. 64, Bartlett, TN - Jersey Mike's Subs", ,https://www.jerseymikes.com/4060/bartlett-tn,Jersey Mike's Subs,Q6184897,jerseymikessubs-4d2ff4
-97.7346620,30.3585370,aYfyuxUwrUnmpL_l6JQXqUhslow=,"2700 West Anderson Lane, Austin, TX - Jersey Mike's Subs",jerseymikes,fast_food,sandwich,yes,2700 West Anderson Lane,Austin,TX,78757-1304,US,"2700 West Anderson Lane, Austin, TX - Jersey Mike's Subs", ,https://www.jerseymikes.com/15048/austin-tx,Jersey Mike's Subs,Q6184897,jerseymikessubs-4d2ff4
-97.9770760,30.2061880,_R0fVx-5JTMs7AuZ5wtSaHnyj9U=,"165 Hargraves Drive, Austin, TX - Jersey Mike's Subs",jerseymikes,fast_food,sandwich,yes,165 Hargraves Drive,Austin,TX,78737-4813,US,"165 Hargraves Drive, Austin, TX - Jersey Mike's Subs", ,https://www.jerseymikes.com/15090/austin-tx,Jersey Mike's Subs,Q6184897,jerseymikessubs-4d2ff4
-97.7562480,30.2196480,7SngtBL94225nvWJ-9UJaliXI_s=,"600 E. Ben White, Suite 350, Austin, TX - Jersey Mike's Subs",jerseymikes,fast_food,sandwich,yes,"600 E. Ben White, Suite 350",Austin,TX,78704-7991,US,"600 E. Ben White, Suite 350, Austin, TX - Jersey Mike's Subs", ,https://www.jerseymikes.com/15075/austin-tx,Jersey Mike's Subs,Q6184897,jerseymikessubs-4d2ff4
-97.7358250,30.3150730,roBLi3yMJ5jOuJReG1KN8QFpl58=,"4601 N. Lamar, Austin, TX - Jersey Mike's Subs",jerseymikes,fast_food,sandwich,yes,4601 N. Lamar,Austin,TX,78751-2355,US,"4601 N. Lamar, Austin, TX - Jersey Mike's Subs", ,https://www.jerseymikes.com/15085/austin-tx,Jersey Mike's Subs,Q6184897,jerseymikessubs-4d2ff4
-97.7982560,30.2750600,gIdDNJ1JyfvlTSNGUKFc8QmlVJg=,"3300 Bee Caves Road, Austin, TX - Jersey Mike's Subs",jerseymikes,fast_food,sandwich,yes,3300 Bee Caves Road,Austin,TX,78746-7073,US,"3300 Bee Caves Road, Austin, TX - Jersey Mike's Subs", ,https://www.jerseymikes.com/15132/austin-tx,Jersey Mike's Subs,Q6184897,jerseymikessubs-4d2ff4
-97.7838790,30.2413890,4om8qWa8x6vTY6rgjSBWjRAAYuY=,"3005 South Lamar Blvd., Austin, TX - Jersey Mike's Subs",jerseymikes,fast_food,sandwich,yes,3005 South Lamar Blvd.,Austin,TX,78704-8864,US,"3005 South Lamar Blvd., Austin, TX - Jersey Mike's Subs", ,https://www.jerseymikes.com/15148/austin-tx,Jersey Mike's Subs,Q6184897,jerseymikessubs-4d2ff4
-95.1694530,29.9978710,hPIwvlsxgLJpDnk8_G2TNwp8MlI=,"7118 FM 1960 E, Atascocita, TX - Jersey Mike's Subs",jerseymikes,fast_food,sandwich,yes,7118 FM 1960 E,Atascocita,TX,77346-2702,US,"7118 FM 1960 E, Atascocita, TX - Jersey Mike's Subs", ,https://www.jerseymikes.com/15172/atascocita-tx,Jersey Mike's Subs,Q6184897,jerseymikessubs-4d2ff4
-97.1334810,32.6640090,ZSf_K6aMdT0JbSnMR-_4M6mCfKc=,"5005 S. Cooper Street, Arlington, TX - Jersey Mike's Subs",jerseymikes,fast_food,sandwich,yes,5005 S. Cooper Street,Arlington,TX,76017-8600,US,"5005 S. Cooper Street, Arlington, TX - Jersey Mike's Subs", ,https://www.jerseymikes.com/15121/arlington-tx,Jersey Mike's Subs,Q6184897,jerseymikessubs-4d2ff4
-97.1956280,32.6805210,TCDayvd0v5YSsaUKkeUp1gdpVo4=,"4201 West Green Oaks Blvd, Arlington, TX - Jersey Mike's Subs",jerseymikes,fast_food,sandwich,yes,4201 West Green Oaks Blvd,Arlington,TX,76016-4454,US,"4201 West Green Oaks Blvd, Arlington, TX - Jersey Mike's Subs", ,https://www.jerseymikes.com/15063/arlington-tx,Jersey Mike's Subs,Q6184897,jerseymikessubs-4d2ff4
-101.8662150,35.1902910,khE9HGmrSgsoi1n1CTb68AMJdDI=,"2311 S. Georgia Street, Amarillo, TX - Jersey Mike's Subs",jerseymikes,fast_food,sandwich,yes,2311 S. Georgia Street,Amarillo,TX,79109-1836,US,"2311 S. Georgia Street, Amarillo, TX - Jersey Mike's Subs", ,https://www.jerseymikes.com/15071/amarillo-tx,Jersey Mike's Subs,Q6184897,jerseymikessubs-4d2ff4
-96.6736520,33.1180050,nc4CvDyYEVWAKePg6PVKVFnkZAg=,"790 West Exchange Pkwy, Allen , TX - Jersey Mike's Subs",jerseymikes,fast_food,sandwich,yes,790 West Exchange Pkwy,Allen ,TX,75013-7007,US,"790 West Exchange Pkwy, Allen , TX - Jersey Mike's Subs", ,https://www.jerseymikes.com/15077/allen-tx,Jersey Mike's Subs,Q6184897,jerseymikessubs-4d2ff4
-111.9748210,41.2446090,f7oWJSnw7tiNtyeY6EDlQR_SkMA=,"218 East 12th Street, Ogden, UT - Jersey Mike's Subs",jerseymikes,fast_food,sandwich,yes,218 East 12th Street,Ogden,UT,84404-5604,US,"218 East 12th Street, Ogden, UT - Jersey Mike's Subs", ,https://www.jerseymikes.com/42018/ogden-ut,Jersey Mike's Subs,Q6184897,jerseymikessubs-4d2ff4
-111.8881750,40.6562990,7JdVilxVFP4sK5DrOA_jEaUOukM=,"5291 South State Street, Murray, UT - Jersey Mike's Subs",jerseymikes,fast_food,sandwich,yes,5291 South State Street,Murray,UT,84107-4828,US,"5291 South State Street, Murray, UT - Jersey Mike's Subs", ,https://www.jerseymikes.com/42003/murray-ut,Jersey Mike's Subs,Q6184897,jerseymikessubs-4d2ff4
-111.9136590,40.6216370,A-Plf-x_yCmkRvJMz-1UmKZYBjE=,"7141 South Bingham Junction Blvd, Midvale, UT - Jersey Mike's Subs",jerseymikes,fast_food,sandwich,yes,7141 South Bingham Junction Blvd,Midvale,UT,84047-4756,US,"7141 South Bingham Junction Blvd, Midvale, UT - Jersey Mike's Subs", ,https://www.jerseymikes.com/42002/midvale-ut,Jersey Mike's Subs,Q6184897,jerseymikessubs-4d2ff4
-111.8349000,41.7179490,H1E50zSJRJKNPk9uOKrR3Z-ifMM=,"756 South Main Street, Logan, UT - Jersey Mike's Subs",jerseymikes,fast_food,sandwich,yes,756 South Main Street,Logan,UT,84321,US,"756 South Main Street, Logan, UT - Jersey Mike's Subs", ,https://www.jerseymikes.com/42015/logan-ut,Jersey Mike's Subs,Q6184897,jerseymikessubs-4d2ff4
-111.8797940,40.4323380,XpQ22m-QPc8w-gALZg_PUPwG1QU=,"1851 W. Traverse Parkway, Lehi, UT - Jersey Mike's Subs",jerseymikes,fast_food,sandwich,yes,1851 W. Traverse Parkway,Lehi,UT,84043-5983,US,"1851 W. Traverse Parkway, Lehi, UT - Jersey Mike's Subs", ,https://www.jerseymikes.com/42010/lehi-ut,Jersey Mike's Subs,Q6184897,jerseymikessubs-4d2ff4
-111.8300970,40.3891570,TI-fkT_iGRl9E4OMw_mQoj9BTFM=,"50 N 1200 East, Lehi, UT - Jersey Mike's Subs",jerseymikes,fast_food,sandwich,yes,50 N 1200 East,Lehi,UT,84043-9517,US,"50 N 1200 East, Lehi, UT - Jersey Mike's Subs", ,https://www.jerseymikes.com/42005/lehi-ut,Jersey Mike's Subs,Q6184897,jerseymikessubs-4d2ff4
-111.9580320,41.0567020,YUfFPMI_B1MLw4l6YJslUb2a8Pg=,"260 South Fort Lane, Layton, UT - Jersey Mike's Subs",jerseymikes,fast_food,sandwich,yes,260 South Fort Lane,Layton,UT,84041,US,"260 South Fort Lane, Layton, UT - Jersey Mike's Subs", ,https://www.jerseymikes.com/42016/layton-ut,Jersey Mike's Subs,Q6184897,jerseymikessubs-4d2ff4
-112.0222120,40.5091430,tDSd4q1HL25ZkODnv86FN6dFVaE=,"5510 West 13400 South, Herriman, UT - Jersey Mike's Subs",jerseymikes,fast_food,sandwich,yes,5510 West 13400 South,Herriman,UT,84096-6919,US,"5510 West 13400 South, Herriman, UT - Jersey Mike's Subs", ,https://www.jerseymikes.com/42025/herriman-ut,Jersey Mike's Subs,Q6184897,jerseymikessubs-4d2ff4
-111.9117660,40.9847450,68PTnBnsffMylzp4qaRLDa7vDEc=,"1060 West Park Lane, Farmington, UT - Jersey Mike's Subs",jerseymikes,fast_food,sandwich,yes,1060 West Park Lane,Farmington,UT,84025-2994,US,"1060 West Park Lane, Farmington, UT - Jersey Mike's Subs", ,https://www.jerseymikes.com/42009/farmington-ut,Jersey Mike's Subs,Q6184897,jerseymikessubs-4d2ff4
-111.8514630,40.6244770,Yj2GgTSkq445agP8_tPlMdmFJWI=,"6985 Park Centre Drive, Cottonwood Heights, UT - Jersey Mike's Subs",jerseymikes,fast_food,sandwich,yes,6985 Park Centre Drive,Cottonwood Heights,UT,84121-6648,US,"6985 Park Centre Drive, Cottonwood Heights, UT - Jersey Mike's Subs", ,https://www.jerseymikes.com/42001/cottonwood-heights-ut,Jersey Mike's Subs,Q6184897,jerseymikessubs-4d2ff4
-112.0649050,41.1388320,KBMvwQp2eNT2lZrld5nXzfNx2_8=,"1737 N 2000 W, Clinton, UT - Jersey Mike's Subs",jerseymikes,fast_food,sandwich,yes,1737 N 2000 W,Clinton,UT,84015-8215,US,"1737 N 2000 W, Clinton, UT - Jersey Mike's Subs", ,https://www.jerseymikes.com/42024/clinton-ut,Jersey Mike's Subs,Q6184897,jerseymikessubs-4d2ff4
-77.2977090,38.7879470,31SLJFwjI-ewbSLMcpkxZExwahI=,"6025-C Burke Centre Parkway, Burke, VA - Jersey Mike's Subs",jerseymikes,fast_food,sandwich,yes,6025-C Burke Centre Parkway,Burke,VA,22015-3752,US,"6025-C Burke Centre Parkway, Burke, VA - Jersey Mike's Subs", ,https://www.jerseymikes.com/6065/burke-va,Jersey Mike's Subs,Q6184897,jerseymikessubs-4d2ff4
-77.5478680,38.7297990,cHJCnKpSoa8Yf-QL5jXkOoGapss=,"10322 Bristow Station Drive, Bristow, VA - Jersey Mike's Subs",jerseymikes,fast_food,sandwich,yes,10322 Bristow Station Drive,Bristow,VA,20136,US,"10322 Bristow Station Drive, Bristow, VA - Jersey Mike's Subs", ,https://www.jerseymikes.com/6083/bristow-va,Jersey Mike's Subs,Q6184897,jerseymikessubs-4d2ff4
-82.1311500,36.6303100,gMZXTdC5-5LDE4DdG8bk9bI_tcY=,"1281 Bonham Road, Bristol, VA - Jersey Mike's Subs",jerseymikes,fast_food,sandwich,yes,1281 Bonham Road,Bristol,VA,24202-5980,US,"1281 Bonham Road, Bristol, VA - Jersey Mike's Subs", ,https://www.jerseymikes.com/6009/bristol-va,Jersey Mike's Subs,Q6184897,jerseymikessubs-4d2ff4
-80.4009330,37.2142910,uqH-nnW5DeR0zDhbbb1mxHVZewg=,"1450 S Main Street, Blacksburg, VA - Jersey Mike's Subs",jerseymikes,fast_food,sandwich,yes,1450 S Main Street,Blacksburg,VA,24060-5516,US,"1450 S Main Street, Blacksburg, VA - Jersey Mike's Subs", ,https://www.jerseymikes.com/6059/blacksburg-va,Jersey Mike's Subs,Q6184897,jerseymikessubs-4d2ff4
-77.4563940,37.6857900,fRstmwdR_dz6x-xo4ls_k_FJ66A=,"10180 Lakeridge Pkwy, Ashland, VA - Jersey Mike's Subs",jerseymikes,fast_food,sandwich,yes,10180 Lakeridge Pkwy,Ashland,VA,23005-8180,US,"10180 Lakeridge Pkwy, Ashland, VA - Jersey Mike's Subs", ,https://www.jerseymikes.com/6006/ashland-va,Jersey Mike's Subs,Q6184897,jerseymikessubs-4d2ff4
-77.4703600,37.7586700,B_4Vy2B15_qWXU7x4Qcrg10oVw0=,"708 England Street, Ashland, VA - Jersey Mike's Subs",jerseymikes,fast_food,sandwich,yes,708 England Street,Ashland,VA,23005-2217,US,"708 England Street, Ashland, VA - Jersey Mike's Subs", ,https://www.jerseymikes.com/6003/ashland-va,Jersey Mike's Subs,Q6184897,jerseymikessubs-4d2ff4
-77.4694710,39.0616350,pGb8cIQwn6pVG-qris7JIofuSDw=,"20070 Ashbrook Commons Plaza, Ashburn, VA - Jersey Mike's Subs",jerseymikes,fast_food,sandwich,yes,20070 Ashbrook Commons Plaza,Ashburn,VA,20147-5035,US,"20070 Ashbrook Commons Plaza, Ashburn, VA - Jersey Mike's Subs", ,https://www.jerseymikes.com/6032/ashburn-va,Jersey Mike's Subs,Q6184897,jerseymikessubs-4d2ff4
-77.0866140,38.8087900,_Asu853n1-yR9A9weO9_WiZNw8w=,"3219 Duke Street, Alexandria, VA - Jersey Mike's Subs",jerseymikes,fast_food,sandwich,yes,3219 Duke Street,Alexandria,VA,22314-4533,US,"3219 Duke Street, Alexandria, VA - Jersey Mike's Subs", ,https://www.jerseymikes.com/6099/alexandria-va,Jersey Mike's Subs,Q6184897,jerseymikessubs-4d2ff4
-77.1244300,38.8073750,jYmiqJ5IbMyXILwAnOi9yk1XH7k=,"360 S Pickett Street, Alexandria, VA - Jersey Mike's Subs",jerseymikes,fast_food,sandwich,yes,360 S Pickett Street,Alexandria,VA,22304-4704,US,"360 S Pickett Street, Alexandria, VA - Jersey Mike's Subs", ,https://www.jerseymikes.com/6082/alexandria-va,Jersey Mike's Subs,Q6184897,jerseymikessubs-4d2ff4
-77.0836320,38.7481950,47wNLxcQbROviS9IROiXRPXoc6o=,"7732 D Richmond Highway, Alexandria, VA - Jersey Mike's Subs",jerseymikes,fast_food,sandwich,yes,7732 D Richmond Highway,Alexandria,VA,22306-2803,US,"7732 D Richmond Highway, Alexandria, VA - Jersey Mike's Subs", ,https://www.jerseymikes.com/6030/alexandria-va,Jersey Mike's Subs,Q6184897,jerseymikessubs-4d2ff4
-81.9694170,36.7042450,Z6IqzMYQ5SxbU1-fjIVG38NviQk=,"133 Cook Street, Abingdon, VA - Jersey Mike's Subs",jerseymikes,fast_food,sandwich,yes,133 Cook Street,Abingdon,VA,24210-3203,US,"133 Cook Street, Abingdon, VA - Jersey Mike's Subs", ,https://www.jerseymikes.com/6066/abingdon-va,Jersey Mike's Subs,Q6184897,jerseymikessubs-4d2ff4
-122.3653400,47.2427050,6P4izyBOq__l8L6fJhaWMJyGfkQ=,"4756 Pacific Hwy East, Fife, WA - Jersey Mike's Subs",jerseymikes,fast_food,sandwich,yes,4756 Pacific Hwy East,Fife,WA,98424-2680,US,"4756 Pacific Hwy East, Fife, WA - Jersey Mike's Subs", ,https://www.jerseymikes.com/18023/fife-wa,Jersey Mike's Subs,Q6184897,jerseymikessubs-4d2ff4
-122.3161090,47.2890560,hWnDcb8I2xbGjLY71bTGkH4MIcI=,"1401 S 348th Street, Federal Way, WA - Jersey Mike's Subs",jerseymikes,fast_food,sandwich,yes,1401 S 348th Street,Federal Way,WA,98003-6882,US,"1401 S 348th Street, Federal Way, WA - Jersey Mike's Subs", ,https://www.jerseymikes.com/18056/federal-way-wa,Jersey Mike's Subs,Q6184897,jerseymikessubs-4d2ff4
-122.3072340,47.3159400,tLsmptKBRGqgKdKsE_iNskkrYUM=,"2020 South 320th Street, Federal Way, WA - Jersey Mike's Subs",jerseymikes,fast_food,sandwich,yes,2020 South 320th Street,Federal Way,WA,98003-5495,US,"2020 South 320th Street, Federal Way, WA - Jersey Mike's Subs", ,https://www.jerseymikes.com/18050/federal-way-wa,Jersey Mike's Subs,Q6184897,jerseymikessubs-4d2ff4
-122.2120290,47.9531930,V86sJoIthW5BBmtzi78ps_896JQ=,"4817 Evergreen Way, Everett, WA - Jersey Mike's Subs",jerseymikes,fast_food,sandwich,yes,4817 Evergreen Way,Everett,WA,98203-2830,US,"4817 Evergreen Way, Everett, WA - Jersey Mike's Subs", ,https://www.jerseymikes.com/18003/everett-wa,Jersey Mike's Subs,Q6184897,jerseymikessubs-4d2ff4
-121.9902120,47.2009510,aht6oaLuFwy8FllbL1aMJdp9mV8=,"1040 Stevenson Avenue, Enumclaw, WA - Jersey Mike's Subs",jerseymikes,fast_food,sandwich,yes,1040 Stevenson Avenue,Enumclaw,WA,98022-2991,US,"1040 Stevenson Avenue, Enumclaw, WA - Jersey Mike's Subs", ,https://www.jerseymikes.com/18048/enumclaw-wa,Jersey Mike's Subs,Q6184897,jerseymikessubs-4d2ff4
-122.1109730,47.3591310,CzHS4r9CRZBq3yslpwpU0NO4JVU=,"17309 SE 270th Place, Covington, WA - Jersey Mike's Subs",jerseymikes,fast_food,sandwich,yes,17309 SE 270th Place,Covington,WA,98042-5432,US,"17309 SE 270th Place, Covington, WA - Jersey Mike's Subs", ,https://www.jerseymikes.com/18006/covington-wa,Jersey Mike's Subs,Q6184897,jerseymikessubs-4d2ff4
-122.3325310,47.4613440,Z45njkrZ4xacWqYLtIFwLDuyBbI=,"15830 First Avenue S., Burien, WA - Jersey Mike's Subs",jerseymikes,fast_food,sandwich,yes,15830 First Avenue S.,Burien,WA,98148-3305,US,"15830 First Avenue S., Burien, WA - Jersey Mike's Subs", ,https://www.jerseymikes.com/18019/burien-wa,Jersey Mike's Subs,Q6184897,jerseymikessubs-4d2ff4
-122.2201010,47.7800330,Q8cO5-17USQxpqNLR5mBRQzprqs=,"24016 Bothell Everett Hwy., Bothell, WA - Jersey Mike's Subs",jerseymikes,fast_food,sandwich,yes,24016 Bothell Everett Hwy.,Bothell,WA,98021-9361,US,"24016 Bothell Everett Hwy., Bothell, WA - Jersey Mike's Subs", ,https://www.jerseymikes.com/18043/bothell-wa,Jersey Mike's Subs,Q6184897,jerseymikessubs-4d2ff4
-122.1466000,47.1678000,moXrUF_foCl_5-bj84dNJ2mRVJw=,"21180 SR 410 East, Bonney Lake, WA - Jersey Mike's Subs",jerseymikes,fast_food,sandwich,yes,21180 SR 410 East,Bonney Lake,WA,98391-8457,US,"21180 SR 410 East, Bonney Lake, WA - Jersey Mike's Subs", ,https://www.jerseymikes.com/18007/bonney-lake-wa,Jersey Mike's Subs,Q6184897,jerseymikessubs-4d2ff4
-122.2407160,47.2953240,dw7KeoHIPArLGKgVEsr7vEaQIB0=,"920 15th Street SW, Auburn, WA - Jersey Mike's Subs",jerseymikes,fast_food,sandwich,yes,920 15th Street SW,Auburn,WA,98001-6588,US,"920 15th Street SW, Auburn, WA - Jersey Mike's Subs", ,https://www.jerseymikes.com/18009/auburn-wa,Jersey Mike's Subs,Q6184897,jerseymikessubs-4d2ff4
-122.1783220,48.1521310,y-7Qp5winALF2ZgfxvU52CKyXUc=,"3704 172nd St NE, Arlington, WA - Jersey Mike's Subs",jerseymikes,fast_food,sandwich,yes,3704 172nd St NE,Arlington,WA,98223-6336,US,"3704 172nd St NE, Arlington, WA - Jersey Mike's Subs", ,https://www.jerseymikes.com/18008/arlington-wa,Jersey Mike's Subs,Q6184897,jerseymikessubs-4d2ff4
-80.5995370,40.0599890,5_es8tBA0y5ugTpMdgV5JqiIuaY=,"211 Cabela Drive, Triadelphia, WV - Jersey Mike's Subs",jerseymikes,fast_food,sandwich,yes,211 Cabela Drive,Triadelphia,WV,26059-1022,US,"211 Cabela Drive, Triadelphia, WV - Jersey Mike's Subs", ,https://www.jerseymikes.com/26010/triadelphia-wv,Jersey Mike's Subs,Q6184897,jerseymikessubs-4d2ff4
-79.9993430,39.6398920,uzIvNUnfwjcLjq8xmCkCjXIy-Vc=,"525 Granville Square, Morgantown, WV - Jersey Mike's Subs",jerseymikes,fast_food,sandwich,yes,525 Granville Square,Morgantown,WV,26501-1805,US,"525 Granville Square, Morgantown, WV - Jersey Mike's Subs", ,https://www.jerseymikes.com/26004/morgantown-wv,Jersey Mike's Subs,Q6184897,jerseymikessubs-4d2ff4
-77.9904410,39.4400820,NggSznIbal5M0CPmAuKskF8A_RI=,"245 Retail Commons Parkway, Martinsburg, WV - Jersey Mike's Subs",jerseymikes,fast_food,sandwich,yes,245 Retail Commons Parkway,Martinsburg,WV,25403-6178,US,"245 Retail Commons Parkway, Martinsburg, WV - Jersey Mike's Subs", ,https://www.jerseymikes.com/26003/martinsburg-wv,Jersey Mike's Subs,Q6184897,jerseymikessubs-4d2ff4
-77.9063760,39.5429270,FRKZKYrozjNz7uvgHPemsnVmlhc=,"5462 Williamsport Pike, Martinsburg, WV - Jersey Mike's Subs",jerseymikes,fast_food,sandwich,yes,5462 Williamsport Pike,Martinsburg,WV,25404-6549,US,"5462 Williamsport Pike, Martinsburg, WV - Jersey Mike's Subs", ,https://www.jerseymikes.com/26009/martinsburg-wv,Jersey Mike's Subs,Q6184897,jerseymikessubs-4d2ff4
-81.9331630,38.4591980,EP33nGl1kYTmet5LdlkyDnwDehM=,"6 Liberty Plaza, Hurricane, WV - Jersey Mike's Subs",jerseymikes,fast_food,sandwich,yes,6 Liberty Plaza,Hurricane,WV,25526-8853,US,"6 Liberty Plaza, Hurricane, WV - Jersey Mike's Subs", ,https://www.jerseymikes.com/26002/hurricane-wv,Jersey Mike's Subs,Q6184897,jerseymikessubs-4d2ff4
-80.2836130,39.2751500,fj0-2Xxb9fo9zzOKdXojUaXvZJA=,"270 Emily Drive, Clarksburg, WV - Jersey Mike's Subs",jerseymikes,fast_food,sandwich,yes,270 Emily Drive,Clarksburg,WV,26301-5500,US,"270 Emily Drive, Clarksburg, WV - Jersey Mike's Subs", ,https://www.jerseymikes.com/26006/clarksburg-wv,Jersey Mike's Subs,Q6184897,jerseymikessubs-4d2ff4
-81.7154060,38.3283190,xlHca8eOTR5We2LbOJTpivquSTA=,"210 RHL Blvd, Charleston, WV - Jersey Mike's Subs",jerseymikes,fast_food,sandwich,yes,210 RHL Blvd,Charleston,WV,25309-8262,US,"210 RHL Blvd, Charleston, WV - Jersey Mike's Subs", ,https://www.jerseymikes.com/26005/charleston-wv,Jersey Mike's Subs,Q6184897,jerseymikessubs-4d2ff4
-77.8440740,39.2993690,Mt9BK9ajy2RGEnG8ucN_hdvo2Hk=,"71-C Jefferson Crossing Way, Charles Town, WV - Jersey Mike's Subs",jerseymikes,fast_food,sandwich,yes,71-C Jefferson Crossing Way,Charles Town,WV,25414-4931,US,"71-C Jefferson Crossing Way, Charles Town, WV - Jersey Mike's Subs", ,https://www.jerseymikes.com/26001/charles-town-wv,Jersey Mike's Subs,Q6184897,jerseymikessubs-4d2ff4
-82.3086130,38.4129500,Hgys8PzFSksSAdlsvNuxrOrN3hY=,"6007 US Route 60 East, Barboursville (Magisterial District), WV - Jersey Mike's Subs",jerseymikes,fast_food,sandwich,yes,6007 US Route 60 East,Barboursville (Magisterial District),WV,25504-1045,US,"6007 US Route 60 East, Barboursville (Magisterial District), WV - Jersey Mike's Subs", ,https://www.jerseymikes.com/26007/barboursville-magisterial-district-wv,Jersey Mike's Subs,Q6184897,jerseymikessubs-4d2ff4
-87.8786980,42.5669380,3_08Mr7GGw_-r8AgAShT_M5HOI8=,"5836 A 75th Street, Kenosha, WI - Jersey Mike's Subs",jerseymikes,fast_food,sandwich,yes,5836 A 75th Street,Kenosha,WI,53142,US,"5836 A 75th Street, Kenosha, WI - Jersey Mike's Subs", ,https://www.jerseymikes.com/29028/kenosha-wi,Jersey Mike's Subs,Q6184897,jerseymikessubs-4d2ff4
-88.9955580,42.7191750,8tvtqZ52eZ90yIGTeV-KPk52xgY=,"2228 Humes Rd, Janesville, WI - Jersey Mike's Subs",jerseymikes,fast_food,sandwich,yes,2228 Humes Rd,Janesville,WI,53545-0202,US,"2228 Humes Rd, Janesville, WI - Jersey Mike's Subs", ,https://www.jerseymikes.com/29029/janesville-wi,Jersey Mike's Subs,Q6184897,jerseymikessubs-4d2ff4
-92.7260900,44.9621560,gkfneZOXfnT0Z9PQ8Ww3FNE_hNI=,"2310 Badger Drive, Hudson, WI - Jersey Mike's Subs",jerseymikes,fast_food,sandwich,yes,2310 Badger Drive,Hudson,WI,54016-4203,US,"2310 Badger Drive, Hudson, WI - Jersey Mike's Subs", ,https://www.jerseymikes.com/29008/hudson-wi,Jersey Mike's Subs,Q6184897,jerseymikessubs-4d2ff4
-88.0807600,44.5907500,otF6eS329uKeRdSALPXHNqpinFs=,"2485 Lineville Rd, Howard, WI - Jersey Mike's Subs",jerseymikes,fast_food,sandwich,yes,2485 Lineville Rd,Howard,WI,54313-7140,US,"2485 Lineville Rd, Howard, WI - Jersey Mike's Subs", ,https://www.jerseymikes.com/29030/howard-wi,Jersey Mike's Subs,Q6184897,jerseymikessubs-4d2ff4
-88.0127070,42.9591390,2-WPUQdV2AKitxTGFqEBAanhH8A=,"7925 W. Layton Ave, Greenfield, WI - Jersey Mike's Subs",jerseymikes,fast_food,sandwich,yes,7925 W. Layton Ave,Greenfield,WI,53220-3710,US,"7925 W. Layton Ave, Greenfield, WI - Jersey Mike's Subs", ,https://www.jerseymikes.com/29006/greenfield-wi,Jersey Mike's Subs,Q6184897,jerseymikessubs-4d2ff4
-88.0704920,44.4840430,v7B8LEKG6NF0Ctv1m-26X9qwfGk=,"2476 South Oneida Street, Green Bay, WI - Jersey Mike's Subs",jerseymikes,fast_food,sandwich,yes,2476 South Oneida Street,Green Bay,WI,54304-5289,US,"2476 South Oneida Street, Green Bay, WI - Jersey Mike's Subs", ,https://www.jerseymikes.com/29012/green-bay-wi,Jersey Mike's Subs,Q6184897,jerseymikessubs-4d2ff4
-88.4707750,44.2632760,6_XjRyj7V3gFmP63VcFO1YjoVag=,"149 N Mall Drive, Grand Chute (Town Of), WI - Jersey Mike's Subs",jerseymikes,fast_food,sandwich,yes,149 N Mall Drive,Grand Chute (Town Of),WI,54913-8531,US,"149 N Mall Drive, Grand Chute (Town Of), WI - Jersey Mike's Subs", ,https://www.jerseymikes.com/29021/grand-chute-town-of-wi,Jersey Mike's Subs,Q6184897,jerseymikessubs-4d2ff4
-87.9501500,42.9255580,LZxB8pRiJHTrLCiRq3i765UEIo0=,"6531 South 27th Street, Franklin, WI - Jersey Mike's Subs",jerseymikes,fast_food,sandwich,yes,6531 South 27th Street,Franklin,WI,53132-9424,US,"6531 South 27th Street, Franklin, WI - Jersey Mike's Subs", ,https://www.jerseymikes.com/29010/franklin-wi,Jersey Mike's Subs,Q6184897,jerseymikessubs-4d2ff4
-88.4724040,43.7846320,D4OQuxapqiUV2US-Khf7PFjf8E4=,"221 North Peters Avenue, Fond du Lac, WI - Jersey Mike's Subs",jerseymikes,fast_food,sandwich,yes,221 North Peters Avenue,Fond du Lac,WI,54935-2225,US,"221 North Peters Avenue, Fond du Lac, WI - Jersey Mike's Subs", ,https://www.jerseymikes.com/29019/fond-du-lac-wi,Jersey Mike's Subs,Q6184897,jerseymikessubs-4d2ff4
-88.1309490,43.0376600,6_O4o3BEa3tQIMRXQOy8AM4RCLI=,"17550-C W. Bluemound Rd., Brookfield, WI - Jersey Mike's Subs",jerseymikes,fast_food,sandwich,yes,17550-C W. Bluemound Rd.,Brookfield,WI,53045-2946,US,"17550-C W. Bluemound Rd., Brookfield, WI - Jersey Mike's Subs", ,https://www.jerseymikes.com/29001/brookfield-wi,Jersey Mike's Subs,Q6184897,jerseymikessubs-4d2ff4
-88.3502360,44.2442420,QqPEjIFNASpW7IETyqKUyGPnV1Y=,"W3216 County KK, Appleton, WI - Jersey Mike's Subs",jerseymikes,fast_food,sandwich,yes,W3216 County KK,Appleton,WI,54915,US,"W3216 County KK, Appleton, WI - Jersey Mike's Subs", ,https://www.jerseymikes.com/29023/appleton-wi,Jersey Mike's Subs,Q6184897,jerseymikessubs-4d2ff4
-97.2069390,37.7288650,8uSyHhOMkVbvL8q3Vf_fNRPJeN0=,"2564 North Greenwich Road, Wichita, KS - Jersey Mike's Subs",jerseymikes,fast_food,sandwich,yes,2564 North Greenwich Road,Wichita,KS,67226-8276,US,"2564 North Greenwich Road, Wichita, KS - Jersey Mike's Subs", ,https://www.jerseymikes.com/21007/wichita-ks,Jersey Mike's Subs,Q6184897,jerseymikessubs-4d2ff4
-97.4620520,37.7304080,lo4aJAXTuGu69fkTnLGo1Px2gh0=,"2616 N Maize Rd, Wichita, KS - Jersey Mike's Subs",jerseymikes,fast_food,sandwich,yes,2616 N Maize Rd,Wichita,KS,67205-7313,US,"2616 N Maize Rd, Wichita, KS - Jersey Mike's Subs", ,https://www.jerseymikes.com/21011/wichita-ks,Jersey Mike's Subs,Q6184897,jerseymikessubs-4d2ff4
-91.6907610,41.2976570,gSL9x2MdcIkcWT5Y6U7XjcEdHEA=,"120 E. Jefferson Street, Washington, IA - Jersey Mike's Subs",jerseymikes,fast_food,sandwich,yes,120 E. Jefferson Street,Washington,IA,52353-1702,US,"120 E. Jefferson Street, Washington, IA - Jersey Mike's Subs", ,https://www.jerseymikes.com/38011/washington-ia,Jersey Mike's Subs,Q6184897,jerseymikessubs-4d2ff4
-85.7004220,38.3577410,ljPYDNtbOH75zJiqUba7byJetDs=,"5530 East Hwy. 62, Jeffersonville, IN - Jersey Mike's Subs",jerseymikes,fast_food,sandwich,yes,5530 East Hwy. 62,Jeffersonville,IN,47130-8735,US,"5530 East Hwy. 62, Jeffersonville, IN - Jersey Mike's Subs", ,https://www.jerseymikes.com/11023/jeffersonville-in,Jersey Mike's Subs,Q6184897,jerseymikessubs-4d2ff4
-87.9586670,42.1555490,8KEqC4mtJIV91KbxDwR7JYOQnTA=,"171 McHenry Rd., Buffalo Grove, IL - Jersey Mike's Subs",jerseymikes,fast_food,sandwich,yes,171 McHenry Rd.,Buffalo Grove,IL,60089-1796,US,"171 McHenry Rd., Buffalo Grove, IL - Jersey Mike's Subs", ,https://www.jerseymikes.com/27048/buffalo-grove-il,Jersey Mike's Subs,Q6184897,jerseymikessubs-4d2ff4
-114.4824260,42.5881780,3cj7sPgkueVk9gyCX5pRGv5P_o4=,"163 Cheney Drive West, Twin Falls, ID - Jersey Mike's Subs",jerseymikes,fast_food,sandwich,yes,163 Cheney Drive West,Twin Falls,ID,83301-4273,US,"163 Cheney Drive West, Twin Falls, ID - Jersey Mike's Subs", ,https://www.jerseymikes.com/43003/twin-falls-id,Jersey Mike's Subs,Q6184897,jerseymikessubs-4d2ff4
-156.4915290,20.8875770,u2hnCqgzNgL8ZCHB-3N6jgU93qs=,"52 Maui Lani Parkway, Wailuku, HI - Jersey Mike's Subs",jerseymikes,fast_food,sandwich,yes,52 Maui Lani Parkway,Wailuku,HI,96793-2465,US,"52 Maui Lani Parkway, Wailuku, HI - Jersey Mike's Subs", ,https://www.jerseymikes.com/44003/wailuku-hi,Jersey Mike's Subs,Q6184897,jerseymikessubs-4d2ff4
-84.4129400,33.8099900,eNpVqfxxXDARuxb9nsfEc0Z-8DU=,"2020 Howell Mill Road, Atlanta, GA - Jersey Mike's Subs",jerseymikes,fast_food,sandwich,yes,2020 Howell Mill Road,Atlanta,GA,30318-1732,US,"2020 Howell Mill Road, Atlanta, GA - Jersey Mike's Subs", ,https://www.jerseymikes.com/5017/atlanta-ga,Jersey Mike's Subs,Q6184897,jerseymikessubs-4d2ff4
-80.0901560,26.5429550,kj_CG4UWl71Rf-4km6uhmZPvOKk=,"1780 N Congress Ave, Boynton Beach, FL - Jersey Mike's Subs",jerseymikes,fast_food,sandwich,yes,1780 N Congress Ave,Boynton Beach,FL,33426-8267,US,"1780 N Congress Ave, Boynton Beach, FL - Jersey Mike's Subs", ,https://www.jerseymikes.com/13097/boynton-beach-fl,Jersey Mike's Subs,Q6184897,jerseymikessubs-4d2ff4
-76.9939150,38.9209360,BN8_AHn1-twGjRAoFZH2MPIzC3I=,"2300 Washington Pl. N.E., Washington DC, DC - Jersey Mike's Subs",jerseymikes,fast_food,sandwich,yes,2300 Washington Pl. N.E.,Washington DC,DC,20018-1054,US,"2300 Washington Pl. N.E., Washington DC, DC - Jersey Mike's Subs", ,https://www.jerseymikes.com/36001/washington-dc-dc,Jersey Mike's Subs,Q6184897,jerseymikessubs-4d2ff4
-75.1409810,38.7366850,qusyPN5pwFlG3zf65byk8I6tWu8=,"18598 Coastal Highway, Rehoboth Beach, DE - Jersey Mike's Subs",jerseymikes,fast_food,sandwich,yes,18598 Coastal Highway,Rehoboth Beach,DE,19971-6142,US,"18598 Coastal Highway, Rehoboth Beach, DE - Jersey Mike's Subs", ,https://www.jerseymikes.com/35001/rehoboth-beach-de,Jersey Mike's Subs,Q6184897,jerseymikessubs-4d2ff4
-72.6779640,41.2876460,TCTlcohwZUN75n6FEAEA_r1xuyg=,"874 Boston Post Road, Guilford, CT - Jersey Mike's Subs",jerseymikes,fast_food,sandwich,yes,874 Boston Post Road,Guilford,CT,06437-2701,US,"874 Boston Post Road, Guilford, CT - Jersey Mike's Subs", ,https://www.jerseymikes.com/19017/guilford-ct,Jersey Mike's Subs,Q6184897,jerseymikessubs-4d2ff4
-104.7572660,38.8433960,qqORin0n5aeB0w3b45Y5qwMVqZs=,"737 N Academy Blvd, Colorado Springs, CO - Jersey Mike's Subs",jerseymikes,fast_food,sandwich,yes,737 N Academy Blvd,Colorado Springs,CO,80909-8306,US,"737 N Academy Blvd, Colorado Springs, CO - Jersey Mike's Subs", ,https://www.jerseymikes.com/22010/colorado-springs-co,Jersey Mike's Subs,Q6184897,jerseymikessubs-4d2ff4
-119.0916630,35.3560460,dgQjmqbXmjLCtIOeEvM7k4QG_34=,"200 Coffee Road, Bakersfield, CA - Jersey Mike's Subs",jerseymikes,fast_food,sandwich,yes,200 Coffee Road,Bakersfield,CA,93309-1217,US,"200 Coffee Road, Bakersfield, CA - Jersey Mike's Subs", ,https://www.jerseymikes.com/20227/bakersfield-ca,Jersey Mike's Subs,Q6184897,jerseymikessubs-4d2ff4
-94.2085670,36.1762430,cSm7f-jFC_rtXIWIqIVe8KAYXz0=,"7022 West Sunset Avenue, Springdale, AR - Jersey Mike's Subs",jerseymikes,fast_food,sandwich,yes,7022 West Sunset Avenue,Springdale,AR,72762-0883,US,"7022 West Sunset Avenue, Springdale, AR - Jersey Mike's Subs", ,https://www.jerseymikes.com/46006/springdale-ar,Jersey Mike's Subs,Q6184897,jerseymikessubs-4d2ff4
-111.7492820,33.3064370,BYEKno4yncFIzBqKm5X9UNf9gt0=,"1887 E. Williams Field Road, Gilbert, AZ - Jersey Mike's Subs",jerseymikes,fast_food,sandwich,yes,1887 E. Williams Field Road,Gilbert,AZ,85295-5307,US,"1887 E. Williams Field Road, Gilbert, AZ - Jersey Mike's Subs", ,https://www.jerseymikes.com/9037/gilbert-az,Jersey Mike's Subs,Q6184897,jerseymikessubs-4d2ff4
-86.5701310,34.6936080,QQfvYYwdKCMPklJyGDOv0apSDnQ=,"4800 Whitesburg Drive, Huntsville, AL - Jersey Mike's Subs",jerseymikes,fast_food,sandwich,yes,4800 Whitesburg Drive,Huntsville,AL,35802-1600,US,"4800 Whitesburg Drive, Huntsville, AL - Jersey Mike's Subs", ,https://www.jerseymikes.com/12014/huntsville-al,Jersey Mike's Subs,Q6184897,jerseymikessubs-4d2ff4
-86.6815500,34.7455000,D7I2EX-sn0K8sP1KYGNRAs6pAmg=,"6290 University Dr. NW, Huntsville, AL - Jersey Mike's Subs",jerseymikes,fast_food,sandwich,yes,6290 University Dr. NW,Huntsville,AL,35806-1791,US,"6290 University Dr. NW, Huntsville, AL - Jersey Mike's Subs", ,https://www.jerseymikes.com/12003/huntsville-al,Jersey Mike's Subs,Q6184897,jerseymikessubs-4d2ff4
-86.6675450,33.4174220,eYI1Th1MljU_oKYIFrljOaIILCM=,"5413 US-280, Hoover, AL - Jersey Mike's Subs",jerseymikes,fast_food,sandwich,yes,5413 US-280,Hoover,AL,35242-6693,US,"5413 US-280, Hoover, AL - Jersey Mike's Subs", ,https://www.jerseymikes.com/12030/hoover-al,Jersey Mike's Subs,Q6184897,jerseymikessubs-4d2ff4
-86.7970400,33.3658900,3wh_JgrvvkU9cGg6VPLfiQIJn5c=,"1851 Montgomery Highway, Hoover, AL - Jersey Mike's Subs",jerseymikes,fast_food,sandwich,yes,1851 Montgomery Highway,Hoover,AL,35244-2505,US,"1851 Montgomery Highway, Hoover, AL - Jersey Mike's Subs", ,https://www.jerseymikes.com/12007/hoover-al,Jersey Mike's Subs,Q6184897,jerseymikessubs-4d2ff4
-85.9883130,34.0100220,R9xPAUw8ZF61yj7VhvOTg4HSFVk=,"404 E Meighan Blvd., Gadsden, AL - Jersey Mike's Subs",jerseymikes,fast_food,sandwich,yes,404 E Meighan Blvd.,Gadsden,AL,35903-1051,US,"404 E Meighan Blvd., Gadsden, AL - Jersey Mike's Subs", ,https://www.jerseymikes.com/12017/gadsden-al,Jersey Mike's Subs,Q6184897,jerseymikessubs-4d2ff4
-87.6841220,30.3851530,n9PL014emG-CwZDDJ19uHOk91_U=,"2070 S Mckenzie Street, Foley, AL - Jersey Mike's Subs",jerseymikes,fast_food,sandwich,yes,2070 S Mckenzie Street,Foley,AL,36535-1751,US,"2070 S Mckenzie Street, Foley, AL - Jersey Mike's Subs", ,https://www.jerseymikes.com/12023/foley-al,Jersey Mike's Subs,Q6184897,jerseymikessubs-4d2ff4
-85.3632680,31.2183220,dO5ee-MLZ7TPcHuo8cWiAIuq3mg=,"1865 East Main Street, Dothan, AL - Jersey Mike's Subs",jerseymikes,fast_food,sandwich,yes,1865 East Main Street,Dothan,AL,36301-3013,US,"1865 East Main Street, Dothan, AL - Jersey Mike's Subs", ,https://www.jerseymikes.com/12028/dothan-al,Jersey Mike's Subs,Q6184897,jerseymikessubs-4d2ff4
-85.4306660,31.2537700,o3dUi2G_ZjCL_q7y5Z4-t8F9fYc=,"104 Rock Bridge Road, Dothan, AL - Jersey Mike's Subs",jerseymikes,fast_food,sandwich,yes,104 Rock Bridge Road,Dothan,AL,36303-2186,US,"104 Rock Bridge Road, Dothan, AL - Jersey Mike's Subs", ,https://www.jerseymikes.com/12018/dothan-al,Jersey Mike's Subs,Q6184897,jerseymikessubs-4d2ff4
-87.8517620,30.6576560,9w-AR1LKHmnFomeKcv_0e6kMf_A=,"29660 Hwy 181, Daphne, AL - Jersey Mike's Subs",jerseymikes,fast_food,sandwich,yes,29660 Hwy 181,Daphne,AL,36526,US,"29660 Hwy 181, Daphne, AL - Jersey Mike's Subs", ,https://www.jerseymikes.com/12012/daphne-al,Jersey Mike's Subs,Q6184897,jerseymikessubs-4d2ff4
-86.8413000,34.1522470,i5O2S0fAxBzeANyqscaR5TEwCT4=,"1850 Cherokee Ave. SW, Cullman, AL - Jersey Mike's Subs",jerseymikes,fast_food,sandwich,yes,1850 Cherokee Ave. SW,Cullman,AL,35055-7503,US,"1850 Cherokee Ave. SW, Cullman, AL - Jersey Mike's Subs", ,https://www.jerseymikes.com/12015/cullman-al,Jersey Mike's Subs,Q6184897,jerseymikessubs-4d2ff4
-85.5020870,32.5651280,IkfLYqDSbbEk53L31fKagpLrQwI=,"2081 South College Street, Auburn, AL - Jersey Mike's Subs",jerseymikes,fast_food,sandwich,yes,2081 South College Street,Auburn,AL,36832-5982,US,"2081 South College Street, Auburn, AL - Jersey Mike's Subs", ,https://www.jerseymikes.com/12019/auburn-al,Jersey Mike's Subs,Q6184897,jerseymikessubs-4d2ff4
-86.8128010,33.2565320,uZRu5sRZj0Ane8ajIuvInQGsl1U=,"1114 1st Street N, Alabaster, AL - Jersey Mike's Subs",jerseymikes,fast_food,sandwich,yes,1114 1st Street N,Alabaster,AL,35007-8771,US,"1114 1st Street N, Alabaster, AL - Jersey Mike's Subs", ,https://www.jerseymikes.com/12026/alabaster-al,Jersey Mike's Subs,Q6184897,jerseymikessubs-4d2ff4
-111.7896380,33.3346590,gb6porwkeyZKv5p4S3gT7XJsZ1M=,"835 South Gilbert Road, Gilbert, AZ - Jersey Mike's Subs",jerseymikes,fast_food,sandwich,yes,835 South Gilbert Road,Gilbert,AZ,85296-2980,US,"835 South Gilbert Road, Gilbert, AZ - Jersey Mike's Subs", ,https://www.jerseymikes.com/9058/gilbert-az,Jersey Mike's Subs,Q6184897,jerseymikessubs-4d2ff4
-111.6606840,35.1795630,h608SDAtXyDVnxKQPlqTnBpJQ64=,"2080 South Milton Road, Flagstaff, AZ - Jersey Mike's Subs",jerseymikes,fast_food,sandwich,yes,2080 South Milton Road,Flagstaff,AZ,86001-6383,US,"2080 South Milton Road, Flagstaff, AZ - Jersey Mike's Subs", ,https://www.jerseymikes.com/9050/flagstaff-az,Jersey Mike's Subs,Q6184897,jerseymikessubs-4d2ff4
-111.8412610,33.2983340,_5hYJCYxqc1XnYe9fL3RCk5Ysno=,"325 S Arizona Avenue, Chandler, AZ - Jersey Mike's Subs",jerseymikes,fast_food,sandwich,yes,325 S Arizona Avenue,Chandler,AZ,85225-7524,US,"325 S Arizona Avenue, Chandler, AZ - Jersey Mike's Subs", ,https://www.jerseymikes.com/9075/chandler-az,Jersey Mike's Subs,Q6184897,jerseymikessubs-4d2ff4
-111.7892650,33.2332520,RSUxz3E7DYjZWyUps1hytD141uk=,"5045 South Gilbert Rd., Chandler, AZ - Jersey Mike's Subs",jerseymikes,fast_food,sandwich,yes,5045 South Gilbert Rd.,Chandler,AZ,85249,US,"5045 South Gilbert Rd., Chandler, AZ - Jersey Mike's Subs", ,https://www.jerseymikes.com/9057/chandler-az,Jersey Mike's Subs,Q6184897,jerseymikessubs-4d2ff4
-111.8421300,33.2471640,vQG1clqmUDZexqD_9uInk-ndt6Y=,"4010 S Arizona Ave, Chandler, AZ - Jersey Mike's Subs",jerseymikes,fast_food,sandwich,yes,4010 S Arizona Ave,Chandler,AZ,85248-5800,US,"4010 S Arizona Ave, Chandler, AZ - Jersey Mike's Subs", ,https://www.jerseymikes.com/9010/chandler-az,Jersey Mike's Subs,Q6184897,jerseymikessubs-4d2ff4
-111.8914400,33.3064100,7RswSyAFAn7qVory0BMdsO8seTQ=,"2780 W. Chandler Blvd., Chandler, AZ - Jersey Mike's Subs",jerseymikes,fast_food,sandwich,yes,2780 W. Chandler Blvd.,Chandler,AZ,85224-4922,US,"2780 W. Chandler Blvd., Chandler, AZ - Jersey Mike's Subs", ,https://www.jerseymikes.com/9005/chandler-az,Jersey Mike's Subs,Q6184897,jerseymikessubs-4d2ff4
-111.9663200,33.7984230,pvppS9uCy06mUCkw_zKNzLcQiWI=,"5355 East Carefree Highway, Cave Creek, AZ - Jersey Mike's Subs",jerseymikes,fast_food,sandwich,yes,5355 East Carefree Highway,Cave Creek,AZ,85331-1004,US,"5355 East Carefree Highway, Cave Creek, AZ - Jersey Mike's Subs", ,https://www.jerseymikes.com/9011/cave-creek-az,Jersey Mike's Subs,Q6184897,jerseymikessubs-4d2ff4
-114.5986790,35.1091960,QMVxgj3ElhFUXVrvLVFUUV4XjlA=,"2179 Highway 95, Bullhead City, AZ - Jersey Mike's Subs",jerseymikes,fast_food,sandwich,yes,2179 Highway 95,Bullhead City,AZ,86442-6008,US,"2179 Highway 95, Bullhead City, AZ - Jersey Mike's Subs", ,https://www.jerseymikes.com/9059/bullhead-city-az,Jersey Mike's Subs,Q6184897,jerseymikessubs-4d2ff4
-112.5554610,33.4365260,ywkgqVAGh2mG4-ceYeA-eMKN6Vo=,"1177 S Watson Rd., Buckeye, AZ - Jersey Mike's Subs",jerseymikes,fast_food,sandwich,yes,1177 S Watson Rd.,Buckeye,AZ,85326-3465,US,"1177 S Watson Rd., Buckeye, AZ - Jersey Mike's Subs", ,https://www.jerseymikes.com/9054/buckeye-az,Jersey Mike's Subs,Q6184897,jerseymikessubs-4d2ff4
-112.2825840,33.4642730,PIPkUUUZCxSj3zJGa5sMagIzElE=,"10321 W. McDowell Rd., Avondale, AZ - Jersey Mike's Subs",jerseymikes,fast_food,sandwich,yes,10321 W. McDowell Rd.,Avondale,AZ,85392-3408,US,"10321 W. McDowell Rd., Avondale, AZ - Jersey Mike's Subs", ,https://www.jerseymikes.com/9038/avondale-az,Jersey Mike's Subs,Q6184897,jerseymikessubs-4d2ff4
-112.1322050,33.8441670,wbINcPOlw0t-xqrj7bAt-htxuU8=,"39512 N. Daisy Mountain Drive, Anthem, AZ - Jersey Mike's Subs",jerseymikes,fast_food,sandwich,yes,39512 N. Daisy Mountain Drive,Anthem,AZ,85086-6062,US,"39512 N. Daisy Mountain Drive, Anthem, AZ - Jersey Mike's Subs", ,https://www.jerseymikes.com/9062/anthem-az,Jersey Mike's Subs,Q6184897,jerseymikessubs-4d2ff4
-94.1484850,36.2836020,hj7RaRMe1P4CQg0FMYQeOJnnt_c=,"2301 West Pleasant Grove Road, Rogers, AR - Jersey Mike's Subs",jerseymikes,fast_food,sandwich,yes,2301 West Pleasant Grove Road,Rogers,AR,72758-7034,US,"2301 West Pleasant Grove Road, Rogers, AR - Jersey Mike's Subs", ,https://www.jerseymikes.com/46002/rogers-ar,Jersey Mike's Subs,Q6184897,jerseymikessubs-4d2ff4
-92.2272160,34.7892270,uFD2ymnfOg6su8GygGAqyk6orTQ=,"3901 Warden Road, North Little Rock, AR - Jersey Mike's Subs",jerseymikes,fast_food,sandwich,yes,3901 Warden Road,North Little Rock,AR,72116-7304,US,"3901 Warden Road, North Little Rock, AR - Jersey Mike's Subs", ,https://www.jerseymikes.com/46007/north-little-rock-ar,Jersey Mike's Subs,Q6184897,jerseymikessubs-4d2ff4
-92.4888910,34.8118020,b-4hw7xAn1ip2nQYeM_pFdAPpzo=,"19426 Cantrell Road, Little Rock, AR - Jersey Mike's Subs",jerseymikes,fast_food,sandwich,yes,19426 Cantrell Road,Little Rock,AR,72223,US,"19426 Cantrell Road, Little Rock, AR - Jersey Mike's Subs", ,https://www.jerseymikes.com/46008/little-rock-ar,Jersey Mike's Subs,Q6184897,jerseymikessubs-4d2ff4
-94.1545350,36.1253830,F8vA8-ruZVmSdsobkgELgsb-EAU=,"160 E Joyce Blvd, Fayetteville, AR - Jersey Mike's Subs",jerseymikes,fast_food,sandwich,yes,160 E Joyce Blvd,Fayetteville,AR,72703-6080,US,"160 E Joyce Blvd, Fayetteville, AR - Jersey Mike's Subs", ,https://www.jerseymikes.com/46009/fayetteville-ar,Jersey Mike's Subs,Q6184897,jerseymikessubs-4d2ff4
-92.4137960,35.0920440,BpMJTFGjfDmZRkEFltN132JCrjI=,"1120 East Oak Street, Conway, AR - Jersey Mike's Subs",jerseymikes,fast_food,sandwich,yes,1120 East Oak Street,Conway,AR,72032-4727,US,"1120 East Oak Street, Conway, AR - Jersey Mike's Subs", ,https://www.jerseymikes.com/46003/conway-ar,Jersey Mike's Subs,Q6184897,jerseymikessubs-4d2ff4
-94.2227450,36.3372920,zBu4ISJWMQWRGnPaZix_UQRNgxs=,"3316 SW I St., Bentonville, AR - Jersey Mike's Subs",jerseymikes,fast_food,sandwich,yes,3316 SW I St.,Bentonville,AR,72712-2356,US,"3316 SW I St., Bentonville, AR - Jersey Mike's Subs", ,https://www.jerseymikes.com/46001/bentonville-ar,Jersey Mike's Subs,Q6184897,jerseymikessubs-4d2ff4
-92.5325850,34.6102560,7VN5zvp3wFNUaIzDAqWcfipvQlA=,"20770 I-30, Benton, AR - Jersey Mike's Subs",jerseymikes,fast_food,sandwich,yes,20770 I-30,Benton,AR,72019-8827,US,"20770 I-30, Benton, AR - Jersey Mike's Subs", ,https://www.jerseymikes.com/46004/benton-ar,Jersey Mike's Subs,Q6184897,jerseymikessubs-4d2ff4
-119.1459340,35.3693850,PwkAH-VfeT0RTC-rxY6CQtDLoFc=,"1211 Allen Rd., Bakersfield, CA - Jersey Mike's Subs",jerseymikes,fast_food,sandwich,yes,1211 Allen Rd.,Bakersfield,CA,93314-9658,US,"1211 Allen Rd., Bakersfield, CA - Jersey Mike's Subs", ,https://www.jerseymikes.com/20248/bakersfield-ca,Jersey Mike's Subs,Q6184897,jerseymikessubs-4d2ff4
-116.0803480,35.2629140,Ex24XGTAn3SqNvVRiuCXXaJS0j4=,"71808 Baker Blvd., Baker, CA - Jersey Mike's Subs",jerseymikes,fast_food,sandwich,yes,71808 Baker Blvd.,Baker,CA,92309-9230,US,"71808 Baker Blvd., Baker, CA - Jersey Mike's Subs", ,https://www.jerseymikes.com/20277/baker-ca,Jersey Mike's Subs,Q6184897,jerseymikessubs-4d2ff4
-117.9264330,34.1331930,UvVV2-fPMP8o95l7hEvQdORDk2c=,"1240 W Foothill Blvd., Azusa, CA - Jersey Mike's Subs",jerseymikes,fast_food,sandwich,yes,1240 W Foothill Blvd.,Azusa,CA,91702-2839,US,"1240 W Foothill Blvd., Azusa, CA - Jersey Mike's Subs", ,https://www.jerseymikes.com/20350/azusa-ca,Jersey Mike's Subs,Q6184897,jerseymikessubs-4d2ff4
-121.0966620,38.9387850,SNFMd6i0Yv5HPzD5L02urPeNMIg=,"11875 Willow Creek Drive, Auburn, CA - Jersey Mike's Subs",jerseymikes,fast_food,sandwich,yes,11875 Willow Creek Drive,Auburn,CA,95603-2525,US,"11875 Willow Creek Drive, Auburn, CA - Jersey Mike's Subs", ,https://www.jerseymikes.com/20344/auburn-ca,Jersey Mike's Subs,Q6184897,jerseymikessubs-4d2ff4
-120.6067200,35.1209000,WwN0g52OgISs2XE3jBQ25nd9K-A=,"1540 E Grand Ave., Arroyo Grande, CA - Jersey Mike's Subs",jerseymikes,fast_food,sandwich,yes,1540 E Grand Ave.,Arroyo Grande,CA,93420-2445,US,"1540 E Grand Ave., Arroyo Grande, CA - Jersey Mike's Subs", ,https://www.jerseymikes.com/20029/arroyo-grande-ca,Jersey Mike's Subs,Q6184897,jerseymikessubs-4d2ff4
-117.2673430,34.5402240,URUHEos2duBNcvTJIw6ECKIr4yQ=,"18165 Highway 18, Apple Valley, CA - Jersey Mike's Subs",jerseymikes,fast_food,sandwich,yes,18165 Highway 18,Apple Valley,CA,92307-2201,US,"18165 Highway 18, Apple Valley, CA - Jersey Mike's Subs", ,https://www.jerseymikes.com/20330/apple-valley-ca,Jersey Mike's Subs,Q6184897,jerseymikessubs-4d2ff4
-117.2455430,34.4704690,1O3YVbanMS7824ATWNCrgSuMDUk=,"19179 Bear Valley Road, Apple Valley, CA - Jersey Mike's Subs",jerseymikes,fast_food,sandwich,yes,19179 Bear Valley Road,Apple Valley,CA,92308-2724,US,"19179 Bear Valley Road, Apple Valley, CA - Jersey Mike's Subs", ,https://www.jerseymikes.com/20136/apple-valley-ca,Jersey Mike's Subs,Q6184897,jerseymikessubs-4d2ff4
-117.9061080,33.8041820,yB09oTJbxK5OuQTeqTEfkeOZlnk=,"111 E. Katella Avenue, Anaheim, CA - Jersey Mike's Subs",jerseymikes,fast_food,sandwich,yes,111 E. Katella Avenue,Anaheim,CA,92802-3703,US,"111 E. Katella Avenue, Anaheim, CA - Jersey Mike's Subs", ,https://www.jerseymikes.com/20254/anaheim-ca,Jersey Mike's Subs,Q6184897,jerseymikessubs-4d2ff4
-117.8827490,33.8002900,DVgD0Fpxv26WxC9zLXijX3oTQH8=,"2000 Gene Autry Way, Anaheim, CA - Jersey Mike's Subs",jerseymikes,fast_food,sandwich,yes,2000 Gene Autry Way,Anaheim,CA,92806-6143,US,"2000 Gene Autry Way, Anaheim, CA - Jersey Mike's Subs", ,https://www.jerseymikes.com/20150/anaheim-ca,Jersey Mike's Subs,Q6184897,jerseymikessubs-4d2ff4
-117.7909070,33.8607450,lMMKPKhzzxYhPBr7TPWsqmI1KWk=,"5675 E La Palma Avenue, Anaheim, CA - Jersey Mike's Subs",jerseymikes,fast_food,sandwich,yes,5675 E La Palma Avenue,Anaheim,CA,92807-2107,US,"5675 E La Palma Avenue, Anaheim, CA - Jersey Mike's Subs", ,https://www.jerseymikes.com/20332/anaheim-ca,Jersey Mike's Subs,Q6184897,jerseymikessubs-4d2ff4
-116.0593630,34.2354320,wcWZxH5qg0tt6l1IaSejQU6drEo=,"MCAGCC Bldg. 1517 6th Street, 29 Palms, CA - Jersey Mike's Subs",jerseymikes,fast_food,sandwich,yes,MCAGCC Bldg. 1517 6th Street,29 Palms,CA,92278,US,"MCAGCC Bldg. 1517 6th Street, 29 Palms, CA - Jersey Mike's Subs", ,https://www.jerseymikes.com/20259/29-palms-ca,Jersey Mike's Subs,Q6184897,jerseymikessubs-4d2ff4
-104.8400430,38.8265770,UO16YpF7fCFdvFyBpBBBnfnGfGg=,"559 S. 8th Street , Colorado Springs, CO - Jersey Mike's Subs",jerseymikes,fast_food,sandwich,yes,559 S. 8th Street ,Colorado Springs,CO,80905-1807,US,"559 S. 8th Street , Colorado Springs, CO - Jersey Mike's Subs", ,https://www.jerseymikes.com/22023/colorado-springs-co,Jersey Mike's Subs,Q6184897,jerseymikessubs-4d2ff4
-104.8071970,38.9909950,R_Wh8Zj6sbX3OFV12Bf4NFo0cZE=,"1250 Interquest Parkway, Colorado Springs, CO - Jersey Mike's Subs",jerseymikes,fast_food,sandwich,yes,1250 Interquest Parkway,Colorado Springs,CO,80921-4183,US,"1250 Interquest Parkway, Colorado Springs, CO - Jersey Mike's Subs", ,https://www.jerseymikes.com/22017/colorado-springs-co,Jersey Mike's Subs,Q6184897,jerseymikessubs-4d2ff4
-104.7840730,38.7678270,n0WXUJe3nJeIjNX3ZmwZmiXXCIw=,Sandwiches & Subs at Venetucci Blvd. - Jersey Mike's,jerseymikes,fast_food,sandwich,yes,4451 Venetucci Blvd ,Colorado Springs,CO,80906-4054,US,Sandwiches & Subs at Venetucci Blvd. - Jersey Mike's, ,https://www.jerseymikes.com/22029/colorado-springs-co,Jersey Mike's Subs,Q6184897,jerseymikessubs-4d2ff4
-104.8040880,39.5968680,UQJEZIcSy_wHsGTZEHW-F9QBTzo=,"6583 S Parker Road , Centennial, CO - Jersey Mike's Subs",jerseymikes,fast_food,sandwich,yes,6583 S Parker Road ,Centennial,CO,80016-1783,US,"6583 S Parker Road , Centennial, CO - Jersey Mike's Subs", ,https://www.jerseymikes.com/22030/centennial-co,Jersey Mike's Subs,Q6184897,jerseymikessubs-4d2ff4
-104.8729150,39.4110220,B6Ya4MYn1PGYVlVsB5P5vkcz9I8=,"4989 Factory Shops Blvd, Castle Rock, CO - Jersey Mike's Subs",jerseymikes,fast_food,sandwich,yes,4989 Factory Shops Blvd,Castle Rock,CO,80108-3345,US,"4989 Factory Shops Blvd, Castle Rock, CO - Jersey Mike's Subs", ,https://www.jerseymikes.com/22021/castle-rock-co,Jersey Mike's Subs,Q6184897,jerseymikessubs-4d2ff4
-104.7730570,39.6517150,WA1W18ZOxhyQLBjDdPtUGQGow7w=,"3571 S. Tower Rd., Aurora, CO - Jersey Mike's Subs",jerseymikes,fast_food,sandwich,yes,3571 S. Tower Rd.,Aurora,CO,80013-5704,US,"3571 S. Tower Rd., Aurora, CO - Jersey Mike's Subs", ,https://www.jerseymikes.com/22008/aurora-co,Jersey Mike's Subs,Q6184897,jerseymikessubs-4d2ff4
-104.8676310,39.6725590,ip-WHT5VSQuPwDtlJA_7OwL0xgg=,"2456 S Parker Rd, Aurora, CO - Jersey Mike's Subs",jerseymikes,fast_food,sandwich,yes,2456 S Parker Rd,Aurora,CO,80247-4378,US,"2456 S Parker Rd, Aurora, CO - Jersey Mike's Subs", ,https://www.jerseymikes.com/22022/aurora-co,Jersey Mike's Subs,Q6184897,jerseymikessubs-4d2ff4
-104.7103070,39.5986550,Y1QQTXdzQHWaV0iBXTOKdlQNe_8=,"23870 E. Smoky Hill Rd, Aurora, CO - Jersey Mike's Subs",jerseymikes,fast_food,sandwich,yes,23870 E. Smoky Hill Rd,Aurora,CO,80016-1357,US,"23870 E. Smoky Hill Rd, Aurora, CO - Jersey Mike's Subs", ,https://www.jerseymikes.com/22028/aurora-co,Jersey Mike's Subs,Q6184897,jerseymikessubs-4d2ff4
-104.8279970,39.7395160,AGI0s-PkWr1AzUEnLj5Q4OBLXts=,"13700 East Colfax Avenue, Aurora, CO - Jersey Mike's Subs",jerseymikes,fast_food,sandwich,yes,13700 East Colfax Avenue,Aurora,CO,80011-6738,US,"13700 East Colfax Avenue, Aurora, CO - Jersey Mike's Subs", ,https://www.jerseymikes.com/22046/aurora-co,Jersey Mike's Subs,Q6184897,jerseymikessubs-4d2ff4
-105.0802190,39.7939710,2atIO1XyixZCWNg1arTdq-VgATQ=,"5324 Wadsworth Blvd., Arvada, CO - Jersey Mike's Subs",jerseymikes,fast_food,sandwich,yes,5324 Wadsworth Blvd.,Arvada,CO,80002-3713,US,"5324 Wadsworth Blvd., Arvada, CO - Jersey Mike's Subs", ,https://www.jerseymikes.com/22044/arvada-co,Jersey Mike's Subs,Q6184897,jerseymikessubs-4d2ff4
-105.1733490,39.8104780,gyfTMxxlNmQvk8DqtDdzEO3fO7o=,"15530 W. 64th Avenue, Arvada, CO - Jersey Mike's Subs",jerseymikes,fast_food,sandwich,yes,15530 W. 64th Avenue,Arvada,CO,80007-6874,US,"15530 W. 64th Avenue, Arvada, CO - Jersey Mike's Subs", ,https://www.jerseymikes.com/22026/arvada-co,Jersey Mike's Subs,Q6184897,jerseymikessubs-4d2ff4
-72.0705650,41.3695610,SxMJLyKRc2zl4n7ookbdj5R2D1w=,"258 Route 12, Groton, CT - Jersey Mike's Subs",jerseymikes,fast_food,sandwich,yes,258 Route 12,Groton,CT,06340-3415,US,"258 Route 12, Groton, CT - Jersey Mike's Subs", ,https://www.jerseymikes.com/19022/groton-ct,Jersey Mike's Subs,Q6184897,jerseymikessubs-4d2ff4
-73.5776170,41.0425220,gUeuJSp4aM37Rt_tyyD2K_3n6_c=,"1245 East Putnam Ave, Greenwich, CT - Jersey Mike's Subs",jerseymikes,fast_food,sandwich,yes,1245 East Putnam Ave,Greenwich,CT,06878-1522,US,"1245 East Putnam Ave, Greenwich, CT - Jersey Mike's Subs", ,https://www.jerseymikes.com/19018/greenwich-ct,Jersey Mike's Subs,Q6184897,jerseymikessubs-4d2ff4
-72.6153920,41.7235930,oWN5dYHuIpP46z1HdBe3hHJAb2g=,"2941 Main Street, Glastonbury, CT - Jersey Mike's Subs",jerseymikes,fast_food,sandwich,yes,2941 Main Street,Glastonbury,CT,06033-1028,US,"2941 Main Street, Glastonbury, CT - Jersey Mike's Subs", ,https://www.jerseymikes.com/19015/glastonbury-ct,Jersey Mike's Subs,Q6184897,jerseymikessubs-4d2ff4
-73.2525750,41.1819280,hgmIJgL6zXR_LJBWYE7jrMU2cNs=,"2189 Black Rock Turnpike, Fairfield, CT - Jersey Mike's Subs",jerseymikes,fast_food,sandwich,yes,2189 Black Rock Turnpike,Fairfield,CT,06825-3244,US,"2189 Black Rock Turnpike, Fairfield, CT - Jersey Mike's Subs", ,https://www.jerseymikes.com/19005/fairfield-ct,Jersey Mike's Subs,Q6184897,jerseymikessubs-4d2ff4
-72.5779380,41.9903460,41Y2qjXPsD-6XXvTzGs8DG_RL8Q=,"39 Hazard Ave, Enfield, CT - Jersey Mike's Subs",jerseymikes,fast_food,sandwich,yes,39 Hazard Ave,Enfield,CT,06082-3743,US,"39 Hazard Ave, Enfield, CT - Jersey Mike's Subs", ,https://www.jerseymikes.com/19024/enfield-ct,Jersey Mike's Subs,Q6184897,jerseymikessubs-4d2ff4
-73.0844920,41.3314740,rr3j8plu77C8gxlZIwSiO5G-Rus=,"50 Pershing Dr., Derby, CT - Jersey Mike's Subs",jerseymikes,fast_food,sandwich,yes,50 Pershing Dr.,Derby,CT,06418-1433,US,"50 Pershing Dr., Derby, CT - Jersey Mike's Subs", ,https://www.jerseymikes.com/19010/derby-ct,Jersey Mike's Subs,Q6184897,jerseymikessubs-4d2ff4
-73.4191050,41.4068710,SQY80hkR2_kSbLhRiKDQD_qNi2s=,"72 Newtown Road, Danbury, CT - Jersey Mike's Subs",jerseymikes,fast_food,sandwich,yes,72 Newtown Road,Danbury,CT,06810-6254,US,"72 Newtown Road, Danbury, CT - Jersey Mike's Subs", ,https://www.jerseymikes.com/19033/danbury-ct,Jersey Mike's Subs,Q6184897,jerseymikessubs-4d2ff4
-72.9069750,41.4791100,OfJ4aPrmD6fXP8BXfdtVYHLiuFs=,"959 South Main Street, Cheshire, CT - Jersey Mike's Subs",jerseymikes,fast_food,sandwich,yes,959 South Main Street,Cheshire,CT,06410-3418,US,"959 South Main Street, Cheshire, CT - Jersey Mike's Subs", ,https://www.jerseymikes.com/19036/cheshire-ct,Jersey Mike's Subs,Q6184897,jerseymikessubs-4d2ff4
-73.4040950,41.4440040,gV-oR1W1_4ypP0VN_eu9v3XhpN8=,"227 Federal Rd, Brookfield, CT - Jersey Mike's Subs",jerseymikes,fast_food,sandwich,yes,227 Federal Rd,Brookfield,CT,06804-2630,US,"227 Federal Rd, Brookfield, CT - Jersey Mike's Subs", ,https://www.jerseymikes.com/19006/brookfield-ct,Jersey Mike's Subs,Q6184897,jerseymikessubs-4d2ff4
-72.9226960,41.6911660,dLH1ZMFGw8_RLdbHVR5JIzDta68=,"641 Farmington Ave, Bristol, CT - Jersey Mike's Subs",jerseymikes,fast_food,sandwich,yes,641 Farmington Ave,Bristol,CT,06010-3953,US,"641 Farmington Ave, Bristol, CT - Jersey Mike's Subs", ,https://www.jerseymikes.com/19020/bristol-ct,Jersey Mike's Subs,Q6184897,jerseymikessubs-4d2ff4
-72.8371800,41.2762900,lRGJGKFoVkPU5yEMAS33wh9fABI=,"845 West Main Street, Branford, CT - Jersey Mike's Subs",jerseymikes,fast_food,sandwich,yes,845 West Main Street,Branford,CT,06405-3413,US,"845 West Main Street, Branford, CT - Jersey Mike's Subs", ,https://www.jerseymikes.com/19001/branford-ct,Jersey Mike's Subs,Q6184897,jerseymikessubs-4d2ff4
-75.7488610,39.6509580,O2xk2ROr9En4dov1FVafk7v76UY=,"1107 S. College Ave, Newark, DE - Jersey Mike's Subs",jerseymikes,fast_food,sandwich,yes,1107 S. College Ave,Newark,DE,19713-2307,US,"1107 S. College Ave, Newark, DE - Jersey Mike's Subs", ,https://www.jerseymikes.com/35003/newark-de,Jersey Mike's Subs,Q6184897,jerseymikessubs-4d2ff4
-75.7496570,39.6837230,v_BL1OYPQyQaigy2AwEOvrFoDdk=,"310 College Square, Newark, DE - Jersey Mike's Subs",jerseymikes,fast_food,sandwich,yes,310 College Square,Newark,DE,19711-5492,US,"310 College Square, Newark, DE - Jersey Mike's Subs", ,https://www.jerseymikes.com/35007/newark-de,Jersey Mike's Subs,Q6184897,jerseymikessubs-4d2ff4
-75.2870380,38.5751140,s55FxBpboJIYyhIkA18YKEkLFLU=,"28662 Dupont Blvd., Millsboro, DE - Jersey Mike's Subs",jerseymikes,fast_food,sandwich,yes,28662 Dupont Blvd.,Millsboro,DE,19966-4794,US,"28662 Dupont Blvd., Millsboro, DE - Jersey Mike's Subs", ,https://www.jerseymikes.com/35006/millsboro-de,Jersey Mike's Subs,Q6184897,jerseymikessubs-4d2ff4
-75.7320150,39.4476310,dbrdtB8x8tFSq2VG3wMHvQMh1PI=,"1004-D Bunker Hill Road, Middletown, DE - Jersey Mike's Subs",jerseymikes,fast_food,sandwich,yes,1004-D Bunker Hill Road,Middletown,DE,19709-4702,US,"1004-D Bunker Hill Road, Middletown, DE - Jersey Mike's Subs", ,https://www.jerseymikes.com/35005/middletown-de,Jersey Mike's Subs,Q6184897,jerseymikessubs-4d2ff4
-75.5392100,39.1892110,AznM5yVaYiG2p2c1SZq19fNrEUs=,"1211 North DuPont Hwy, Dover, DE - Jersey Mike's Subs",jerseymikes,fast_food,sandwich,yes,1211 North DuPont Hwy,Dover,DE,19901-2250,US,"1211 North DuPont Hwy, Dover, DE - Jersey Mike's Subs", ,https://www.jerseymikes.com/35002/dover-de,Jersey Mike's Subs,Q6184897,jerseymikessubs-4d2ff4
-75.6488850,39.6732720,c98Co2g9wTWLjRFlFhKB56tQJWs=,"3250 Fashion Center Blvd., Christiana, DE - Jersey Mike's Subs",jerseymikes,fast_food,sandwich,yes,3250 Fashion Center Blvd.,Christiana,DE,19702-3254,US,"3250 Fashion Center Blvd., Christiana, DE - Jersey Mike's Subs", ,https://www.jerseymikes.com/35004/christiana-de,Jersey Mike's Subs,Q6184897,jerseymikessubs-4d2ff4
-76.9527290,38.9205910,3y3DzepnusIbY2GEAe1qDm97Kfw=,"2440 Market Street NE, Washington, DC - Jersey Mike's Subs",jerseymikes,fast_food,sandwich,yes,2440 Market Street NE,Washington,DC,20018-3853,US,"2440 Market Street NE, Washington, DC - Jersey Mike's Subs", ,https://www.jerseymikes.com/36002/washington-dc,Jersey Mike's Subs,Q6184897,jerseymikessubs-4d2ff4
-80.0890710,26.5127780,SS8uFJNH-g-ZVjjuT0QK4sh_LK8=,"2260 Woolbright Rd., Boynton Beach, FL - Jersey Mike's Subs",jerseymikes,fast_food,sandwich,yes,2260 Woolbright Rd.,Boynton Beach,FL,33426-6214,US,"2260 Woolbright Rd., Boynton Beach, FL - Jersey Mike's Subs", ,https://www.jerseymikes.com/13012/boynton-beach-fl,Jersey Mike's Subs,Q6184897,jerseymikessubs-4d2ff4
-81.8085700,26.3790540,z9mJqqaWkkU5kAZef84lwfB8K20=,"24830 S Tamiami Trail, Bonita Springs, FL - Jersey Mike's Subs",jerseymikes,fast_food,sandwich,yes,24830 S Tamiami Trail,Bonita Springs,FL,34134-7033,US,"24830 S Tamiami Trail, Bonita Springs, FL - Jersey Mike's Subs", ,https://www.jerseymikes.com/13227/bonita-springs-fl,Jersey Mike's Subs,Q6184897,jerseymikessubs-4d2ff4
-81.8044500,26.3304500,ZwephhLg3cc5mMbkF81GeHAS50I=,"8951 Bonita Beach Road, Bonita Springs, FL - Jersey Mike's Subs",jerseymikes,fast_food,sandwich,yes,8951 Bonita Beach Road,Bonita Springs,FL,34135-4203,US,"8951 Bonita Beach Road, Bonita Springs, FL - Jersey Mike's Subs", ,https://www.jerseymikes.com/13028/bonita-springs-fl,Jersey Mike's Subs,Q6184897,jerseymikessubs-4d2ff4
-80.1848200,26.3681400,hVFJbGXIqIlWqiA5DZ8htbqcof4=,"8903 Glades Road, Boca Raton, FL - Jersey Mike's Subs",jerseymikes,fast_food,sandwich,yes,8903 Glades Road,Boca Raton,FL,33434-4074,US,"8903 Glades Road, Boca Raton, FL - Jersey Mike's Subs", ,https://www.jerseymikes.com/13017/boca-raton-fl,Jersey Mike's Subs,Q6184897,jerseymikessubs-4d2ff4
-80.1548500,26.3501100,TCuBjOR6f8bgxBRJhsPj9lcmzl8=,"7050 West Palmetto Park Road, Boca Raton, FL - Jersey Mike's Subs",jerseymikes,fast_food,sandwich,yes,7050 West Palmetto Park Road,Boca Raton,FL,33433-3463,US,"7050 West Palmetto Park Road, Boca Raton, FL - Jersey Mike's Subs", ,https://www.jerseymikes.com/13025/boca-raton-fl,Jersey Mike's Subs,Q6184897,jerseymikessubs-4d2ff4
-80.1117730,26.3933950,W8LqqzmT40onWiIUPlcCyPEbDEI=,"1200 Yamato Rd., Boca Raton, FL - Jersey Mike's Subs",jerseymikes,fast_food,sandwich,yes,1200 Yamato Rd.,Boca Raton,FL,33431-4426,US,"1200 Yamato Rd., Boca Raton, FL - Jersey Mike's Subs", ,https://www.jerseymikes.com/13058/boca-raton-fl,Jersey Mike's Subs,Q6184897,jerseymikessubs-4d2ff4
-81.4085350,30.3249010,x9sSIX3WR_iNaqfxDR3fWm7ljn8=,"763 Atlantic Blvd, Atlantic Beach, FL - Jersey Mike's Subs",jerseymikes,fast_food,sandwich,yes,763 Atlantic Blvd,Atlantic Beach,FL,32233-3937,US,"763 Atlantic Blvd, Atlantic Beach, FL - Jersey Mike's Subs", ,https://www.jerseymikes.com/13202/atlantic-beach-fl,Jersey Mike's Subs,Q6184897,jerseymikessubs-4d2ff4
-81.5604440,28.7558410,rzSwljJ898_lIskWGH3z6qDJOas=,"3050 Kelly Park Rd, Apopka, FL - Jersey Mike's Subs",jerseymikes,fast_food,sandwich,yes,3050 Kelly Park Rd,Apopka,FL,32712-5193,US,"3050 Kelly Park Rd, Apopka, FL - Jersey Mike's Subs", ,https://www.jerseymikes.com/13216/apopka-fl,Jersey Mike's Subs,Q6184897,jerseymikessubs-4d2ff4
-81.4502290,28.6734480,SVmS5SUn2ulUxkXksX-TbkpspdE=,"450 S. Hunt Club Blvd., Apopka, FL - Jersey Mike's Subs",jerseymikes,fast_food,sandwich,yes,450 S. Hunt Club Blvd.,Apopka,FL,32703,US,"450 S. Hunt Club Blvd., Apopka, FL - Jersey Mike's Subs", ,https://www.jerseymikes.com/13059/apopka-fl,Jersey Mike's Subs,Q6184897,jerseymikessubs-4d2ff4
-81.4153100,28.6503200,6RDxVv4tYpi4Rk32v7Vw2FOO2K0=,"851 S. State Rd. 434, Altamonte Springs, FL - Jersey Mike's Subs",jerseymikes,fast_food,sandwich,yes,851 S. State Rd. 434,Altamonte Springs,FL,32714-4812,US,"851 S. State Rd. 434, Altamonte Springs, FL - Jersey Mike's Subs", ,https://www.jerseymikes.com/13036/altamonte-springs-fl,Jersey Mike's Subs,Q6184897,jerseymikessubs-4d2ff4
-81.3861000,28.6620700,NW0Oyzo6K1Oevq7RYfest-K5rS8=,"175 East Altamonte Drive, Altamonte Springs, FL - Jersey Mike's Subs",jerseymikes,fast_food,sandwich,yes,175 East Altamonte Drive,Altamonte Springs,FL,32701-4346,US,"175 East Altamonte Drive, Altamonte Springs, FL - Jersey Mike's Subs", ,https://www.jerseymikes.com/13037/altamonte-springs-fl,Jersey Mike's Subs,Q6184897,jerseymikessubs-4d2ff4
-84.3300900,33.8936400,thCsHvI8Xq837qbWLadzwuVvsjc=,"2036 Johnson Ferry Road, Atlanta, GA - Jersey Mike's Subs",jerseymikes,fast_food,sandwich,yes,2036 Johnson Ferry Road,Atlanta,GA,30319-2500,US,"2036 Johnson Ferry Road, Atlanta, GA - Jersey Mike's Subs", ,https://www.jerseymikes.com/5016/atlanta-ga,Jersey Mike's Subs,Q6184897,jerseymikessubs-4d2ff4
-84.3816100,33.8578700,KaRJveQuyNpKhsB8uZCESfjAVEo=,"3740 Roswell Road, Atlanta, GA - Jersey Mike's Subs",jerseymikes,fast_food,sandwich,yes,3740 Roswell Road,Atlanta,GA,30342-4417,US,"3740 Roswell Road, Atlanta, GA - Jersey Mike's Subs", ,https://www.jerseymikes.com/5014/atlanta-ga,Jersey Mike's Subs,Q6184897,jerseymikessubs-4d2ff4
-84.3434550,33.8565960,nzpUrLYAhmlLiaLqATGz3csLXII=,"3895 Peachtree Road North East, Atlanta, GA - Jersey Mike's Subs",jerseymikes,fast_food,sandwich,yes,3895 Peachtree Road North East,Atlanta,GA,30319-3388,US,"3895 Peachtree Road North East, Atlanta, GA - Jersey Mike's Subs", ,https://www.jerseymikes.com/5011/atlanta-ga,Jersey Mike's Subs,Q6184897,jerseymikessubs-4d2ff4
-84.3910660,33.7558070,J48iGpLtvmbGwO4PZ43hyfvDcio=,"55 Marietta Street NW, Atlanta, GA - Jersey Mike's Subs",jerseymikes,fast_food,sandwich,yes,55 Marietta Street NW,Atlanta,GA,30303-2824,US,"55 Marietta Street NW, Atlanta, GA - Jersey Mike's Subs", ,https://www.jerseymikes.com/5010/atlanta-ga,Jersey Mike's Subs,Q6184897,jerseymikessubs-4d2ff4
-84.2499370,33.8848040,t954KqtCesWBXB_KzdaHcMEnx6c=,"3489A Chamblee Tucker Road, Atlanta, GA - Jersey Mike's Subs",jerseymikes,fast_food,sandwich,yes,3489A Chamblee Tucker Road,Atlanta,GA,30341-4421,US,"3489A Chamblee Tucker Road, Atlanta, GA - Jersey Mike's Subs", ,https://www.jerseymikes.com/5025/atlanta-ga,Jersey Mike's Subs,Q6184897,jerseymikessubs-4d2ff4
-84.3816770,33.9210580,eA_ajRA-3SoD_G67Nsb3nT4FeQE=,"227 Sandy Springs Place NE, Atlanta, GA - Jersey Mike's Subs",jerseymikes,fast_food,sandwich,yes,227 Sandy Springs Place NE,Atlanta,GA,30328-5918,US,"227 Sandy Springs Place NE, Atlanta, GA - Jersey Mike's Subs", ,https://www.jerseymikes.com/5037/atlanta-ga,Jersey Mike's Subs,Q6184897,jerseymikessubs-4d2ff4
-84.4440320,33.6399750,tjOFFaISsmGrx8aBzcSI0vZ4mrI=,"Hartsfield-Jackson Atlanta Airport, Atlanta, GA - Jersey Mike's Subs",jerseymikes,fast_food,sandwich,yes,Hartsfield-Jackson Atlanta Airport,Atlanta,GA,30324-7400,US,"Hartsfield-Jackson Atlanta Airport, Atlanta, GA - Jersey Mike's Subs", ,https://www.jerseymikes.com/5047/atlanta-ga,Jersey Mike's Subs,Q6184897,jerseymikessubs-4d2ff4
-83.3339020,33.9950500,hVfkxkgvH102GKZI4kX9N_0_pnw=,"690 US Highway 29, Athens, GA - Jersey Mike's Subs",jerseymikes,fast_food,sandwich,yes,690 US Highway 29,Athens,GA,30601-1545,US,"690 US Highway 29, Athens, GA - Jersey Mike's Subs", ,https://www.jerseymikes.com/5057/athens-ga,Jersey Mike's Subs,Q6184897,jerseymikessubs-4d2ff4
-84.2499410,34.1443890,YJuUJ-qwLKLyob09ZIdfqbN_Ssk=,"5665 Atlanta Highway, Alpharetta, GA - Jersey Mike's Subs",jerseymikes,fast_food,sandwich,yes,5665 Atlanta Highway,Alpharetta,GA,30004-3932,US,"5665 Atlanta Highway, Alpharetta, GA - Jersey Mike's Subs", ,https://www.jerseymikes.com/5100/alpharetta-ga,Jersey Mike's Subs,Q6184897,jerseymikessubs-4d2ff4
-84.2785800,34.0959820,SWlVDm-8KIizQb4naJJMz3y2huY=,"12850 Alpharetta Highway, Alpharetta, GA - Jersey Mike's Subs",jerseymikes,fast_food,sandwich,yes,12850 Alpharetta Highway,Alpharetta,GA,30004-4246,US,"12850 Alpharetta Highway, Alpharetta, GA - Jersey Mike's Subs", ,https://www.jerseymikes.com/5086/alpharetta-ga,Jersey Mike's Subs,Q6184897,jerseymikessubs-4d2ff4
-84.2423900,34.0604900,sPXfZ8HDc5D-bzXiviGeM1WAE8E=,"4075 Old Milton Pkwy., Alpharetta, GA - Jersey Mike's Subs",jerseymikes,fast_food,sandwich,yes,4075 Old Milton Pkwy.,Alpharetta,GA,30005-4405,US,"4075 Old Milton Pkwy., Alpharetta, GA - Jersey Mike's Subs", ,https://www.jerseymikes.com/5005/alpharetta-ga,Jersey Mike's Subs,Q6184897,jerseymikessubs-4d2ff4
-158.0605120,21.4942650,LgdEta7_i5uDrPRd9mhPpLZkKg8=,"694  McCornack Road, Schofield Barracks, HI - Jersey Mike's Subs",jerseymikes,fast_food,sandwich,yes,694  McCornack Road,Schofield Barracks,HI,96857,US,"694  McCornack Road, Schofield Barracks, HI - Jersey Mike's Subs", ,https://www.jerseymikes.com/44006/schofield-barracks-hi,Jersey Mike's Subs,Q6184897,jerseymikessubs-4d2ff4
-157.9772310,21.3966650,EdPRbxpqYeLKR1dwFidv0gMVhZY=,"1000 Kamehameha Hwy., Pearl City, HI - Jersey Mike's Subs",jerseymikes,fast_food,sandwich,yes,1000 Kamehameha Hwy.,Pearl City,HI,96782-2881,US,"1000 Kamehameha Hwy., Pearl City, HI - Jersey Mike's Subs", ,https://www.jerseymikes.com/44005/pearl-city-hi,Jersey Mike's Subs,Q6184897,jerseymikessubs-4d2ff4
-158.0066500,21.4534740,EbfweJWxeWlbKCott3OWCPywij0=,"95-1249 Meheula Parkway, Mililani, HI - Jersey Mike's Subs",jerseymikes,fast_food,sandwich,yes,95-1249 Meheula Parkway,Mililani,HI,96789-1779,US,"95-1249 Meheula Parkway, Mililani, HI - Jersey Mike's Subs", ,https://www.jerseymikes.com/44004/mililani-hi,Jersey Mike's Subs,Q6184897,jerseymikessubs-4d2ff4
-156.6838110,20.8859120,2AlSMzEqGCSZJtDrhQQAA1AwKT0=,"1221 Honoapiilani Highway, Lahaina, HI - Jersey Mike's Subs",jerseymikes,fast_food,sandwich,yes,1221 Honoapiilani Highway,Lahaina,HI,96761-1730,US,"1221 Honoapiilani Highway, Lahaina, HI - Jersey Mike's Subs", ,https://www.jerseymikes.com/44009/lahaina-hi,Jersey Mike's Subs,Q6184897,jerseymikessubs-4d2ff4
-158.0723590,21.3431070,sLgPlxo6avZdtbbGohPr90yb5oE=,"91-0710 Farrington Hwy., Kapolei, HI - Jersey Mike's Subs",jerseymikes,fast_food,sandwich,yes,91-0710 Farrington Hwy.,Kapolei,HI,96707-2659,US,"91-0710 Farrington Hwy., Kapolei, HI - Jersey Mike's Subs", ,https://www.jerseymikes.com/44002/kapolei-hi,Jersey Mike's Subs,Q6184897,jerseymikessubs-4d2ff4
-156.4546050,20.8767120,Rm5L9QoF0zdZRZiSeW05aq8gy3I=,"140 Hookele Street, Kahului, HI - Jersey Mike's Subs",jerseymikes,fast_food,sandwich,yes,140 Hookele Street,Kahului,HI,96732-3553,US,"140 Hookele Street, Kahului, HI - Jersey Mike's Subs", ,https://www.jerseymikes.com/44007/kahului-hi,Jersey Mike's Subs,Q6184897,jerseymikessubs-4d2ff4
-157.8212180,21.2913890,IpRK_39rT3iDgMU7Y4_-H860SCk=,"2615 S. King Street, Honolulu, HI - Jersey Mike's Subs",jerseymikes,fast_food,sandwich,yes,2615 S. King Street,Honolulu,HI,96826-3257,US,"2615 S. King Street, Honolulu, HI - Jersey Mike's Subs", ,https://www.jerseymikes.com/44010/honolulu-hi,Jersey Mike's Subs,Q6184897,jerseymikessubs-4d2ff4
-157.7856510,21.2755460,naTaoZg7inOEQYihBQQfq5X7ovM=,"4618 Kilauea Ave, Honolulu, HI - Jersey Mike's Subs",jerseymikes,fast_food,sandwich,yes,4618 Kilauea Ave,Honolulu,HI,96816-5310,US,"4618 Kilauea Ave, Honolulu, HI - Jersey Mike's Subs", ,https://www.jerseymikes.com/44008/honolulu-hi,Jersey Mike's Subs,Q6184897,jerseymikessubs-4d2ff4
-157.7110480,21.2831320,bIVeaPznEPnXTpOzIizWBt7Y4DU=,"333 Keahole Street, Honolulu, HI - Jersey Mike's Subs",jerseymikes,fast_food,sandwich,yes,333 Keahole Street,Honolulu,HI,96825-3406,US,"333 Keahole Street, Honolulu, HI - Jersey Mike's Subs", ,https://www.jerseymikes.com/44001/honolulu-hi,Jersey Mike's Subs,Q6184897,jerseymikessubs-4d2ff4
-116.4128800,43.6480340,KZDIwZ0bjODDFYWFi5aPf2vNDBE=,"1511 W. McMillan Road, Meridian, ID - Jersey Mike's Subs",jerseymikes,fast_food,sandwich,yes,1511 W. McMillan Road,Meridian,ID,83646-5276,US,"1511 W. McMillan Road, Meridian, ID - Jersey Mike's Subs", ,https://www.jerseymikes.com/43004/meridian-id,Jersey Mike's Subs,Q6184897,jerseymikessubs-4d2ff4
-116.3931590,43.5006620,9f-KIKeapbmqysZGp94FhWuUaps=,"1378 N. Meridian Road, Kuna, ID - Jersey Mike's Subs",jerseymikes,fast_food,sandwich,yes,1378 N. Meridian Road,Kuna,ID,83634-1687,US,"1378 N. Meridian Road, Kuna, ID - Jersey Mike's Subs", ,https://www.jerseymikes.com/43006/kuna-id,Jersey Mike's Subs,Q6184897,jerseymikessubs-4d2ff4
-114.4455240,42.6505190,dhefP7SqxEWLA1W9qhZ1aDavfmk=,"393 Crossroads Point Blvd., Jerome, ID - Jersey Mike's Subs",jerseymikes,fast_food,sandwich,yes,393 Crossroads Point Blvd.,Jerome,ID,83338-5417,US,"393 Crossroads Point Blvd., Jerome, ID - Jersey Mike's Subs", ,https://www.jerseymikes.com/43008/jerome-id,Jersey Mike's Subs,Q6184897,jerseymikessubs-4d2ff4
-116.6662020,43.6476590,g-8msd8ALM1RPirEytJVxf-bwXw=,"3018 Cleveland Blvd., Caldwell, ID - Jersey Mike's Subs",jerseymikes,fast_food,sandwich,yes,3018 Cleveland Blvd.,Caldwell,ID,83605-6470,US,"3018 Cleveland Blvd., Caldwell, ID - Jersey Mike's Subs", ,https://www.jerseymikes.com/43007/caldwell-id,Jersey Mike's Subs,Q6184897,jerseymikessubs-4d2ff4
-116.1933000,43.5925710,0jMctLKwkh56cU7VAFy8pCwt4-c=,"1624 S. Broadway Ave., Boise, ID - Jersey Mike's Subs",jerseymikes,fast_food,sandwich,yes,1624 S. Broadway Ave.,Boise,ID,83706-3802,US,"1624 S. Broadway Ave., Boise, ID - Jersey Mike's Subs", ,https://www.jerseymikes.com/43002/boise-id,Jersey Mike's Subs,Q6184897,jerseymikessubs-4d2ff4
-116.2826200,43.6712650,jnmw4kTvokH26ITVkGFtim83OpE=,Sandwiches & Subs at W State & W Saxton  - Jersey Mike's,jerseymikes,fast_food,sandwich,yes,7610 West State Street,Boise,ID,83714-6063,US,Sandwiches & Subs at W State & W Saxton  - Jersey Mike's, ,https://www.jerseymikes.com/43001/boise-id,Jersey Mike's Subs,Q6184897,jerseymikessubs-4d2ff4
-111.9784200,43.4681560,4HLBbuGYZ4LUtxPOcpJ4uDL43MI=,"2681 East Sunnyside Road, Ammon, ID - Jersey Mike's Subs",jerseymikes,fast_food,sandwich,yes,2681 East Sunnyside Road,Ammon,ID,83406,US,"2681 East Sunnyside Road, Ammon, ID - Jersey Mike's Subs", ,https://www.jerseymikes.com/43005/ammon-id,Jersey Mike's Subs,Q6184897,jerseymikessubs-4d2ff4
-87.8494090,41.1889330,qgwoYyUhuR21PHqZ2Zzjnt5aEik=,"2070 N. State Route 50, Bradley, IL - Jersey Mike's Subs",jerseymikes,fast_food,sandwich,yes,2070 N. State Route 50,Bradley,IL,60914-4890,US,"2070 N. State Route 50, Bradley, IL - Jersey Mike's Subs", ,https://www.jerseymikes.com/27064/bradley-il,Jersey Mike's Subs,Q6184897,jerseymikessubs-4d2ff4
-88.1243180,41.7015990,DDE0r5GKCBUtWNVTRXBygHiky6I=,"214 N. Weber Rd., Bolingbrook, IL - Jersey Mike's Subs",jerseymikes,fast_food,sandwich,yes,214 N. Weber Rd.,Bolingbrook,IL,60440-1566,US,"214 N. Weber Rd., Bolingbrook, IL - Jersey Mike's Subs", ,https://www.jerseymikes.com/27023/bolingbrook-il,Jersey Mike's Subs,Q6184897,jerseymikessubs-4d2ff4
-88.9520990,40.4824320,CIUHt7smBsPpTFQcKQltOYPaAGs=,"305 North Veterans Parkway, Bloomington, IL - Jersey Mike's Subs",jerseymikes,fast_food,sandwich,yes,305 North Veterans Parkway,Bloomington,IL,61704-3504,US,"305 North Veterans Parkway, Bloomington, IL - Jersey Mike's Subs", ,https://www.jerseymikes.com/27084/bloomington-il,Jersey Mike's Subs,Q6184897,jerseymikessubs-4d2ff4
-88.1141290,41.9398870,Bf_Shup5pnDHvGA9t5aOeYQ2YX0=,"383 West Army Trail Road, Bloomingdale, IL - Jersey Mike's Subs",jerseymikes,fast_food,sandwich,yes,383 West Army Trail Road,Bloomingdale,IL,60108-1480,US,"383 West Army Trail Road, Bloomingdale, IL - Jersey Mike's Subs", ,https://www.jerseymikes.com/27046/bloomingdale-il,Jersey Mike's Subs,Q6184897,jerseymikessubs-4d2ff4
-88.2060620,41.9722450,B1KqbfQxSgQy0MRsABDzF0dQkQA=,"959 S IL State Route 59, Bartlett, IL - Jersey Mike's Subs",jerseymikes,fast_food,sandwich,yes,959 S IL State Route 59,Bartlett,IL,60103-1670,US,"959 S IL State Route 59, Bartlett, IL - Jersey Mike's Subs", ,https://www.jerseymikes.com/27055/bartlett-il,Jersey Mike's Subs,Q6184897,jerseymikessubs-4d2ff4
-87.8587860,42.1987950,aQU3j6wEEkbuh2MAIRaHylp19dQ=,"2565 Waukegan Road, Bannockburn, IL - Jersey Mike's Subs",jerseymikes,fast_food,sandwich,yes,2565 Waukegan Road,Bannockburn,IL,60015-1569,US,"2565 Waukegan Road, Bannockburn, IL - Jersey Mike's Subs", ,https://www.jerseymikes.com/27056/bannockburn-il,Jersey Mike's Subs,Q6184897,jerseymikessubs-4d2ff4
-88.2804180,41.8148780,a8YreIgByekldbYEJf1iC-8Qgok=,"2948 Kirk Road, Aurora, IL - Jersey Mike's Subs",jerseymikes,fast_food,sandwich,yes,2948 Kirk Road,Aurora,IL,60502-6010,US,"2948 Kirk Road, Aurora, IL - Jersey Mike's Subs", ,https://www.jerseymikes.com/27074/aurora-il,Jersey Mike's Subs,Q6184897,jerseymikessubs-4d2ff4
-88.3728090,41.7806950,J3YU7es0hmiYhjBRirvYH-CvcW4=,"2340 W. Indian Trail Rd., Aurora, IL - Jersey Mike's Subs",jerseymikes,fast_food,sandwich,yes,2340 W. Indian Trail Rd.,Aurora,IL,60506-1570,US,"2340 W. Indian Trail Rd., Aurora, IL - Jersey Mike's Subs", ,https://www.jerseymikes.com/27069/aurora-il,Jersey Mike's Subs,Q6184897,jerseymikessubs-4d2ff4
-88.2402500,41.7799300,VobuzfV-TaTG_TGH1UWdZh_GY8A=,"1147 North Eola Road, Aurora, IL - Jersey Mike's Subs",jerseymikes,fast_food,sandwich,yes,1147 North Eola Road,Aurora,IL,60502-7004,US,"1147 North Eola Road, Aurora, IL - Jersey Mike's Subs", ,https://www.jerseymikes.com/27005/aurora-il,Jersey Mike's Subs,Q6184897,jerseymikessubs-4d2ff4
-88.0641450,42.4668020,wCZTu-_VK5uXgS9HABgZyzkYDX0=,"489 E. IL-173, Antioch, IL - Jersey Mike's Subs",jerseymikes,fast_food,sandwich,yes,489 E. IL-173,Antioch,IL,60002-9406,US,"489 E. IL-173, Antioch, IL - Jersey Mike's Subs", ,https://www.jerseymikes.com/27085/antioch-il,Jersey Mike's Subs,Q6184897,jerseymikessubs-4d2ff4
-88.0235210,41.9465140,pVjJ-0qo3yLX10eTrknriNdq3sE=,"1435 West Lake Street, Addison, IL - Jersey Mike's Subs",jerseymikes,fast_food,sandwich,yes,1435 West Lake Street,Addison,IL,60101-1870,US,"1435 West Lake Street, Addison, IL - Jersey Mike's Subs", ,https://www.jerseymikes.com/27090/addison-il,Jersey Mike's Subs,Q6184897,jerseymikessubs-4d2ff4
-86.0861600,39.9049800,-e0sJRJHxoSyzQ6gNUB5PCzKzXI=,"5025 E. 82nd Street, Indianapolis, IN - Jersey Mike's Subs",jerseymikes,fast_food,sandwich,yes,5025 E. 82nd Street,Indianapolis,IN,46250-5631,US,"5025 E. 82nd Street, Indianapolis, IN - Jersey Mike's Subs", ,https://www.jerseymikes.com/11011/indianapolis-in,Jersey Mike's Subs,Q6184897,jerseymikessubs-4d2ff4
-86.0817870,39.6681790,e-eYFr_Ne2zmHzW-Y4JPkeec-8k=,"6815 S. Emerson Ave., Indianapolis, IN - Jersey Mike's Subs",jerseymikes,fast_food,sandwich,yes,6815 S. Emerson Ave.,Indianapolis,IN,46237-3362,US,"6815 S. Emerson Ave., Indianapolis, IN - Jersey Mike's Subs", ,https://www.jerseymikes.com/11017/indianapolis-in,Jersey Mike's Subs,Q6184897,jerseymikessubs-4d2ff4
-86.0239410,39.9251450,zcDM8Z9Vgap69Smo1nqeK_hKSFU=,"8235 E 96th Street, Indianapolis, IN - Jersey Mike's Subs",jerseymikes,fast_food,sandwich,yes,8235 E 96th Street,Indianapolis,IN,46256-1089,US,"8235 E 96th Street, Indianapolis, IN - Jersey Mike's Subs", ,https://www.jerseymikes.com/11016/indianapolis-in,Jersey Mike's Subs,Q6184897,jerseymikessubs-4d2ff4
-86.1564350,39.6053200,e_skcAFJxC1CtRRiZ_pK_b3kPSc=,"1675 W Smith Valley Rd, Greenwood, IN - Jersey Mike's Subs",jerseymikes,fast_food,sandwich,yes,1675 W Smith Valley Rd,Greenwood,IN,46142-1593,US,"1675 W Smith Valley Rd, Greenwood, IN - Jersey Mike's Subs", ,https://www.jerseymikes.com/11033/greenwood-in,Jersey Mike's Subs,Q6184897,jerseymikessubs-4d2ff4
-85.1649050,41.1745800,bakO99dITVFIGdZKvOs6i9eB7ZM=,"10020 Lima Road, Fort Wayne, IN - Jersey Mike's Subs",jerseymikes,fast_food,sandwich,yes,10020 Lima Road,Fort Wayne,IN,46818-9144,US,"10020 Lima Road, Fort Wayne, IN - Jersey Mike's Subs", ,https://www.jerseymikes.com/11015/fort-wayne-in,Jersey Mike's Subs,Q6184897,jerseymikessubs-4d2ff4
-85.2241560,41.0564090,Sl5JL-_m3X0y7YuZKv7ETLXjmPI=,"6408 W. Jefferson Blvd., Fort Wayne, IN - Jersey Mike's Subs",jerseymikes,fast_food,sandwich,yes,6408 W. Jefferson Blvd.,Fort Wayne,IN,46804-6204,US,"6408 W. Jefferson Blvd., Fort Wayne, IN - Jersey Mike's Subs", ,https://www.jerseymikes.com/11013/fort-wayne-in,Jersey Mike's Subs,Q6184897,jerseymikessubs-4d2ff4
-87.4732170,37.9854460,UEQuaxBV2rStzyuecKdf7e35O_w=,"939 N Burkhardt Rd, Evansville, IN - Jersey Mike's Subs",jerseymikes,fast_food,sandwich,yes,939 N Burkhardt Rd,Evansville,IN,47715-2743,US,"939 N Burkhardt Rd, Evansville, IN - Jersey Mike's Subs", ,https://www.jerseymikes.com/11031/evansville-in,Jersey Mike's Subs,Q6184897,jerseymikessubs-4d2ff4
-87.3356850,41.4232450,KkGI3mEn-MTZBPt0i6hmVfVbQt8=,"10714 Broadway, Crown Point, IN - Jersey Mike's Subs",jerseymikes,fast_food,sandwich,yes,10714 Broadway,Crown Point,IN,46307,US,"10714 Broadway, Crown Point, IN - Jersey Mike's Subs", ,https://www.jerseymikes.com/11030/crown-point-in,Jersey Mike's Subs,Q6184897,jerseymikessubs-4d2ff4
-85.7599590,38.3293660,kVOM5XehnTP0LihFfD-LxdWbDQ0=,"1305 Veterans Parkway, Clarksville, IN - Jersey Mike's Subs",jerseymikes,fast_food,sandwich,yes,1305 Veterans Parkway,Clarksville,IN,47129-7788,US,"1305 Veterans Parkway, Clarksville, IN - Jersey Mike's Subs", ,https://www.jerseymikes.com/11026/clarksville-in,Jersey Mike's Subs,Q6184897,jerseymikessubs-4d2ff4
-86.1175370,39.9555420,AFelX9JIq4w42NZUpM7GwWNwhCM=,"2271 Pointe Parkway, Carmel, IN - Jersey Mike's Subs",jerseymikes,fast_food,sandwich,yes,2271 Pointe Parkway,Carmel,IN,46032-3284,US,"2271 Pointe Parkway, Carmel, IN - Jersey Mike's Subs", ,https://www.jerseymikes.com/11014/carmel-in,Jersey Mike's Subs,Q6184897,jerseymikessubs-4d2ff4
-86.5009100,39.1708280,iQhPPRO-ydWeBIicUkPD1rDnzzw=,"2618 East 10th Street, Bloomington, IN - Jersey Mike's Subs",jerseymikes,fast_food,sandwich,yes,2618 East 10th Street,Bloomington,IN,47408-2666,US,"2618 East 10th Street, Bloomington, IN - Jersey Mike's Subs", ,https://www.jerseymikes.com/11028/bloomington-in,Jersey Mike's Subs,Q6184897,jerseymikessubs-4d2ff4
-95.1102540,43.4230310,yGonQ9SKASU6cSg6SgpAg5sRs7g=,"1306 18th Street, Spirit Lake, IA - Jersey Mike's Subs",jerseymikes,fast_food,sandwich,yes,1306 18th Street,Spirit Lake,IA,51360-1163,US,"1306 18th Street, Spirit Lake, IA - Jersey Mike's Subs", ,https://www.jerseymikes.com/38014/spirit-lake-ia,Jersey Mike's Subs,Q6184897,jerseymikessubs-4d2ff4
-91.5484460,42.0370030,akpICVuIOL3rkq_cxDGFUUYA6h0=,"6095 Carlson Way, Marion, IA - Jersey Mike's Subs",jerseymikes,fast_food,sandwich,yes,6095 Carlson Way,Marion,IA,52302-6651,US,"6095 Carlson Way, Marion, IA - Jersey Mike's Subs", ,https://www.jerseymikes.com/38009/marion-ia,Jersey Mike's Subs,Q6184897,jerseymikessubs-4d2ff4
-90.7214720,42.4899530,9ZvF7cL3CxBsZ6JbtE7c50z8s7g=,"3500 Dodge Street, Dubuque, IA - Jersey Mike's Subs",jerseymikes,fast_food,sandwich,yes,3500 Dodge Street,Dubuque,IA,52003-5214,US,"3500 Dodge Street, Dubuque, IA - Jersey Mike's Subs", ,https://www.jerseymikes.com/38010/dubuque-ia,Jersey Mike's Subs,Q6184897,jerseymikessubs-4d2ff4
-93.5625940,41.6002850,5thxPsca-JFfESw5X5h-zX0R2_4=,"2809 E. University Ave, Des Moines, IA - Jersey Mike's Subs",jerseymikes,fast_food,sandwich,yes,2809 E. University Ave,Des Moines,IA,50317,US,"2809 E. University Ave, Des Moines, IA - Jersey Mike's Subs", ,https://www.jerseymikes.com/38005/des-moines-ia,Jersey Mike's Subs,Q6184897,jerseymikessubs-4d2ff4
-93.6972160,41.6355020,2IFbb779ZDxRIvkhjtMixgxQYyM=,"4117 Merle Hay Rd, Des Moines, IA - Jersey Mike's Subs",jerseymikes,fast_food,sandwich,yes,4117 Merle Hay Rd,Des Moines,IA,50310-1316,US,"4117 Merle Hay Rd, Des Moines, IA - Jersey Mike's Subs", ,https://www.jerseymikes.com/38002/des-moines-ia,Jersey Mike's Subs,Q6184897,jerseymikessubs-4d2ff4
-90.5470710,41.5581950,FomcY9upifdVMN5_JlGI2r2Lr7Y=,"2124 E. Kimberly Road, Davenport, IA - Jersey Mike's Subs",jerseymikes,fast_food,sandwich,yes,2124 E. Kimberly Road,Davenport,IA,52807-7223,US,"2124 E. Kimberly Road, Davenport, IA - Jersey Mike's Subs", ,https://www.jerseymikes.com/38003/davenport-ia,Jersey Mike's Subs,Q6184897,jerseymikessubs-4d2ff4
-91.6075600,41.7192340,WNyeZlhOdKCVR2FDnYeTNSzaqd8=,"3268 Crosspark Road, Coralville, IA - Jersey Mike's Subs",jerseymikes,fast_food,sandwich,yes,3268 Crosspark Road,Coralville,IA,52241-3222,US,"3268 Crosspark Road, Coralville, IA - Jersey Mike's Subs", ,https://www.jerseymikes.com/38013/coralville-ia,Jersey Mike's Subs,Q6184897,jerseymikessubs-4d2ff4
-93.7962400,41.6009710,g_f4hwVhnLnkJRG0_knULpj073E=,"12851 University Ave., Clive, IA - Jersey Mike's Subs",jerseymikes,fast_food,sandwich,yes,12851 University Ave.,Clive,IA,50325-8254,US,"12851 University Ave., Clive, IA - Jersey Mike's Subs", ,https://www.jerseymikes.com/38001/clive-ia,Jersey Mike's Subs,Q6184897,jerseymikessubs-4d2ff4
-91.7006890,42.0314080,SfOHVyLA5A9CeZxd-5OTBnnYeHg=,"5240 Edgewood Rd NE, Cedar Rapids, IA - Jersey Mike's Subs",jerseymikes,fast_food,sandwich,yes,5240 Edgewood Rd NE,Cedar Rapids,IA,52411-6601,US,"5240 Edgewood Rd NE, Cedar Rapids, IA - Jersey Mike's Subs", ,https://www.jerseymikes.com/38012/cedar-rapids-ia,Jersey Mike's Subs,Q6184897,jerseymikessubs-4d2ff4
-93.6203050,41.7130920,6YWEhxEQdeK9WZyrDwfKzNo1Vl4=,"1510 SW Vintage Parkway, Ankeny, IA - Jersey Mike's Subs",jerseymikes,fast_food,sandwich,yes,1510 SW Vintage Parkway,Ankeny,IA,50023-7601,US,"1510 SW Vintage Parkway, Ankeny, IA - Jersey Mike's Subs", ,https://www.jerseymikes.com/38006/ankeny-ia,Jersey Mike's Subs,Q6184897,jerseymikessubs-4d2ff4
-93.6188220,42.0231660,N4757K6OFBH7PYZF8SIS65xbCFo=,"537 Lincoln Way, Ames, IA - Jersey Mike's Subs",jerseymikes,fast_food,sandwich,yes,537 Lincoln Way,Ames,IA,50010,US,"537 Lincoln Way, Ames, IA - Jersey Mike's Subs", ,https://www.jerseymikes.com/38008/ames-ia,Jersey Mike's Subs,Q6184897,jerseymikessubs-4d2ff4
-95.6739100,39.0498600,z6fP6BqKRyK_MYtb9ec6EVYuH1c=,"718 South Kansas Avenue, Topeka, KS - Jersey Mike's Subs",jerseymikes,fast_food,sandwich,yes,718 South Kansas Avenue,Topeka,KS,66603-3880,US,"718 South Kansas Avenue, Topeka, KS - Jersey Mike's Subs", ,https://www.jerseymikes.com/21002/topeka-ks,Jersey Mike's Subs,Q6184897,jerseymikessubs-4d2ff4
-95.7623800,39.0284300,dhowDT2Swoz-eGavrjScR7APXd4=,Sandwiches & Subs at Brookfield Plaza  - Jersey Mike's,jerseymikes,fast_food,sandwich,yes,2121 SW Wanamaker Rd,Topeka,KS,66614-5214,US,Sandwiches & Subs at Brookfield Plaza  - Jersey Mike's, ,https://www.jerseymikes.com/21001/topeka-ks,Jersey Mike's Subs,Q6184897,jerseymikessubs-4d2ff4
-94.6686520,38.9616630,KzByx7UNib_FAHqVsIB3WFIhAFk=,"9220 Metcalf Avenue, Overland Park, KS - Jersey Mike's Subs",jerseymikes,fast_food,sandwich,yes,9220 Metcalf Avenue,Overland Park,KS,66212-1476,US,"9220 Metcalf Avenue, Overland Park, KS - Jersey Mike's Subs", ,https://www.jerseymikes.com/21008/overland-park-ks,Jersey Mike's Subs,Q6184897,jerseymikessubs-4d2ff4
-94.6855870,38.8390970,8KHeToQgx2LhR2ZFXWwZuINe__A=,"15901 Antioch Road, Overland Park, KS - Jersey Mike's Subs",jerseymikes,fast_food,sandwich,yes,15901 Antioch Road,Overland Park,KS,66223-2924,US,"15901 Antioch Road, Overland Park, KS - Jersey Mike's Subs", ,https://www.jerseymikes.com/21006/overland-park-ks,Jersey Mike's Subs,Q6184897,jerseymikessubs-4d2ff4
-94.7616500,38.8562520,axO84N79fZgPezQIog7WsKQQ3O4=,"15018 S.Black Bob Rd., Olathe, KS - Jersey Mike's Subs",jerseymikes,fast_food,sandwich,yes,15018 S.Black Bob Rd.,Olathe,KS,66062-2663,US,"15018 S.Black Bob Rd., Olathe, KS - Jersey Mike's Subs", ,https://www.jerseymikes.com/21004/olathe-ks,Jersey Mike's Subs,Q6184897,jerseymikessubs-4d2ff4
-94.7728420,38.9703730,MFCqKaIlPX9GvwEhn5mVFTbnrCY=,"16151 W 87th Terrace, Lenexa, KS - Jersey Mike's Subs",jerseymikes,fast_food,sandwich,yes,16151 W 87th Terrace,Lenexa,KS,66219-2765,US,"16151 W 87th Terrace, Lenexa, KS - Jersey Mike's Subs", ,https://www.jerseymikes.com/21009/lenexa-ks,Jersey Mike's Subs,Q6184897,jerseymikessubs-4d2ff4
-95.3050500,38.9718730,18ISA-DQWuyxwn4d_Qz0HQH8068=,"4801 Bauer Farm Dr, Lawrence, KS - Jersey Mike's Subs",jerseymikes,fast_food,sandwich,yes,4801 Bauer Farm Dr,Lawrence,KS,66049-9088,US,"4801 Bauer Farm Dr, Lawrence, KS - Jersey Mike's Subs", ,https://www.jerseymikes.com/21012/lawrence-ks,Jersey Mike's Subs,Q6184897,jerseymikessubs-4d2ff4
-97.2436180,37.5677610,8i9k6QEwqwvWm5PVEX0g-yKtKQY=,"1918 North Rock Road, Derby, KS - Jersey Mike's Subs",jerseymikes,fast_food,sandwich,yes,1918 North Rock Road,Derby,KS,67037-3779,US,"1918 North Rock Road, Derby, KS - Jersey Mike's Subs", ,https://www.jerseymikes.com/21010/derby-ks,Jersey Mike's Subs,Q6184897,jerseymikessubs-4d2ff4
