X,Y,id,ref,@spider,amenity,cuisine,takeaway,addr:full,addr:city,addr:state,addr:postcode,addr:country,name,phone,website,brand,brand:wikidata,nsi_id
-87.6336694,41.903868,O6mSMdocaDG0mPb9zE04_fXzYzg=,4016,quiznos,fast_food,sandwich,yes,164 W Division St,Chicago,IL,60610,US,1212 N. LaSalle,(312) 642-3355,https://delivery.quiznos.com/?store_id=6359,Quizno's,Q1936229,quiznos-658eea
-113.48585,53.59991,D_rCevj9sJ58dabMOopNqvnhLX8=,9580,quiznos,fast_food,sandwich,yes,Unit 607 - 137 Ave NW,Edmonton,AB,T5E 6C1,CA,137 Ave. NW/113A St. NW,,https://delivery.quiznos.com/?store_id=6773,Quizno's,Q1936229,quiznos-658eea
-118.30123,33.85404,mfr5NtgDrj9pZ9r_5R9dFu-Q6tc=,648,quiznos,fast_food,sandwich,yes,1441 W Knox St,Torrance,CA,90501,US,190th and Normandie,,https://delivery.quiznos.com/?store_id=6214,Quizno's,Q1936229,quiznos-658eea
-92.46441,44.02241,jPF8vQfE-uw8b4G0kM-QNHaMIZk=,3669,quiznos,fast_food,sandwich,yes,101 1st Ave SW Ste 11,Rochester,MN,55902,US,1st Avenue,(507) 292-5725,https://delivery.quiznos.com/?store_id=6346,Quizno's,Q1936229,quiznos-658eea
-105.759696,53.1846121,cs9LvtwKo-u3uV1Nn3by7gYUpS4=,6356,quiznos,fast_food,sandwich,yes,3110 2nd Ave W,Prince Albert,SK,S6V 5E8,CA,2nd Ave Prince Albert,,https://delivery.quiznos.com/?store_id=6737,Quizno's,Q1936229,quiznos-658eea
-104.90367,39.76672,xYz30LIBWNiou3WIwhaNpmLiJFg=,15007,quiznos,fast_food,sandwich,yes,3535 Quebec St,Denver,CO,80207,US,35th and Quebec St,,https://delivery.quiznos.com/?store_id=11028,Quizno's,Q1936229,quiznos-658eea
-119.290384,45.852433,mDT0LHlkfe-qUnCdxPwZf6fgqCk=,4008,quiznos,fast_food,sandwich,yes,1565 N 1st St Ste 9,Hermiston,OR,97838,US,395 Mall,(541) 567-5050,https://delivery.quiznos.com/?store_id=6357,Quizno's,Q1936229,quiznos-658eea
-104.84725,39.778179,FiY1lk7tp8boas6wjZcwexKue-Y=,10810,quiznos,fast_food,sandwich,yes,4505 Peoria St Unit 102,Denver,CO,80239,US,45th and Peoria Street,,https://delivery.quiznos.com/?store_id=6488,Quizno's,Q1936229,quiznos-658eea
-114.10141,51.79528,pUDKgl3x3CQkMwZhiAt457cjmik=,12123,quiznos,fast_food,sandwich,yes,"100, 4529 49 Ave",Olds,AB,T4H 1A4,CA,49th Ave & 46th St - Olds,,https://delivery.quiznos.com/?store_id=6795,Quizno's,Q1936229,quiznos-658eea
-106.6550193,52.1729935,I7KGO7B-Bgk6VyGlyYUqWWFi0xk=,4489,quiznos,fast_food,sandwich,yes,820B 51st St E,Saskatoon,SK,S7K 0X8,CA,51st Street,(306) 975-1820,https://delivery.quiznos.com/?store_id=6702,Quizno's,Q1936229,quiznos-658eea
-84.3847612,33.7741055,JJFPsroKiDxekMjEuEeQhqr-3mI=,3068,quiznos,fast_food,sandwich,yes,710 Peachtree St NE Ste 116,Atlanta,GA,30308,US,710 Peachtree Street,(404) 532-1994,https://delivery.quiznos.com/?store_id=6318,Quizno's,Q1936229,quiznos-658eea
-120.8406627,56.2388692,TgFdROsJ3N48yqWfcfawz7sMzhY=,3701,quiznos,fast_food,sandwich,yes,9115 96A St,Fort St John,BC,V1J 6X6,CA,96A and 100 Street,(250) 787-1126,,Quizno's,Q1936229,quiznos-658eea
-122.6592859,45.6929872,6tAl1vxG4q0cO5vQnbIcBtauHsI=,2440,quiznos,fast_food,sandwich,yes,1217 Northeast 99th Street Suite 103,Vancouver,WA,98665,US,99 Street Crossing,(360) 546-5396,https://delivery.quiznos.com/?store_id=6290,Quizno's,Q1936229,quiznos-658eea
-158.06535,21.50139,YA1QVUsOOPQcdVkNdspC8bMljx8=,14987,quiznos,fast_food,sandwich,yes,1 Schofield Barracks,Schofield Barracks,HI,96857,US,"AAFES - Schofield Barracks, Bldg 752",,https://delivery.quiznos.com/?store_id=10168,Quizno's,Q1936229,quiznos-658eea
-79.7033043,43.4506506,eWJqrpLx-bHiBP4iHWXbQlT56kk=,14755,quiznos,fast_food,sandwich,yes,"223 North Service Road West, Bldg A",Oakville,ON,L6M 3R2,CA,Abbey Centre Oakville,,https://delivery.quiznos.com/?store_id=6841,Quizno's,Q1936229,quiznos-658eea
-80.9946754,46.4475413,bzN4xFTVksE7Bd8a8PXMdzYNhZk=,4486,quiznos,fast_food,sandwich,yes,15B-2040 Algonquin Rd,Sudbury,ON,P3E 4Z6,CA,Algonquin Square,(705) 523-8108,https://delivery.quiznos.com/?store_id=6700,Quizno's,Q1936229,quiznos-658eea
-112.50766,45.98637,An-NXkCsxnIwPmFyF79SgkDOXK4=,5016,quiznos,fast_food,sandwich,yes,2119 Amherst Ave,Butte,MT,59701,US,Amherst,,https://delivery.quiznos.com/?store_id=6390,Quizno's,Q1936229,quiznos-658eea
-82.20151,41.41855,h0n9T9EArviQbnS9Y2K0xwt_AVE=,5278,quiznos,fast_food,sandwich,yes,1980 Cooper Foster Park Rd W,Lorain,OH,44053,US,Amherst,(440) 282-3382,https://delivery.quiznos.com/?store_id=6400,Quizno's,Q1936229,quiznos-658eea
-117.8764836,33.690033,A2E7em0yzb4CNzYi4muODDjy9aA=,1282,quiznos,fast_food,sandwich,yes,545 Anton Blvd Ste 103,Costa Mesa,CA,92626,US,Anton,(714) 546-7222,https://delivery.quiznos.com/?store_id=6239,Quizno's,Q1936229,quiznos-658eea
-121.947722,37.511503,-W6YNXvFJzyVc1e9Fp-3TBeTKw0=,14811,quiznos,fast_food,sandwich,yes,43937 Hugo Ter,Fremont,CA,94538,US,Auto Mall,,https://delivery.quiznos.com/?store_id=6575,Quizno's,Q1936229,quiznos-658eea
-76.66844,39.17739,nj2ZSyFCIPduNYIqP7RtbzVJqIM=,8344,quiznos,fast_food,sandwich,yes,Terminal D,Baltimore,MD,21240,US,Baltimore Washington Int'l Airport - Terminal D,,,Quizno's,Q1936229,quiznos-658eea
-111.9900433,40.7296918,_fDYqcY5rhLjZi7nbWOfUZmfPzA=,576,quiznos,fast_food,sandwich,yes,1775 S 4130 W Ste D,Salt Lake City,UT,84104,US,Bangerter Pointe,(801) 973-6300,https://delivery.quiznos.com/?store_id=6210,Quizno's,Q1936229,quiznos-658eea
-119.4279438,49.8880184,frOhrZI5iLtXLQVTfq8nDN-K60M=,12664,quiznos,fast_food,sandwich,yes,306-1500 Banks Rd,Kelowna,BC,V1X 7Y1,CA,Banks and Harvey,,https://delivery.quiznos.com/?store_id=6805,Quizno's,Q1936229,quiznos-658eea
-90.09864,29.87721,VxltmAlJThqEO_6HF3l84RV4eUA=,6170,quiznos,fast_food,sandwich,yes,1855 Barataria Blvd Ste C1,Marrero,LA,70072,US,Barataria,,https://delivery.quiznos.com/?store_id=6419,Quizno's,Q1936229,quiznos-658eea
-71.213887,46.8624235,hnJ9OP-nxOQa9ajj--mn0RV-9fQ=,10073,quiznos,fast_food,sandwich,yes,3324 Rue Du Carrefour,Beauport,QC,G1C 7E1,CA,Beauport,,https://delivery.quiznos.com/?store_id=6779,Quizno's,Q1936229,quiznos-658eea
-75.8179258,45.3294918,s5Pb6WztprUz4IkJlzj4ivOkB9c=,1215,quiznos,fast_food,sandwich,yes,"1831 Robertson Road, Unit 18",Ottawa,ON,K2H 8X3,CA,Bells Corner,(613) 726-3376,https://delivery.quiznos.com/?store_id=6634,Quizno's,Q1936229,quiznos-658eea
-91.64308,42.03491,zl_X0kFhMxxRUyzKV59rHlRm4v4=,298,quiznos,fast_food,sandwich,yes,600 Blairs Ferry Rd NE Ste E,Cedar Rapids,IA,52402,US,Blairs Place Shopping Center,(319) 294-8524,https://delivery.quiznos.com/?store_id=6201,Quizno's,Q1936229,quiznos-658eea
-80.30948,25.73296,SCtFxeYjHYtTRmbzABaoparU35I=,14294,quiznos,fast_food,sandwich,yes,7100 SW Bird Road,Miami,FL,33155,US,BMS Bird East,,https://delivery.quiznos.com/?store_id=6556,Quizno's,Q1936229,quiznos-658eea
-122.9487798,49.1919884,r-6WlC6IKJ-BmC13aPQTHAp8684=,3822,quiznos,fast_food,sandwich,yes,805 Boyd St,New Westminster,BC,V3M 5X2,CA,Boyd Street,,https://delivery.quiznos.com/?store_id=6688,Quizno's,Q1936229,quiznos-658eea
-90.49898,43.97233,R6yVtdocKzWwRF2sqoi7835e7W4=,14421,quiznos,fast_food,sandwich,yes,1030 E CLifton St,Tomah,WI,54660,US,BP - Highway 12 and 16,,https://delivery.quiznos.com/?store_id=6559,Quizno's,Q1936229,quiznos-658eea
-86.59207,36.59101,xK7KLvV-bofDv9EyckqMhOML6zY=,11125,quiznos,fast_food,sandwich,yes,5500 Highway 31 W,Portland,TN,37148,US,BP - Highway 31 West,,,Quizno's,Q1936229,quiznos-658eea
-88.68964,37.16156,5pwtUwSTUptgz3bjuaLHSeMLlFA=,6620,quiznos,fast_food,sandwich,yes,2105 E 5th St,Metropolis,IL,62960,US,BP - Highway 45 and Dever Road,,https://delivery.quiznos.com/?store_id=6975,Quizno's,Q1936229,quiznos-658eea
-89.40083,43.06433,lSqcr-cFVehu9R1Ov5bpscto4Yg=,14245,quiznos,fast_food,sandwich,yes,318 S Park Street,Madison,WI,53715,US,BP - Park Street Madison,,https://delivery.quiznos.com/?store_id=6554,Quizno's,Q1936229,quiznos-658eea
-95.4174496,29.6905844,xaJPpLV95dPtXfas2ZL19xaA_KM=,1994,quiznos,fast_food,sandwich,yes,8502 Main St Ste A,Houston,TX,77025,US,Braesmain,(832) 778-8014,https://delivery.quiznos.com/?store_id=6268,Quizno's,Q1936229,quiznos-658eea
-111.9952726,33.4071923,rC6pAFMlFaG44PTFzTG5l0E0DWA=,5538,quiznos,fast_food,sandwich,yes,4001 E Broadway Rd Ste B12A,Phoenix,AZ,85040,US,Broadway Commerce Park,(602) 431-5754,https://delivery.quiznos.com/?store_id=6407,Quizno's,Q1936229,quiznos-658eea
-105.04397,39.91488,OnkT58ZrDHkDuTHAKvmGnWwzVeE=,15062,quiznos,fast_food,sandwich,yes,4490 W. 121st Ave,Broomfield,CO,80020,US,Broomfield Corners,,https://delivery.quiznos.com/?store_id=11170,Quizno's,Q1936229,quiznos-658eea
-98.5725099,29.4911873,rMa9As9QYgIr9GltjVGvlv65oJw=,4960,quiznos,fast_food,sandwich,yes,6408 Callaghan Rd,San Antonio,TX,78229,US,Callaghan Road Center,(210) 308-5525,https://delivery.quiznos.com/?store_id=6388,Quizno's,Q1936229,quiznos-658eea
-86.36969,39.67721,gEt3gMIu50lZygQ7q0uFaOpJN_U=,2469,quiznos,fast_food,sandwich,yes,5971 Cambridge Way,Plainfield,IN,46168,US,Cambridge Place Shopping Center,(317) 838-7433,https://delivery.quiznos.com/?store_id=6293,Quizno's,Q1936229,quiznos-658eea
-90.36889,43.99144,5tD77XjwGSh1WftKcQVvVPqs3U4=,14615,quiznos,fast_food,sandwich,yes,200 US Highway 12/16,Camp Douglas,WI,54618,US,Camp Douglas,,,Quizno's,Q1936229,quiznos-658eea
-83.1705682,42.6369579,B7DK9YDW05WuLg2_G59zTI9Ips8=,5011,quiznos,fast_food,sandwich,yes,2933 Crooks Rd,Rochester Hills,MI,48309,US,Campus at Auburn and Crooks,,https://delivery.quiznos.com/?store_id=6389,Quizno's,Q1936229,quiznos-658eea
-113.4231271,53.5394398,VlOhf_YD-FOR1OUfGqdIoOxw61A=,2201,quiznos,fast_food,sandwich,yes,Capilano Shopping Centre,Edmonton,AB,T6A 0A1,CA,Capilano Mall,(780) 485-2999,https://delivery.quiznos.com/?store_id=6648,Quizno's,Q1936229,quiznos-658eea
-97.7415973,30.2710071,xLzXHxDJFL7vtu3-VwzgCBP2v5k=,246,quiznos,fast_food,sandwich,yes,922 Congress Ave,Austin,TX,78701,US,Capitol,(512) 494-9300,,Quizno's,Q1936229,quiznos-658eea
-66.039429,18.398575,PHdckmJiF5pp4lBZHHUb9T2PWvQ=,5823,quiznos,fast_food,sandwich,yes,369  De Diego,Rio Piedias,PR,923,PR,Caribbean Pediatric,,,Quizno's,Q1936229,quiznos-658eea
-122.9748771,46.7253748,xrUWvtpjR7NXBu1biSY85CK-ozc=,4372,quiznos,fast_food,sandwich,yes,136 W High St,Centralia,WA,98531,US,Centralia Factory Outlets,(360) 330-5100,https://delivery.quiznos.com/?store_id=6373,Quizno's,Q1936229,quiznos-658eea
-120.5831551,46.5999084,s3b22YlKfExdZaYIzCv51FmTwKE=,9814,quiznos,fast_food,sandwich,yes,5603 Summitview Ave Unit 102,Yakima,WA,98908,US,Chalet Place Shopping Center,,https://delivery.quiznos.com/?store_id=6479,Quizno's,Q1936229,quiznos-658eea
-64.75922,46.09274,TtPOlQW2f0p0pjUiEmKNvwFL4Jc=,9750,quiznos,fast_food,sandwich,yes,4B-18 Champlain St,Dieppe,NB,E1A 1N3,CA,Champlain Street Plaza,,https://delivery.quiznos.com/?store_id=6774,Quizno's,Q1936229,quiznos-658eea
-85.79423,38.35212,itIvITDqAL1V-T8AAAhCOg95blw=,3813,quiznos,fast_food,sandwich,yes,4212 Charlestown Rd Ste 1,New Albany,IN,47150,US,Charlestown Road,(812) 981-7849,https://delivery.quiznos.com/?store_id=6353,Quizno's,Q1936229,quiznos-658eea
-93.6009879,44.8285111,3nZYlkKXyr6dnYfgqXaJAcFGEQk=,13805,quiznos,fast_food,sandwich,yes,232 Pioneer Trl,Chaska,MN,55318,US,Chaska Commons,,https://delivery.quiznos.com/?store_id=6543,Quizno's,Q1936229,quiznos-658eea
-81.05336,40.06081,TQsCfBc2P4zXOg4WE-QlWWSV-mI=,7008,quiznos,fast_food,sandwich,yes,66440 Belmont Morristown Rd,Belmont,OH,43718,US,Marathon - Bel-Morr Market,,https://delivery.quiznos.com/?store_id=6439,Quizno's,Q1936229,quiznos-658eea
-95.56926,29.8672,Ov02gUgmZrb8VdOuYx7olgeUxLw=,13198,quiznos,fast_food,sandwich,yes,10920 W Little York Rd,Houston,TX,77041,US,Chevron - Fuel Depot,,https://delivery.quiznos.com/?store_id=6528,Quizno's,Q1936229,quiznos-658eea
-93.13363,35.28133,5sMk2f_gujpZjcmwCCD_YhuBW24=,3741,quiznos,fast_food,sandwich,yes,407 N Arkansas Ave Ste 3,Russellville,AR,72801,US,City Mall,(479) 968-7827,https://delivery.quiznos.com/?store_id=6352,Quizno's,Q1936229,quiznos-658eea
-92.90249,44.9429,UP6-DId1rrz3B0r4W-CiI5qbjOk=,9124,quiznos,fast_food,sandwich,yes,10075 City Walk Dr Ste F,Woodbury,MN,55129,US,City Walk,,https://delivery.quiznos.com/?store_id=6468,Quizno's,Q1936229,quiznos-658eea
-118.7943726,55.2414313,MkFiVTpAPlLSTH3N3q5TnpsmLF8=,13917,quiznos,fast_food,sandwich,yes,8301 99 Street,Clairmont,AB,T8X 5B1,CA,Clairmont Travel Centre,,https://delivery.quiznos.com/?store_id=6823,Quizno's,Q1936229,quiznos-658eea
-53.9558,48.14492,WkWa4uwivhC16-doJ1QV5RtMtkQ=,14700,quiznos,fast_food,sandwich,yes,132 Trans Canada Highway,Clarenville,NL,A5A 1Y3,CA,Clarenville,,https://delivery.quiznos.com/?store_id=6835,Quizno's,Q1936229,quiznos-658eea
-79.6312356,43.5093435,677lK1fAxmd5TWXjkaZyqG9B8Ww=,4172,quiznos,fast_food,sandwich,yes,C11-960 Southdown Rd,Mississauga,ON,L5J 2Y4,CA,Clarkson Crossing,(905) 855-0782,https://delivery.quiznos.com/?store_id=6692,Quizno's,Q1936229,quiznos-658eea
-122.3247049,49.0505838,uM1gDQD_NpFH3LlmH0C37sTuSUw=,681,quiznos,fast_food,sandwich,yes,32500 South Fraser Way,Abbotsford,BC,V2T 4W1,CA,Clearbrook Town Square,(604) 504-7849,https://delivery.quiznos.com/?store_id=6607,Quizno's,Q1936229,quiznos-658eea
-122.3350368,47.6033615,mx8pArEhrURIV1mw7zXHmU88BoM=,3372,quiznos,fast_food,sandwich,yes,821 1st Ave,Seattle,WA,98104,US,Colman Building,(206) 382-8840,https://delivery.quiznos.com/?store_id=6330,Quizno's,Q1936229,quiznos-658eea
-123.0697631,49.2616057,n4g3lK4Va-y5XNKwVuy8i0MBbI0=,752,quiznos,fast_food,sandwich,yes,2580 Commercial Dr,Vancouver,BC,V5N 4C2,CA,Commercial Drive,(604) 872-8097,https://delivery.quiznos.com/?store_id=6612,Quizno's,Q1936229,quiznos-658eea
-100.0195,37.77955,sIP66p1-RoLa33jezkjzKY7Zz6Q=,10924,quiznos,fast_food,sandwich,yes,2615 Gary Ave,Dodge City,KS,67801,US,Conoco - Gary Avenue and Hwy 50,,https://delivery.quiznos.com/?store_id=6489,Quizno's,Q1936229,quiznos-658eea
-99.12254,40.69938,HyeHiiw6HrNudVyBS7KETmNNn7Y=,178,quiznos,fast_food,sandwich,yes,3004 Highway 30 W,Kearney,NE,68845,US,Conoco - Highway 30 W,(308) 234-6554,https://orders.deliverybyquiznos.com/mp/ordernow/store_selection?restid=706,Quizno's,Q1936229,quiznos-658eea
-95.46741,30.28504,Oao3nQPIi3_fK7w072Wue_9csWI=,14922,quiznos,fast_food,sandwich,yes,504 Medical Center Blvd,Conroe,TX,77304,US,Conroe Regional Medical Center,,https://delivery.quiznos.com/?store_id=7379,Quizno's,Q1936229,quiznos-658eea
-113.9748532,50.7065834,LvnD7LNrQ2WQYr3xSGPEHSqG31I=,6902,quiznos,fast_food,sandwich,yes,309-201 Southridge Dr Bldg B3,Okotoks,AB,T1S 2E1,CA,Cornerstore Shopping Center,(403) 995-1893,https://delivery.quiznos.com/?store_id=6744,Quizno's,Q1936229,quiznos-658eea
-121.9612034,49.14233,9HRQWhOp-dB19m4j-kzhl3T7f4s=,2597,quiznos,fast_food,sandwich,yes,45609 Luckakuck Way,Chilliwack,BC,V2R 1A3,CA,Cottonwood,(604) 824-7944,https://delivery.quiznos.com/?store_id=6653,Quizno's,Q1936229,quiznos-658eea
-117.60498,33.45404,ZpmKW7QxEDJnKuxiHyCsf-ckDjc=,2839,quiznos,fast_food,sandwich,yes,1001 Avenida Pico Ste F,San Clemente,CA,92673,US,Courtyards at Talega,(949) 218-1930,https://delivery.quiznos.com/?store_id=6308,Quizno's,Q1936229,quiznos-658eea
-93.18827,36.64341,-nJoyUF5-oA5ExiJ7T-tIB4SDBc=,15049,quiznos,fast_food,sandwich,yes,225 Cross Creek Boulevard,Branson,MO,65616,US,Cross Creek Center,,https://delivery.quiznos.com/?store_id=11187,Quizno's,Q1936229,quiznos-658eea
-73.0009612,41.2672293,KWJtEcY-hVb-BCp1kCeeb6ptIHc=,4494,quiznos,fast_food,sandwich,yes,263 Boston Post Rd Ste 2,Orange,CT,6477,US,Crossroads Plaza,(203) 795-7000,https://delivery.quiznos.com/?store_id=6378,Quizno's,Q1936229,quiznos-658eea
-123.1200342,49.2865022,euO_WiGwIVX0wnakeU5-Z_49p80=,209,quiznos,fast_food,sandwich,yes,1050 West Pender Street,Vancouver,BC,V6E 3S7,CA,Dacon Building,(604) 801-6678,https://delivery.quiznos.com/?store_id=6598,Quizno's,Q1936229,quiznos-658eea
-63.5631562,44.706183,zdbYja6JQPg4JCNmr4_8njMPFgg=,12378,quiznos,fast_food,sandwich,yes,30 Foulis Row,Dartmouth,NS,B3B 0E1,CA,Dartmouth Crossing,,https://delivery.quiznos.com/?store_id=6798,Quizno's,Q1936229,quiznos-658eea
-123.011814,49.2643223,izcubK0b5yYu75WuGCyUGXYoz8k=,12248,quiznos,fast_food,sandwich,yes,4192 Dawson St,Burnaby,BC,V5C 0A4,CA,Dawson Street,,https://delivery.quiznos.com/?store_id=6796,Quizno's,Q1936229,quiznos-658eea
-113.6178048,53.5374342,4V_X-3Ss_Hlf7JcLSklmv1lGr74=,1083,quiznos,fast_food,sandwich,yes,9940 170 St NW,Edmonton,AB,T5T 6G7,CA,Depot 170,(780) 444-7827,https://delivery.quiznos.com/?store_id=6632,Quizno's,Q1936229,quiznos-658eea
-73.7000095,45.5772856,_Iw2tJRbzaWQkHDllYluhYq421Y=,14722,quiznos,fast_food,sandwich,yes,1093 Boulevard des Laurentides,Laval,QC,H7G 2W2,CA,Des Laurentides,,https://delivery.quiznos.com/?store_id=6836,Quizno's,Q1936229,quiznos-658eea
-104.67415,39.85323,iucTltZwlf27Am6gah8Uug1Zsx8=,46,quiznos,fast_food,sandwich,yes,8400 Pena Blvd Concourse A Ste D,Denver,CO,80249,US,DIA Concourse A,(303) 342-7399,,Quizno's,Q1936229,quiznos-658eea
-79.6253897,43.6385273,jrTr1W2MxKcv301V98n0UysUBxc=,3157,quiznos,fast_food,sandwich,yes,5170 Dixie Rd,Mississauga,ON,L4W 1E3,CA,Dixie Road and Aimco,(905) 282-9101,https://delivery.quiznos.com/?store_id=6665,Quizno's,Q1936229,quiznos-658eea
-90.04098,30.41348,zDsslsroGS2xhXGnFvj-tu1nvQQ=,13731,quiznos,fast_food,sandwich,yes,1665 Dove Park Rd Ste 300,Mandeville,LA,70471,US,Dove Park Commons,,https://delivery.quiznos.com/?store_id=6540,Quizno's,Q1936229,quiznos-658eea
-81.6601127,30.3285615,g1IaZJ_kSSvzKIZzGmaV69tbF0c=,2119,quiznos,fast_food,sandwich,yes,224 N Hogan St,Jacksonville,FL,32202,US,Downtown,(904) 798-8889,https://delivery.quiznos.com/?store_id=6985,Quizno's,Q1936229,quiznos-658eea
-122.64399,47.09152,R6rKOVjftg5zgFB7TU_h6MqgoMM=,3972,quiznos,fast_food,sandwich,yes,1520 Wilmington Dr Ste C2,Dupont,WA,98327,US,Dupont Station,(253) 964-4700,https://delivery.quiznos.com/?store_id=6355,Quizno's,Q1936229,quiznos-658eea
-121.98703,47.72713,OoZfHCdNxDLH2FGfjZD8iQDZNTE=,4376,quiznos,fast_food,sandwich,yes,14110 Main St NE Ste C,Duvall,WA,98019,US,Duvall Safeway Plaza,(425) 844-0755,https://delivery.quiznos.com/?store_id=6374,Quizno's,Q1936229,quiznos-658eea
-98.699536,35.5260275,gOB1txGLOBJnT74qpIItuabZAbI=,6608,quiznos,fast_food,sandwich,yes,701 E Main St Ste A,Weatherford,OK,73096,US,East Main,(580) 772-7849,https://delivery.quiznos.com/?store_id=6431,Quizno's,Q1936229,quiznos-658eea
-97.30551,30.31187,mCEgB47-8d8vm2M4RjOZPgrUwTo=,14833,quiznos,fast_food,sandwich,yes,962 East Highway 290,Elgin,TX,78621,US,Elgin Travel Center,,,Quizno's,Q1936229,quiznos-658eea
-113.476558,53.4256991,K77XTPwFUBOkVCHEJ1rIKpTfr3A=,11946,quiznos,fast_food,sandwich,yes,9264 Ellerslie Rd SW,Edmonton,AB,T6X 0K6,CA,Ellerslie Road SW and 91 Street SW,,https://delivery.quiznos.com/?store_id=6791,Quizno's,Q1936229,quiznos-658eea
-90.1838483,29.9597708,iy64wTRSblekfn_TmfdAv1r-EhE=,4892,quiznos,fast_food,sandwich,yes,1130 S Clearview Pkwy Ste D,Harahan,LA,70123,US,Elmwood Village Plaza,,https://delivery.quiznos.com/?store_id=6386,Quizno's,Q1936229,quiznos-658eea
-113.9848642,51.082063,vPG6ev5vKC2v-W04I5GEK1d1xec=,5965,quiznos,fast_food,sandwich,yes,301-3508 32nd Ave NE,Calgary,AB,T1Y 6J2,CA,Elveden Centre,(403) 291-1919,https://delivery.quiznos.com/?store_id=6728,Quizno's,Q1936229,quiznos-658eea
-113.2882048,53.5680437,HCWPpVlQUH-yQzrkDarLpoYpc78=,12537,quiznos,fast_food,sandwich,yes,220-5000 Emerald Dr,Sherwood Park,AB,T8H 0P5,CA,Emerald Hills,,https://delivery.quiznos.com/?store_id=6801,Quizno's,Q1936229,quiznos-658eea
-93.17734,45.01148,ULx0ONOuWEdh7dzFQiChHv7hsvs=,2304,quiznos,fast_food,sandwich,yes,2339 Fairview Ave N,Roseville,MN,55113,US,Fairdale Shops,(651) 255-3344,https://delivery.quiznos.com/?store_id=6284,Quizno's,Q1936229,quiznos-658eea
-112.7945932,49.6683725,7L9NBtpC0iVfaRzKZft7mKUApQc=,1527,quiznos,fast_food,sandwich,yes,2408 Fairway Plaza Rd South,Lethbridge,AB,T1K 6Z3,CA,Fairway Plaza Mall,(403) 317-9333,https://delivery.quiznos.com/?store_id=6638,Quizno's,Q1936229,quiznos-658eea
-78.622443,35.873111,dwJc8P4xGIkyWUiuU8ZEK_erKZw=,91,quiznos,fast_food,sandwich,yes,6605 Falls of Neuse Rd,Raleigh,NC,27615,US,Falls Village,(919) 676-1909,https://delivery.quiznos.com/?store_id=6188,Quizno's,Q1936229,quiznos-658eea
-81.3333636,43.0094482,bmmimRHSYhgmIPXPEHRAUsjYsvE=,5470,quiznos,fast_food,sandwich,yes,1985 Hyde Park Rd,London,ON,N6H 0A3,CA,Fanshawe and  Hyde Park,,https://delivery.quiznos.com/?store_id=6724,Quizno's,Q1936229,quiznos-658eea
-98.7080343,46.9016764,Vx9Skf6zyPxDAP8G1oDPVY_y580=,3621,quiznos,fast_food,sandwich,yes,721 1st Ave S,Jamestown,ND,58401,US,First Avenue and Eighth Street,(701) 251-9348,https://delivery.quiznos.com/?store_id=6341,Quizno's,Q1936229,quiznos-658eea
-122.78101,49.15708,yRo0BUzqswgmfeFT6fFytfeSVfc=,674,quiznos,fast_food,sandwich,yes,403-15940 Fraser Hwy,Surrey,BC,V4N 0X8,CA,Fleetwood Park Village Shopping Center,(604) 543-7080,https://delivery.quiznos.com/?store_id=6605,Quizno's,Q1936229,quiznos-658eea
-96.7595,43.56416,3M6R4XBR9kqVqIGMev_9veczB-w=,13678,quiznos,fast_food,sandwich,yes,2505 W Russell St,Sioux Falls,SD,57104,US,Food and Fuel,,,Quizno's,Q1936229,quiznos-658eea
-79.6505345,43.4887308,TfZn8VTbmuq1p6NeDS23VO6pD88=,7538,quiznos,fast_food,sandwich,yes,1-601 Ford Dr,Oakville,ON,L6J 7Z6,CA,Ford and Royal Windsor Drive,(905) 815-8100,https://delivery.quiznos.com/?store_id=6749,Quizno's,Q1936229,quiznos-658eea
-79.01765,35.15238,Jy5xUcPypOOgMagwoJ7HSPkIKXY=,12927,quiznos,fast_food,sandwich,yes,3587 Butner Road Bldg A,Fort Bragg,NC,28310,US,Fort Bragg Army Base - Building A,,https://delivery.quiznos.com/?store_id=6986,Quizno's,Q1936229,quiznos-658eea
-81.75528,26.53363,0_viyCiNNPYJu6nS5KGUvRn1guQ=,11649,quiznos,fast_food,sandwich,yes,11000 Terminal Axis Road,Fort Myers,FL,33913,US,Fort Myers Int'l Airport,,,Quizno's,Q1936229,quiznos-658eea
-113.2070778,53.6998159,SsAdiAw--Lb3P9chQYt8t0dqAfw=,11846,quiznos,fast_food,sandwich,yes,10010  88 Avenue CRU 2,Fort Saskatchewan,AB,T8L 0A8,CA,Fort Saskatchewan,,https://delivery.quiznos.com/?store_id=6789,Quizno's,Q1936229,quiznos-658eea
-95.5846418,29.6392282,YZLUj9FmUz7ROAP3-zAKo3_nXyU=,2152,quiznos,fast_food,sandwich,yes,11339 Fountain Lake Dr,Stafford,TX,77477,US,Fountains,(281) 277-2444,https://delivery.quiznos.com/?store_id=6277,Quizno's,Q1936229,quiznos-658eea
-119.68312,36.62797,T-5Ajf962cRoO4vG_RQ_DJ6ydd0=,12951,quiznos,fast_food,sandwich,yes,"216 W Merced St, Ste 104",Fowler,CA,93625,US,Fowler Crossroads,,https://delivery.quiznos.com/?store_id=6520,Quizno's,Q1936229,quiznos-658eea
-118.3912869,33.9827192,kfSX4zcYw4x3Gua_9XbKbeWqSbY=,2136,quiznos,fast_food,sandwich,yes,6257 Bristol Pkwy,Culver City,CA,90230,US,Fox Hills Plaza,(310) 670-2752,https://delivery.quiznos.com/?store_id=6275,Quizno's,Q1936229,quiznos-658eea
-123.09008,49.21113,ZOjJDCt_u9BuNVLVe9Smn3GwgkU=,15116,quiznos,fast_food,sandwich,yes,729 SE Marine Dr,Vancouver,BC,V5X 2T9,CA,Fraser Street & SE Marine Dr,,https://delivery.quiznos.com/?store_id=12933,Quizno's,Q1936229,quiznos-658eea
-122.62926,47.5046,gNaAG9-JDpMhShMc7D07NtEIku0=,14972,quiznos,fast_food,sandwich,yes,"1888 SE Sedgwick Rd, Ste 103",Port Orchard,WA,98366,US,Fred Meyer - Sedgwick Road,,https://delivery.quiznos.com/?store_id=10033,Quizno's,Q1936229,quiznos-658eea
-113.8141942,52.2498342,oAxOKSKXBthZl8uKwMrlM_JYVrc=,1556,quiznos,fast_food,sandwich,yes,Gaetz Avenue Crossing,Red Deer,AB,T4R 2T4,CA,Gaetz Avenue Crossing,(403) 314-4464,https://delivery.quiznos.com/?store_id=6639,Quizno's,Q1936229,quiznos-658eea
-121.3339,38.68006,LMqDrB244jOi1Hb9IHgE593OG0M=,7063,quiznos,fast_food,sandwich,yes,6306 Garfield Ave,Sacramento,CA,95841,US,Garfield Corner,,https://delivery.quiznos.com/?store_id=6441,Quizno's,Q1936229,quiznos-658eea
-79.21396,43.15098,PVLRqi35bZ2eU6TtTisTfjVyRjI=,15112,quiznos,fast_food,sandwich,yes,114 Hartzel Rd,St Catharines,ON,L2P 1N5,CA,GK - St. Catherines,,,Quizno's,Q1936229,quiznos-658eea
-112.2579089,33.5516399,WtKTC204qr77EpV94cVSVTLa0jI=,2915,quiznos,fast_food,sandwich,yes,9230 W Northern Ave Ste 107,Glendale,AZ,85305,US,Glendale,(623) 772-0220,https://delivery.quiznos.com/?store_id=6310,Quizno's,Q1936229,quiznos-658eea
-96.69806,33.06752,PHWu1ujx_5ivcAuUWC1EZoWD0XM=,13117,quiznos,fast_food,sandwich,yes,"280 Legacy Parkway, Suite 200",Plano,TX,75023,US,Golden Plaza,,https://delivery.quiznos.com/?store_id=6527,Quizno's,Q1936229,quiznos-658eea
-77.97143,35.39459,mHKbiKReypVMsMa7eFawpiGjHFA=,1612,quiznos,fast_food,sandwich,yes,1813 Wayne Memorial Dr,Goldsboro,NC,27534,US,Goldsboro,(919) 731-7315,https://delivery.quiznos.com/?store_id=6970,Quizno's,Q1936229,quiznos-658eea
-118.8206909,55.1789293,lfM45BHEuFzPCuuePjtxFv3TtG4=,7940,quiznos,fast_food,sandwich,yes,103-10661 108a St,Grande Prairie,AB,T8V 7X5,CA,Grand Prairie,,https://delivery.quiznos.com/?store_id=6657,Quizno's,Q1936229,quiznos-658eea
-104.983589,39.7364254,YJK7MOpuhFgeIc5re-WGzSFS9LU=,17,quiznos,fast_food,sandwich,yes,1275 North Grant Street,Denver,CO,80203,US,Grant,(303) 837-9096,https://delivery.quiznos.com/?store_id=6186&,Quizno's,Q1936229,quiznos-658eea
-104.6393355,50.4053857,jHI-90G1uuhy4m2zJYHYfAtuefY=,13027,quiznos,fast_food,sandwich,yes,4602 Gordon Rd,Regina,SK,S4W 0B7,CA,Grasslands,,https://delivery.quiznos.com/?store_id=6813,Quizno's,Q1936229,quiznos-658eea
-97.6604331,30.4827558,qHH73FIrwip2kbKluMKz-C2Wqfw=,2362,quiznos,fast_food,sandwich,yes,603 Louis Henna Blvd Ste B120,Round Rock,TX,78664,US,Greenlawn Crossing,(512) 248-2929,https://delivery.quiznos.com/?store_id=6286,Quizno's,Q1936229,quiznos-658eea
-77.69954,39.63296,k6f4c0xasEaEJy7TSW5mQU1liog=,1492,quiznos,fast_food,sandwich,yes,55 Eastern Blvd N,Hagerstown,MD,21740,US,Hagerstown Shopping Center,(301) 665-1006,https://delivery.quiznos.com/?store_id=6248,Quizno's,Q1936229,quiznos-658eea
-66.7170175,45.9299765,XHTZuKIEqMi5m-bvlZVjdMjZO64=,14821,quiznos,fast_food,sandwich,yes,1735 Hanwell Rd,Hanwell,NB,E3C 2B8,CA,Hanwell Crossroads,,https://delivery.quiznos.com/?store_id=6845,Quizno's,Q1936229,quiznos-658eea
-122.3467437,37.9196726,NR0UfBFYVuw7x6ZKHf6GWwzae68=,14309,quiznos,fast_food,sandwich,yes,2175 Meeker Ave,Richmond,CA,94804,US,Harbor Gate,,https://delivery.quiznos.com/?store_id=6557,Quizno's,Q1936229,quiznos-658eea
-98.3923856,40.5813095,_UNuKQ9Ooorkut4sqB7xhaKCYnA=,6500,quiznos,fast_food,sandwich,yes,320 South Burlington Avenue,Hastings,NE,68901,US,Hastings,(402) 461-3800,https://delivery.quiznos.com/?store_id=6428,Quizno's,Q1936229,quiznos-658eea
-118.325817,33.9236196,HnA4zr0ysig2CHfb0xn5f4aywpw=,7371,quiznos,fast_food,sandwich,yes,2909 W 120th St,Hawthorne,CA,90250,US,Hawthorne Commercial Center,,https://delivery.quiznos.com/?store_id=6447,Quizno's,Q1936229,quiznos-658eea
-97.08575,49.944735,JC2BTSGKCc836tDNgGjN0TE6UMg=,4933,quiznos,fast_food,sandwich,yes,1411A Henderson Hwy,Winnipeg,MB,R2G 1N3,CA,Henderson Highway,,https://delivery.quiznos.com/?store_id=6715,Quizno's,Q1936229,quiznos-658eea
-122.7926388,49.2798301,AISHTSZY22BAVgxgP3rsNjOfEQY=,695,quiznos,fast_food,sandwich,yes,1163 Pinetree Way,Coquitlam,BC,V3B 8A9,CA,Henderson Place,(604) 945-5777,https://delivery.quiznos.com/?store_id=6610,Quizno's,Q1936229,quiznos-658eea
-80.327388,43.4031797,lKKnElq67pQQYT0gGrmH9padtsA=,3410,quiznos,fast_food,sandwich,yes,580 Hespeler Rd,Cambridge,ON,N1R 6J8,CA,Hespeler Road,(519) 624-7622,https://delivery.quiznos.com/?store_id=6679,Quizno's,Q1936229,quiznos-658eea
-98.00863,43.69045,8u3MmcZXAbVUaaVexM3ce0_riO0=,3623,quiznos,fast_food,sandwich,yes,2100 Highland Way,Mitchell,SD,57301,US,Highland Mall,(605) 995-1010,https://delivery.quiznos.com/?store_id=6342,Quizno's,Q1936229,quiznos-658eea
-99.962194,49.8877979,ye2lZudEJUfaCz-OURssw9hD3mI=,8085,quiznos,fast_food,sandwich,yes,1815 Middleton Ave,Brandon,MB,R7C 1A7,CA,Highway 1 Esso,,https://delivery.quiznos.com/?store_id=6754,Quizno's,Q1936229,quiznos-658eea
-122.7995533,49.1045001,yNtZdvca9QBnv9dbAUS51unqz4k=,7266,quiznos,fast_food,sandwich,yes,101-15335 Hwy 10,Surrey,BC,V3S 0X9,CA,Highway 10 and 152nd Street,,https://delivery.quiznos.com/?store_id=6746,Quizno's,Q1936229,quiznos-658eea
-157.92163,21.33311,xcLnYnatXMjvP9YkyKEBU4xeTGw=,11907,quiznos,fast_food,sandwich,yes,"HMS Host, Honolulu International Airport",Honolulu,HI,96819,US,Honolulu International Airport,,,Quizno's,Q1936229,quiznos-658eea
-113.85072,54.15461,QcA3Rl_nq1QZhm-MFTjSO_1UYW0=,14919,quiznos,fast_food,sandwich,yes,10208 104 Avenue,Westlock,AB,T7P 2H6,CA,Husky-Westlock,,https://delivery.quiznos.com/?store_id=6935,Quizno's,Q1936229,quiznos-658eea
-91.11431,42.47195,RBm9w3CKOCQBuM0oC9OFjUgerjg=,4063,quiznos,fast_food,sandwich,yes,1426 9th St SE,Dyersville,IA,52040,US,Hwy 136 - 9th Street,(608) 326-7849,https://delivery.quiznos.com/?store_id=6362,Quizno's,Q1936229,quiznos-658eea
-110.05804,53.27749,JwVYG0vqgw58fNnKgopMda9uhP0=,12379,quiznos,fast_food,sandwich,yes,7701 44th St. #102,Loydminster,AB,T9X 0X9,CA,Hwy 16/75th Avenue,,https://delivery.quiznos.com/?store_id=6799,Quizno's,Q1936229,quiznos-658eea
-82.47825,27.49289,t0OONr3jAIM7dhOKa7DH8wPzH7k=,15080,quiznos,fast_food,sandwich,yes,575 66th Street Court East,Bradenton,FL,34208,US,Hwy 64 and 66th St Ct East,,,Quizno's,Q1936229,quiznos-658eea
-119.61352,49.49559,Xd7mbkzpnoLx7DX0vtJ8O3oZu5o=,15061,quiznos,fast_food,sandwich,yes,1090 Westminster Ave W,Penticton,BC,V2A 1L5,CA,Hwy 97 & Westminster,,https://delivery.quiznos.com/?store_id=11589,Quizno's,Q1936229,quiznos-658eea
-105.00622,39.780934,xMtWhoFFZHwSBbaxoTds5y37FOo=,11308,quiznos,fast_food,sandwich,yes,4640 Pecos St Unit A,Denver,CO,80211,US,Interstate 70 and Pecos Street,,https://delivery.quiznos.com/?store_id=6493,Quizno's,Q1936229,quiznos-658eea
-122.2742901,47.4858091,UhqCll0b2ZTM1fN4rL8XP7VYGLM=,7186,quiznos,fast_food,sandwich,yes,13038 Interurban Ave S Ste 140,Tukwila,WA,98168,US,Interurban Retail Center,,https://delivery.quiznos.com/?store_id=6445,Quizno's,Q1936229,quiznos-658eea
-123.0954851,49.1320664,l4wHD-_AauBTK0B3OsDMouIJ6bQ=,509,quiznos,fast_food,sandwich,yes,11666 Steveston Hwy,Richmond,BC,V7A 5J3,CA,Ironwood,(604) 272-5072,https://delivery.quiznos.com/?store_id=6601,Quizno's,Q1936229,quiznos-658eea
-110.80653,43.46479,_eoG7uUYWNOZTdnJ2vgknhOdacY=,7124,quiznos,fast_food,sandwich,yes,1325 S Highway 89,Jackson Hole,WY,83001,US,Jackson Hole,(307) 733-0201,https://delivery.quiznos.com/?store_id=6442,Quizno's,Q1936229,quiznos-658eea
-93.25742,37.14207,tzwXoXPsVNrl5JKWMUbHnYdLZb0=,537,quiznos,fast_food,sandwich,yes,2043 E Independence St,Springfield,MO,65804,US,James Town Center,(417) 877-0606,https://delivery.quiznos.com/?store_id=6206,Quizno's,Q1936229,quiznos-658eea
-90.53831,29.67247,X6iVwVrQ5x-nxid-bcz5v9FRPZs=,8814,quiznos,fast_food,sandwich,yes,5375 Highway 308,Mathews,LA,70375,US,Jester's Court Too Truck Stop - Highway 308,,https://delivery.quiznos.com/?store_id=6463,Quizno's,Q1936229,quiznos-658eea
-103.15197,32.74012,0Y18HjutZdd-Ty0Zis_cKOwPUGA=,5071,quiznos,fast_food,sandwich,yes,1323 W Joe Harvey Blvd,Hobbs,NM,88240,US,Joe Harvey Boulevard and Cam Real,(505) 492-9961,https://delivery.quiznos.com/?store_id=6392,Quizno's,Q1936229,quiznos-658eea
-122.80203,54.0046,oghKOd83YuKVWDmkkZ0TWqmV6u8=,14902,quiznos,fast_food,sandwich,yes,8087 John Hart Highway,Prince George,BC,V2K 3B8,CA,John Hart Highway,,,Quizno's,Q1936229,quiznos-658eea
-96.8899027,32.9739032,Nl_RzhyQi_JKas60HKZi2noCNf8=,1529,quiznos,fast_food,sandwich,yes,2150 N Josey Ln Ste 122,Carrollton,TX,75006,US,Keller/Josey,(972) 446-2852,https://delivery.quiznos.com/?store_id=6250,Quizno's,Q1936229,quiznos-658eea
-97.1986387,49.8234968,DKr_2c0Jbfdyo2EvS0WzclhF0GU=,2768,quiznos,fast_food,sandwich,yes,7-1639 Kenaston Blvd,Winnipeg,MB,R3P 2M4,CA,Kenaston Boulevard,(204) 956-3290,https://delivery.quiznos.com/?store_id=6664,Quizno's,Q1936229,quiznos-658eea
-76.5152368,44.2424283,BSU1xQ-T673wwJ2-hkeJU4NdCGU=,9019,quiznos,fast_food,sandwich,yes,1046 Princess St Unit 6C,Kingston,ON,K7L 1H2,CA,Kingston Centre,,https://delivery.quiznos.com/?store_id=6767,Quizno's,Q1936229,quiznos-658eea
-113.5212386,53.5661945,xkuztv93VHDxVKowYcUEY8bg4JY=,7874,quiznos,fast_food,sandwich,yes,11621 Kingsway NW,Edmonton,AB,T5G 3E8,CA,Kingsway Avenue and 114th Street,,https://delivery.quiznos.com/?store_id=6751,Quizno's,Q1936229,quiznos-658eea
-80.9390589,46.5224952,m6Ap3tV4SgKLL7TKC1_MMpwwrdg=,4487,quiznos,fast_food,sandwich,yes,E-1560 Lasalle Blvd,Sudbury,ON,P3A 1Z7,CA,La Salle,(705) 675-7782,https://delivery.quiznos.com/?store_id=6701,Quizno's,Q1936229,quiznos-658eea
-94.96222,32.9917,RfX4Zduqtj8J0LckSQgzA0-ed44=,15113,quiznos,fast_food,sandwich,yes,310 S Greer Blvd.,Pittsburg,TX,75686,US,Lafayette St & Highland Ave.,,,Quizno's,Q1936229,quiznos-658eea
-89.09904,30.43674,3KusN7t5EO733n-rLEltahw8N8k=,15033,quiznos,fast_food,sandwich,yes,"15520 Daniel Blvd, Suite G",Gulfport,MS,39503,US,Landon Rd & US Hwy 49,,https://delivery.quiznos.com/?store_id=11492,Quizno's,Q1936229,quiznos-658eea
-122.668076,49.1144701,WPAKTjjFdTn0oxmeKIzwBFZi5us=,473,quiznos,fast_food,sandwich,yes,A-20055 Langley Bypass,Langley,BC,V3A 8R6,CA,Langley,(604) 530-9911,https://delivery.quiznos.com/?store_id=6600,Quizno's,Q1936229,quiznos-658eea
-83.1031849,42.229937,QHHC1c_0iga0npxZAoZhMHbQmPY=,14602,quiznos,fast_food,sandwich,yes,1915 Front Rd,LaSalle,ON,N9J 2B8,CA,LaSalle Petro Canada,,,Quizno's,Q1936229,quiznos-658eea
-82.5992629,42.0593312,gxTQFLvzjHjIQ9sBlQ_zW0fKwbE=,14366,quiznos,fast_food,sandwich,yes,160 Erie St N,Leamington,ON,N8H 1A3,CA,Leamington Petro Canada,,https://delivery.quiznos.com/?store_id=6825,Quizno's,Q1936229,quiznos-658eea
-89.61073,39.72145,psjwtHPGNW-FKyMCfXNVOgUMc0I=,15022,quiznos,fast_food,sandwich,yes,5250 Shepherd Road,Springfield,IL,62794,US,Lincoln Land Community College,,https://delivery.quiznos.com/?store_id=10551,Quizno's,Q1936229,quiznos-658eea
-76.5762762,39.3850349,HWSj7cy75MeeTeXPf9vLd-xlynk=,2832,quiznos,fast_food,sandwich,yes,1006 Taylor Avenue,Towson,MD,21286,US,Loch Raven,(443) 279-0587,https://delivery.quiznos.com/?store_id=6307,Quizno's,Q1936229,quiznos-658eea
-114.08264,46.74712,Aoh6Ge_2HQXRJv5dbRK2W8h4sos=,12890,quiznos,fast_food,sandwich,yes,12011 US Highway 93 S,Lolo,MT,59847,US,Lolo Super Stop - Highway 93 South,,,Quizno's,Q1936229,quiznos-658eea
-118.2416579,34.0524188,3wZIeWBSn92yi_tOh3IvqO2WTZ0=,6068,quiznos,fast_food,sandwich,yes,201 N Los Angeles St Ste 22,Los Angeles,CA,90012,US,Los Angeles City Mall,(213) 995-3100,,Quizno's,Q1936229,quiznos-658eea
-121.29,37.81,NRrjLIz4djglnJo8ccqHtSk3pOA=,8305,quiznos,fast_food,sandwich,yes,209 E Louise Ave,Lathrop,CA,95330,US,Louise Plaza,,https://delivery.quiznos.com/?store_id=6457,Quizno's,Q1936229,quiznos-658eea
-113.424344,53.6006209,cshcFPyLQB601GXtCM2h3WmpGi4=,1604,quiznos,fast_food,sandwich,yes,184 Manning Crossing NW,Edmonton,AB,T5A 5A1,CA,Manning Crossing,(780) 472-7841,https://delivery.quiznos.com/?store_id=6640,Quizno's,Q1936229,quiznos-658eea
-83.5022374,42.5336796,poe4T77L7brY20x8fEpdfq458xw=,14973,quiznos,fast_food,sandwich,yes,760 Benstein Road,Commerce Township,MI,48390,US,Maple and Benstein,,https://delivery.quiznos.com/?store_id=10066,Quizno's,Q1936229,quiznos-658eea
-84.3905023,33.7550344,KW-FAikmYWBF576z9dA6daNlcsU=,4562,quiznos,fast_food,sandwich,yes,29 Marietta St NW,Atlanta,GA,30303,US,Marietta Street,(404) 589-8025,https://delivery.quiznos.com/?store_id=6380,Quizno's,Q1936229,quiznos-658eea
-104.6173008,50.4810917,4GvUzDtEQN6QIFNyMHmey27v5o4=,12642,quiznos,fast_food,sandwich,yes,305 Albert St,Regina,SK,S4R 2P6,CA,Market Mall,,https://delivery.quiznos.com/?store_id=6804,Quizno's,Q1936229,quiznos-658eea
-123.0702138,49.1793782,ES488BOt82ovy9Wwt1SQMIra130=,8765,quiznos,fast_food,sandwich,yes,105-13988 Maycrest Way,Richmond,BC,V6V 2J4,CA,Maycrest Way,,https://delivery.quiznos.com/?store_id=6763,Quizno's,Q1936229,quiznos-658eea
-83.98703,35.805518,FUEdHUHTrUrLsn_FOXdOZE0ON-0=,12750,quiznos,fast_food,sandwich,yes,2055 Alcoa Highway,Alcoa,TN,37701,US,Mc Ghee Tyson Airport,,,Quizno's,Q1936229,quiznos-658eea
-115.14958,36.08484,rhZZwDKnD-13b8jdrX_gEYCzJL8=,1344,quiznos,fast_food,sandwich,yes,5757 Wayne Newton BLvd,Las Vegas,NV,89119,US,McCarran International Airport,(702) 261-7330,,Quizno's,Q1936229,quiznos-658eea
-119.4054165,49.9029574,gwfeAp5eahU3k4RpRfs5dVlL4Lk=,857,quiznos,fast_food,sandwich,yes,948 McCurdy Rd,Kelowna,BC,V1X 2P7,CA,McCurdy Corner,(250) 492-3243,https://delivery.quiznos.com/?store_id=6617,Quizno's,Q1936229,quiznos-658eea
-119.7183684,36.7650256,vSGyUGBSNtDw-H0skns2QvV6aHk=,6739,quiznos,fast_food,sandwich,yes,1595 N Peach Ave Ste 101,Fresno,CA,93727,US,McKinley and Peach,,https://delivery.quiznos.com/?store_id=6435,Quizno's,Q1936229,quiznos-658eea
-80.2747,25.7929,uymcF1rnePlsJIIUgTyqoPQ_ZIw=,8109,quiznos,fast_food,sandwich,yes,4250 NW 20th St,Miami,FL,33122,US,Miami Int'l Airport - Concourse H,,,Quizno's,Q1936229,quiznos-658eea
-95.8649038,36.0607713,Iivpqdf3gYdikPCYGSJu6JN-0zM=,865,quiznos,fast_food,sandwich,yes,10031 E 71st St Ste F,Tulsa,OK,74133,US,Mingo Marketplace,(918) 459-7966,https://delivery.quiznos.com/?store_id=6224,Quizno's,Q1936229,quiznos-658eea
-122.3190858,49.1310442,MeyQccBtGwwzMHnRVb0opX2e6OA=,691,quiznos,fast_food,sandwich,yes,32555 London Ave,Mission,BC,V2V 6M7,CA,Mission Shoping,(604) 820-9792,https://delivery.quiznos.com/?store_id=6609,Quizno's,Q1936229,quiznos-658eea
-120.88014,37.52187,ckG1kfky4sb0oNaOkm591m13ueQ=,1764,quiznos,fast_food,sandwich,yes,2868 W Monte Vista Ave,Turlock,CA,95380,US,Monte Vista Crossings,(209) 668-2858,https://delivery.quiznos.com/?store_id=6259,Quizno's,Q1936229,quiznos-658eea
-86.53611,34.79374,n9ueZGI9kNwvuVBfIc8j-e4t5Xo=,3709,quiznos,fast_food,sandwich,yes,5095 A Moores Mill Rd,Huntsville,AL,35811,US,Moores Mill,(256) 852-7676,https://delivery.quiznos.com/?store_id=7161,Quizno's,Q1936229,quiznos-658eea
-105.5302399,50.4127516,f45IZQqBCTMektGPRHEJAaxpwWU=,8044,quiznos,fast_food,sandwich,yes,121 Thatcher Dr W,Moose Jaw,SK,S6J 1M3,CA,Moose Jaw,,https://delivery.quiznos.com/?store_id=6753,Quizno's,Q1936229,quiznos-658eea
-122.380692,49.06088,0WR-6Xg7SUkeFzfs1aoEN-9QGcQ=,1806,quiznos,fast_food,sandwich,yes,101-3220 Mt Lehman Rd,Abbotsford,BC,V4X 2M9,CA,Mount Lehman Center,(604) 607-7269,https://delivery.quiznos.com/?store_id=6643,Quizno's,Q1936229,quiznos-658eea
-118.96583,35.39262,UpdYZhEnAnmVda9bwqv2zIVUi94=,14988,quiznos,fast_food,sandwich,yes,"2625 Mount Vernon Ave, Ste 105",Bakersfield,CA,93306,US,Mount Vernon Ave,,https://delivery.quiznos.com/?store_id=10041,Quizno's,Q1936229,quiznos-658eea
-88.02191,42.27735,zwi6ffgY_mDa9zeeqFtcKBxLOg8=,2392,quiznos,fast_food,sandwich,yes,1156 W Maple Ave,Mundelein,IL,60060,US,Mundelein,(847) 837-0500,https://delivery.quiznos.com/?store_id=6287,Quizno's,Q1936229,quiznos-658eea
-122.6073055,49.0896917,DdboFLSRAzHN9GxiurLxaaTEvNg=,859,quiznos,fast_food,sandwich,yes,103-22259 48 Ave,Langley,BC,V3A 3N4,CA,Murrayville,(604) 530-6606,https://delivery.quiznos.com/?store_id=6618,Quizno's,Q1936229,quiznos-658eea
-87.92532,43.32161,r0Cu6R_s9LYDr9dBr0QMnkSstL4=,12721,quiznos,fast_food,sandwich,yes,1231 N Port Washington Rd,Grafton,WI,53024,US,N Port Washington Road and Washington Street,,https://delivery.quiznos.com/?store_id=6514,Quizno's,Q1936229,quiznos-658eea
-111.92978,40.84927,BGfYZIkugO2Xv7X-IxSsLnumFUI=,12175,quiznos,fast_food,sandwich,yes,420 N Redwood Rd Unit A,North Salt Lake,UT,84054,US,N Redwood Road and Cambridge Drive,,https://delivery.quiznos.com/?store_id=6987,Quizno's,Q1936229,quiznos-658eea
-95.16263,29.81153,LC8Vw2henqe4HZxLy0_D-pO3nGU=,13570,quiznos,fast_food,sandwich,yes,5805 E Sam Houston Pkwy N Ste H,Houston,TX,77049,US,New Forest Crossing,,https://delivery.quiznos.com/?store_id=6537,Quizno's,Q1936229,quiznos-658eea
-113.5413023,53.335197,bIpms4rezbQ9AnFukQ_8AGfxkgg=,14677,quiznos,fast_food,sandwich,yes,205 19 Avenue,Nisku,AB,T9E 0W8,CA,New Nisku Park,,https://delivery.quiznos.com/?store_id=6831,Quizno's,Q1936229,quiznos-658eea
-104.928587,40.479577,P0nWrbhIDTBVPXnU216RlPUO7Sk=,5437,quiznos,fast_food,sandwich,yes,1550 Main St,Windsor,CO,80550,US,New Windsor Marketplace,(970) 674-3377,https://delivery.quiznos.com/?store_id=6403,Quizno's,Q1936229,quiznos-658eea
-123.1120315,49.3238672,ypaUOEwB8TRbeYma6X26HLsHq4c=,13888,quiznos,fast_food,sandwich,yes,1303 Marine Dr,North Vancouver,BC,V7P 3E5,CA,Norgate Mall,,https://delivery.quiznos.com/?store_id=6822,Quizno's,Q1936229,quiznos-658eea
-88.1282742,42.154253,R8bH87u-MjDvfksvNhQPPE9mhxA=,12007,quiznos,fast_food,sandwich,yes,115 N Northwest Hwy,Barrington,IL,60010,US,Northwest Highway,,https://delivery.quiznos.com/?store_id=6501,Quizno's,Q1936229,quiznos-658eea
-123.01216,46.79793,QpmW3_lqUjArwBoE6p6LJJBjj_I=,11744,quiznos,fast_food,sandwich,yes,19810 Old Highway 99 SW,Rochester,WA,98579,US,Old Highway 99 and 198th Ave SW,,https://delivery.quiznos.com/?store_id=6495,Quizno's,Q1936229,quiznos-658eea
-102.6191368,38.0880961,vEl2egk9YViBGYSlI9k18vxRBAs=,560,quiznos,fast_food,sandwich,yes,113 E Olive St,Lamar,CO,81052,US,Olive,(719) 336-3040,https://delivery.quiznos.com/?store_id=6209,Quizno's,Q1936229,quiznos-658eea
-122.551095,45.67794,xKRzjXIKvh48b1nw-kvCnX1fjQM=,3697,quiznos,fast_food,sandwich,yes,7620 NE 119th Pl Unit 102,Vancouver,WA,98682,US,Orchards Green Plaza,(360) 944-0906,https://delivery.quiznos.com/?store_id=6349,Quizno's,Q1936229,quiznos-658eea
-78.8690935,43.9335677,EZ_nxLviGVkeDNR6_N-hbvCV8EU=,3204,quiznos,fast_food,sandwich,yes,3-1288 Ritson Rd N,Oshawa,ON,L1G 8B2,CA,Oshawa,(905) 435-4735,https://delivery.quiznos.com/?store_id=6674,Quizno's,Q1936229,quiznos-658eea
-122.8783352,49.202728,WALL7M1_tNj_IAJjxOU1REXFEq8=,7277,quiznos,fast_food,sandwich,yes,102-10355 120th St,Surrey,BC,V3V 0C1,CA,Pacific Link,,https://delivery.quiznos.com/?store_id=6747,Quizno's,Q1936229,quiznos-658eea
-122.7607,53.9104,EiIq7DSefbhDmxkEd_G1BSmECDI=,944,quiznos,fast_food,sandwich,yes,1600 15th Ave,Prince George,BC,V2L 3X3,CA,Parkwood Place,(250) 564-7793,https://delivery.quiznos.com/?store_id=6641,Quizno's,Q1936229,quiznos-658eea
-86.77384,36.156,nBsPjv8KcLC06YFUzKoaYoZbaro=,11962,quiznos,fast_food,sandwich,yes,319 Peabody St,Nashville,TN,37210,US,Peabody Corner Marketplace,,https://delivery.quiznos.com/?store_id=6500,Quizno's,Q1936229,quiznos-658eea
-72.9667765,45.6364445,UZabPmvw0vE3q0krwohKuC1pee8=,9850,quiznos,fast_food,sandwich,yes,3054 boul Laframboise,Saint-Hyacinthe,QC,J2S 4Z4,CA,Place Saint-Hyacinthe,,https://delivery.quiznos.com/?store_id=6775,Quizno's,Q1936229,quiznos-658eea
-122.0842084,37.6787469,076G8Vh2fRbgRHeXIQlwbXZtbGQ=,3253,quiznos,fast_food,sandwich,yes,22312 Foothill Blvd,Hayward,CA,94541,US,Plaza Center,(510) 733-5881,https://delivery.quiznos.com/?store_id=6324,Quizno's,Q1936229,quiznos-658eea
-83.4002278,42.3677445,N7WKgy8jC2FVUZY2knUobhK10J0=,13787,quiznos,fast_food,sandwich,yes,36171 Plymouth Rd,Livonia,MI,48150,US,Plymouth Road,,https://delivery.quiznos.com/?store_id=6542,Quizno's,Q1936229,quiznos-658eea
-122.2670084,49.0242628,a5MugfF-CN79a1HEhNd-PN5AhM0=,672,quiznos,fast_food,sandwich,yes,1201 Sumas Way,Abbotsford,BC,V2S 8H2,CA,Power Centre,(604) 864-6002,https://delivery.quiznos.com/?store_id=6603,Quizno's,Q1936229,quiznos-658eea
-104.7729,39.9576,mJc6pH-oMXeUcD8D8C4C4ZAa-JQ=,11584,quiznos,fast_food,sandwich,yes,2237 Prairie Center Pkwy Ste E,Brighton,CO,80601,US,Prairie Center,,https://delivery.quiznos.com/?store_id=6494,Quizno's,Q1936229,quiznos-658eea
-104.536668,50.4447807,GMPlrrO3ijs5AhZJkKQSQojCgc8=,4484,quiznos,fast_food,sandwich,yes,63-2118 Prince of Wales Dr,Regina,SK,S4V 3A6,CA,Quance Street,(306) 757-2180,https://delivery.quiznos.com/?store_id=6698,Quizno's,Q1936229,quiznos-658eea
-73.43538,45.4446,AD6riFXEZLRNhEgg3Pcb-40AHGU=,8774,quiznos,fast_food,sandwich,yes,10-9380 Boul. Leduc,Brossard,QC,J4Y 0B3,CA,Quartier DIX30,,https://delivery.quiznos.com/?store_id=6764,Quizno's,Q1936229,quiznos-658eea
-122.4966416,52.979507,xzR5Y4d62nIoaPtXWvTvVk9qwZ8=,2600,quiznos,fast_food,sandwich,yes,426 Reid St,Quesnel,BC,V2J 2M6,CA,Quesnel,(250) 992-1140,https://delivery.quiznos.com/?store_id=6655,Quizno's,Q1936229,quiznos-658eea
-103.15585,32.75471,wA_1W8rco3EELLYB4OW_7UJGPtY=,15110,quiznos,fast_food,sandwich,yes,1615 Millen Dr.,Hobbs,NM,88240,US,Quiznos Deli & Eatery Hobbs,,https://delivery.quiznos.com/?store_id=12440,Quizno's,Q1936229,quiznos-658eea
-115.1726608,36.1607079,zO6mcO9xQPj-az2B5rcHqqW1feU=,1062,quiznos,fast_food,sandwich,yes,901 S Rancho Dr,Las Vegas,NV,89106,US,Rancho Plaza,(702) 384-1911,https://delivery.quiznos.com/?store_id=6229,Quizno's,Q1936229,quiznos-658eea
-113.8153479,52.2941453,3wHj2IUIpBSeSbTw7eePW-O_Cy0=,5428,quiznos,fast_food,sandwich,yes,2-6842 50 Ave N,Red Deer,AB,T4N 4E3,CA,Red Deer,(403) 340-3346,https://delivery.quiznos.com/?store_id=6723,Quizno's,Q1936229,quiznos-658eea
-97.02909,49.89544,g_t-Qj02kOYVC9AFDSikq05aV7Y=,9855,quiznos,fast_food,sandwich,yes,300 - 855 Regent Ave W,Winnipeg,MB,R2C 0R1,CA,Regent,,https://delivery.quiznos.com/?store_id=6776,Quizno's,Q1936229,quiznos-658eea
-76.9799,38.804636,3YzAm_2PM5cmjiMevqEf5FKvQno=,2646,quiznos,fast_food,sandwich,yes,6215 Oxon Hill Rd,Oxon Hill,MD,20745,US,Rivertown Commons,(301) 839-0920,https://delivery.quiznos.com/?store_id=7178,Quizno's,Q1936229,quiznos-658eea
-109.24942,41.57736,53SXdYJYemyjKvOxmGqGk2K6-ow=,4590,quiznos,fast_food,sandwich,yes,101 Gateway Blvd Ste A,Rock Springs,WY,82901,US,Rock Springs,,https://delivery.quiznos.com/?store_id=6381,Quizno's,Q1936229,quiznos-658eea
-93.40806,45.0351,tkM4knwIQtjGeELQspxKPx4eRNg=,3031,quiznos,fast_food,sandwich,yes,4406 Nathan Ln N,Plymouth,MN,55442,US,Rockford Square,(763) 559-8100,https://delivery.quiznos.com/?store_id=6971,Quizno's,Q1936229,quiznos-658eea
-113.4435616,53.4927512,ihMzj8PSo5Lh-LAsj-pn1eRRgwk=,4796,quiznos,fast_food,sandwich,yes,5670 75 St NW,Edmonton,AB,T6E 5X6,CA,Roper and 75th Street,,https://delivery.quiznos.com/?store_id=6711,Quizno's,Q1936229,quiznos-658eea
-112.0310701,33.6776274,0Hq4um1uHaRidKZGC07mXuSzV2o=,13066,quiznos,fast_food,sandwich,yes,21043 N Cave Creek Rd Ste A2,Phoenix,AZ,85024,US,Rose Garden Plaza,,https://delivery.quiznos.com/?store_id=6523,Quizno's,Q1936229,quiznos-658eea
-76.73479,39.20145,eFdmfOG9SkpnkCV4LawTpdGeMy0=,6198,quiznos,fast_food,sandwich,yes,6500 Washington Blvd,Elkridge,MD,21075,US,Rowanberry Center,,https://delivery.quiznos.com/?store_id=6421,Quizno's,Q1936229,quiznos-658eea
-79.5236116,43.8328512,pdvIcFQSwUnA9uEECK9v2GfVGR4=,4830,quiznos,fast_food,sandwich,yes,B6-2701 Rutherford Rd,Concord,ON,L4K 2N6,CA,Rutherford Road and Creditstone,(905) 417-7005,,Quizno's,Q1936229,quiznos-658eea
-77.55212,36.70353,PAMfyp_RRcSJBbyeVwDYEUpCg5M=,7092,quiznos,fast_food,sandwich,yes,932 W Atlantic St,Emporia,VA,23847,US,Sadler Texaco - Atlantic Street,(434) 348-7827,https://delivery.quiznos.com/?store_id=6978,Quizno's,Q1936229,quiznos-658eea
-78.57059,35.32164,LT_cn8XHSOxCYHrYjyLUnSDql9U=,7938,quiznos,fast_food,sandwich,yes,65 Sadler Rd,Dunn,NC,28334,US,Sadler's Travel Plaza,,https://delivery.quiznos.com/?store_id=6453,Quizno's,Q1936229,quiznos-658eea
-122.628695,47.62784,Motv1Ystlre7EVRwONJPqnBT904=,3122,quiznos,fast_food,sandwich,yes,7058 State Highway 303 NE Ste B,Bremerton,WA,98311,US,Saint Charles Place,(360) 698-7210,https://delivery.quiznos.com/?store_id=6320,Quizno's,Q1936229,quiznos-658eea
-73.4101632,45.495813,gsRCTjlhUP1lvSfGlBson8H4P1E=,8953,quiznos,fast_food,sandwich,yes,5960 Cousineau Blvd,Saint Hubert,QC,J3Y 7R9,CA,Saint Hubert,,https://delivery.quiznos.com/?store_id=6766,Quizno's,Q1936229,quiznos-658eea
-97.201008,49.8953231,GaiQepWhfkomN9SUBNkqvqwEQ7Q=,2758,quiznos,fast_food,sandwich,yes,1038 St James St,Winnipeg,MB,R3H 0K5,CA,Saint James,(204) 788-4004,,Quizno's,Q1936229,quiznos-658eea
-92.4701998,35.0923162,WZ-d03UyXDsXH9cAXLOi6ST-NFU=,5161,quiznos,fast_food,sandwich,yes,2850 Prince St Ste 9,Conway,AR,72034,US,Salem Place Center,(501) 329-7827,https://delivery.quiznos.com/?store_id=6396,Quizno's,Q1936229,quiznos-658eea
-66.10625,18.362,WLAZf5TYSohzqD_kKcfjAn2uXzQ=,14889,quiznos,fast_food,sandwich,yes,San Patricio Av - Carrmen Gonzales Goisti Av,Guaynabo,PR,968,PR,San Patricio Plaza,,,Quizno's,Q1936229,quiznos-658eea
-87.118764,41.187637,omJf4S112eeb8FfpzCje-YcV5XY=,8425,quiznos,fast_food,sandwich,yes,3840 W State Road 10,Wheatfield,IN,46392,US,School Crossing Market Place,,https://delivery.quiznos.com/?store_id=6459,Quizno's,Q1936229,quiznos-658eea
-93.22296,37.07005,67HhTYzDyLB5Wrfj7yB_7JXVSag=,13092,quiznos,fast_food,sandwich,yes,1690 W State Highway J,Ozark,MO,65721,US,Scrivener Oil - Ozark,,https://delivery.quiznos.com/?store_id=6526,Quizno's,Q1936229,quiznos-658eea
-122.7761743,49.2656429,pjg-ZQSX3j9e8SR0W5w0yE328ZU=,6249,quiznos,fast_food,sandwich,yes,2850 Shaughnessy St,Port Coquitlam,BC,V3C 6K5,CA,Shaughnessy Station Mall,(604) 552-2244,https://delivery.quiznos.com/?store_id=6734,Quizno's,Q1936229,quiznos-658eea
-114.0668171,50.9050314,eWdmUWJ5f0WacTpKiDOFekiJ_-U=,888,quiznos,fast_food,sandwich,yes,85 Shawville Blvd SE,Calgary,AB,T2Y 3W5,CA,Shawnessy,(403) 201-8800,https://delivery.quiznos.com/?store_id=6626,Quizno's,Q1936229,quiznos-658eea
-78.153999,36.60169,p5Eps0-V6v0aYBsH_kA-i3OQTmc=,7729,quiznos,fast_food,sandwich,yes,2883 Highway 903,Bracey,VA,23919,US,Shell Station - Highway 9,(434) 689-5000,https://delivery.quiznos.com/?store_id=7168,Quizno's,Q1936229,quiznos-658eea
-93.18505,45.1239,F-6ZYu_RWNVZADfSwFJstapHCOs=,2805,quiznos,fast_food,sandwich,yes,5999 Rice Creek Pkwy Ste 106,Shoreview,MN,55126,US,Shoreview,(651) 784-7931,https://delivery.quiznos.com/?store_id=6305,Quizno's,Q1936229,quiznos-658eea
-105.48939,44.27659,bsBmkkfu-8L2tFU8V72F2jj95fI=,11778,quiznos,fast_food,sandwich,yes,1103 E Boxelder Road,Gillette,WY,82718,US,Silverado Center,,https://delivery.quiznos.com/?store_id=6496,Quizno's,Q1936229,quiznos-658eea
-93.76703,41.55915,FuQfi-KA4E3sxSDFhTUnNM_u8kA=,3696,quiznos,fast_food,sandwich,yes,4800 Mills Civic Pkwy Ste 103,West Des Moines,IA,50265,US,Somerfield Village Center,(515) 222-1213,https://delivery.quiznos.com/?store_id=6933,Quizno's,Q1936229,quiznos-658eea
-104.98871,39.56966,7U-vdZuFhDqQW2H2enm8ZQB4CVY=,23,quiznos,fast_food,sandwich,yes,8053 S Broadway,Littleton,CO,80122,US,South Broadway Car Care Center,(303) 795-1500,https://delivery.quiznos.com/?store_id=6187,Quizno's,Q1936229,quiznos-658eea
-113.9667846,50.9293479,nVlUqKJ2zXvcGSPdltFLHMCilNE=,4616,quiznos,fast_food,sandwich,yes,4705 130 Ave SE,Calgary,AB,T2Z 4J2,CA,South Deerfoot Center,(403) 257-4712,https://delivery.quiznos.com/?store_id=6704,Quizno's,Q1936229,quiznos-658eea
-113.4836573,53.4487736,jbIeOXJNvTFN5vngSgZBZjy-yh8=,2203,quiznos,fast_food,sandwich,yes,1931 98 St NW,Edmonton,AB,T6N 1L5,CA,South Edmonton Common,(780) 450-5700,https://delivery.quiznos.com/?store_id=6650,Quizno's,Q1936229,quiznos-658eea
-111.7211572,33.3938704,JLhwSJVru4X8HR0vkJUI4HSYEyI=,3607,quiznos,fast_food,sandwich,yes,5110 E Southern Ave Ste 112,Mesa,AZ,85206,US,Southern Promenade,(480) 832-1604,https://delivery.quiznos.com/?store_id=6340,Quizno's,Q1936229,quiznos-658eea
-97.76527,31.05694,EamSF6zMut8mGB3-IaV42xhgMTw=,14928,quiznos,fast_food,sandwich,yes,10640 South Fort Hood,Killeen,TX,76542,US,Splawn Ranch Town Center,,,Quizno's,Q1936229,quiznos-658eea
-117.507072,47.641063,Ff7DuNOso4BIF5kT0ZnofNRtkV0=,10822,quiznos,fast_food,sandwich,yes,9000 W Airport Dr Ste 401,Spokane,WA,99224,US,Spokane Int'l Airport- Rotunda Food Court,,,Quizno's,Q1936229,quiznos-658eea
-113.9330188,53.5420935,iNuBmR0dZVb7RUyvT9jwRqPkfcc=,2757,quiznos,fast_food,sandwich,yes,38-100 Jennifer Heil Way,Spruce Grove,AB,T7X 4B8,CA,Spruce Grove,(780) 962-7849,https://delivery.quiznos.com/?store_id=6661,Quizno's,Q1936229,quiznos-658eea
-122.7834083,53.9194239,e4U_hC9xE7x8eccuGzSmUj-1sKU=,2489,quiznos,fast_food,sandwich,yes,663 Central St W,Prince George,BC,V2M 3C6,CA,Spruceland,(250) 564-7394,https://delivery.quiznos.com/?store_id=6651,Quizno's,Q1936229,quiznos-658eea
-123.1096561,49.191785,dlEXPrqzjKlsGGqfYCI4MDNUmPo=,673,quiznos,fast_food,sandwich,yes,108-3088 St Edwards Drive,Richmond,BC,V6X 4C4,CA,St. Edwards Crossing,(604) 207-9588,https://delivery.quiznos.com/?store_id=6604,Quizno's,Q1936229,quiznos-658eea
-63.1193559,46.2610227,2O9BZaUAH-nTlGDOKTFYUwcVq3E=,11774,quiznos,fast_food,sandwich,yes,161 St.Peters Road,Charlottetown,PE,C1A 5P7,CA,St. Peters,,https://delivery.quiznos.com/?store_id=6787,Quizno's,Q1936229,quiznos-658eea
-122.2011946,47.9697358,EUJCf_jNxg59ijpZW7xAM162LlY=,7553,quiznos,fast_food,sandwich,yes,3625 Broadway Ste B,Everett,WA,98201,US,Stadium Center,(425) 258-7553,https://delivery.quiznos.com/?store_id=6450,Quizno's,Q1936229,quiznos-658eea
-82.39689,27.43255,br8BTaNGJD-vJDW14ODJtqS2Ckw=,14996,quiznos,fast_food,sandwich,yes,14315 East State Road 70,Lakewood Ranch,FL,34202,US,State Rd 70 & Lorraine Rd,,,Quizno's,Q1936229,quiznos-658eea
-79.939396,43.2278107,dDl6r9JbBuwCJDyxNVA6VfmUxpY=,3895,quiznos,fast_food,sandwich,yes,1100 Golf Links Rd,Ancaster,ON,L9K 1J8,CA,Stone Church and Golf Links Road,(905) 304-7821,https://delivery.quiznos.com/?store_id=6690,Quizno's,Q1936229,quiznos-658eea
-80.2339154,43.5190366,-yDosRE4zwmoKrKnTLva9bYlxwo=,10106,quiznos,fast_food,sandwich,yes,292 Stone Rd W Unit 3,Guelph,ON,N1G 3C4,CA,Stone Road,,https://delivery.quiznos.com/?store_id=6781,Quizno's,Q1936229,quiznos-658eea
-122.888371,49.134287,GrSqpZIS_1DBb8H0dZh7RyC_cAg=,671,quiznos,fast_food,sandwich,yes,12077 72 Ave,Surrey,BC,V3W 2M1,CA,Strawberry Hills,(604) 502-7000,https://delivery.quiznos.com/?store_id=6602,Quizno's,Q1936229,quiznos-658eea
-90.41462,30.48344,zfvjGePilphtNAdBJ3xYD9GZhY8=,12717,quiznos,fast_food,sandwich,yes,43106 S Airport Rd,Hammond,LA,70403,US,T Truck Plaza,,https://delivery.quiznos.com/?store_id=6513,Quizno's,Q1936229,quiznos-658eea
-92.40027,41.02786,ORemj7YQEjoiHnhivezASaH9OkM=,11790,quiznos,fast_food,sandwich,yes,627 E Pennsylvania Ave,Ottumwa,IA,52501,US,Terrace Hill Plaza Shopping Center,,https://delivery.quiznos.com/?store_id=6497,Quizno's,Q1936229,quiznos-658eea
-119.391,36.33044,iAT5FUyPGXy5u2Nh1j_dyiDk4E0=,12737,quiznos,fast_food,sandwich,yes,202 North Plaza Drive,Visalia,CA,93291,US,The Barn at Plaza Drive,,,Quizno's,Q1936229,quiznos-658eea
-97.8533254,55.7421848,8Kt8Y_60cslYIAWamTjfWCNDqAs=,12481,quiznos,fast_food,sandwich,yes,2/3-50 Selkirk Ave,Thompson,MB,R8N 0M7,CA,Thompson Plaza,,https://delivery.quiznos.com/?store_id=6800,Quizno's,Q1936229,quiznos-658eea
-104.9791969,39.8495941,-tl-xgIn2n0ahdVvu7IZIgVPJOM=,6751,quiznos,fast_food,sandwich,yes,8426 Pearl St,Thornton,CO,80229,US,Thornton Gateway Plaza,,https://delivery.quiznos.com/?store_id=6436,Quizno's,Q1936229,quiznos-658eea
-79.1253237,43.115373,zyo7Vm8LCv0OAIaA5_CjQHsv4mY=,3893,quiznos,fast_food,sandwich,yes,3969 Montrose Rd Ste 7,Niagara Falls,ON,L2H 3A1,CA,Thoro West Plaza,(905) 354-7733,https://delivery.quiznos.com/?store_id=6689,Quizno's,Q1936229,quiznos-658eea
-123.026466,49.136309,wSKSFTsMiqcrjE2gRVRfv7_SfJI=,4479,quiznos,fast_food,sandwich,yes,15-7355 72 St,Delta,BC,V4G 1L5,CA,Tilbury Park,(604) 946-0024,https://delivery.quiznos.com/?store_id=6696,Quizno's,Q1936229,quiznos-658eea
-93.29041,44.68201,qFf6caBspCO7IdXu3lFeTPgdd98=,3996,quiznos,fast_food,sandwich,yes,18440 Kenrick Ave,Lakeville,MN,55044,US,Timbercrest,(952) 435-5900,https://delivery.quiznos.com/?store_id=6356,Quizno's,Q1936229,quiznos-658eea
-95.5584474,29.7736328,e9BQw4VTd7XDyGpKPDz8uAcKnHM=,1043,quiznos,fast_food,sandwich,yes,650 W Bough Ln Ste 130,Houston,TX,77024,US,Town and Country Village,(713) 647-9966,https://delivery.quiznos.com/?store_id=6228,Quizno's,Q1936229,quiznos-658eea
-94.5566,39.14563,xJhByyy1I_sj764N_WOfaGSgMVQ=,6319,quiznos,fast_food,sandwich,yes,2384 Armour Rd,Kansas City,MO,64116,US,Two Ten Center,(816) 436-3900,https://delivery.quiznos.com/?store_id=6991,Quizno's,Q1936229,quiznos-658eea
-97.3120783,49.8846627,txxWi-ITsGfbmAHBkdxpOwOfyt0=,9321,quiznos,fast_food,sandwich,yes,4-3647 Portage Avenue,Winnipeg,MB,R3K 2G6,CA,Unicity Mall,,https://delivery.quiznos.com/?store_id=6771,Quizno's,Q1936229,quiznos-658eea
-92.45415,35.07933,0fFBMOZna6dOtmFZqFzX8sg3FSo=,11239,quiznos,fast_food,sandwich,yes,201 S Donaghey,Conway,AR,72032,US,University of Central Arkansas,,,Quizno's,Q1936229,quiznos-658eea
-75.754401,39.682863,N_mS70qcAADPNJwrRr8D9hgnl0w=,7665,quiznos,fast_food,sandwich,yes,17 W Main St,Newark,DE,19716,US,University of Delaware,(302) 831-0509,,Quizno's,Q1936229,quiznos-658eea
-89.98101,38.78826,uEkYL4T0ngZIAjD26rA3_xq1hDE=,5982,quiznos,fast_food,sandwich,yes,1053 Century Dr,Edwardsville,IL,62025,US,University Pointe,,https://delivery.quiznos.com/?store_id=6416,Quizno's,Q1936229,quiznos-658eea
-79.8821698,43.2275899,5GD0V9gL4gLGYIlkspGUSvt-gkI=,3167,quiznos,fast_food,sandwich,yes,841 Upper James St,Hamilton,ON,L9C 3A3,CA,Upper James and Mohawk,(905) 318-6699,https://delivery.quiznos.com/?store_id=6669,Quizno's,Q1936229,quiznos-658eea
-93.77089,41.64791,_Y9y_V1mQwW1v05aHz7upODJRIs=,1955,quiznos,fast_food,sandwich,yes,11123 Plum Dr,Urbandale,IA,50322,US,Urbandale Marketplace,(515) 309-0591,https://delivery.quiznos.com/?store_id=6266,Quizno's,Q1936229,quiznos-658eea
-98.12843,31.70525,meNikUpxlLhguXAc8shNCJ883vc=,13901,quiznos,fast_food,sandwich,yes,520 W Main St,Hamilton,TX,76531,US,Valero - Main and Price,,https://delivery.quiznos.com/?store_id=6545,Quizno's,Q1936229,quiznos-658eea
-87.02813,41.46887,ubS7jeqsvCx-riPsf_xc5qyi8iE=,2959,quiznos,fast_food,sandwich,yes,2620 Laporte Ave Ste 130,Valparaiso,IN,46383,US,Valparaiso Marketplace,(219) 548-2900,https://delivery.quiznos.com/?store_id=6314,Quizno's,Q1936229,quiznos-658eea
-118.2917631,34.09896,WFD6sBLS3ea1e4ZhxM0b29BztcM=,5608,quiznos,fast_food,sandwich,yes,1528 N Vermont Ave Ste A,Hollywood,CA,90027,US,Vermont Avenue,(323) 805-2200,https://orders.deliverybyquiznos.com/mp/ordernow/store_selection?restid=226,Quizno's,Q1936229,quiznos-658eea
-75.746751,45.2738662,a2zBvHNc2NFixt5AIJCGn6KpzNo=,2752,quiznos,fast_food,sandwich,yes,1581 Greenbank Rd,Ottawa,ON,K2J 4Y6,CA,Village Square,(613) 825-5585,https://delivery.quiznos.com/?store_id=6594,Quizno's,Q1936229,quiznos-658eea
-113.6334203,53.6598601,e0tC1fLY4OinekIfyrkAJ8bFqWk=,5594,quiznos,fast_food,sandwich,yes,260-700 St Albert Rd,Saint Albert,AB,T8N 7A5,CA,Villeneuve,(780) 418-8834,https://delivery.quiznos.com/?store_id=6726,Quizno's,Q1936229,quiznos-658eea
-121.3091542,38.7444347,Rew4HGbRs1zsXhdsJWKHRVPmqpo=,12913,quiznos,fast_food,sandwich,yes,3031 Foothills Blvd Ste 100,Roseville,CA,95747,US,Vineyard Pointe Center,,https://delivery.quiznos.com/?store_id=6519,Quizno's,Q1936229,quiznos-658eea
-93.80825,41.58893,kK29zQp5S__ZWqGL2RBxHRSvFp0=,744,quiznos,fast_food,sandwich,yes,7205 Vista Dr Ste 120,West Des Moines,IA,50266,US,Vista Centre,(515) 267-0328,https://delivery.quiznos.com/?store_id=6219,Quizno's,Q1936229,quiznos-658eea
-97.6481,30.71093,JszgDHhydjl8WrRJZKDuoG8zKUs=,14969,quiznos,fast_food,sandwich,yes,4610 North Interstate 35,Georgetown,TX,78626,US,Walburg Travel Center,,,Quizno's,Q1936229,quiznos-658eea
-122.2518656,47.8497939,8Qh9vasFkqByZh6F1S4xnOH0MW4=,3287,quiznos,fast_food,sandwich,yes,1330 164th St SW Ste 110,Lynnwood,WA,98087,US,Walmart Center,(425) 745-7718,https://delivery.quiznos.com/?store_id=6327,Quizno's,Q1936229,quiznos-658eea
-122.6673167,49.1721032,Na82bGjZYk6G6AfJWQDMMkRbESo=,879,quiznos,fast_food,sandwich,yes,108-9292 200 St,Langley,BC,V1M 3A6,CA,Walnut Grove,(604) 881-2200,https://delivery.quiznos.com/?store_id=6623,Quizno's,Q1936229,quiznos-658eea
-83.4267733,42.2788121,aMZqqHY0Xd_wBA8Dsjha7B4SvYs=,2267,quiznos,fast_food,sandwich,yes,39345 Michigan Ave,Wayne,MI,48184,US,Wayne,(734) 721-5555,https://delivery.quiznos.com/?store_id=6281,Quizno's,Q1936229,quiznos-658eea
-82.00663,28.09863,tAHS2Nm8zaJJtdrr7L8VLzORqVY=,14481,quiznos,fast_food,sandwich,yes,4410 Kathleen Rd,Lakeland,FL,33813,US,Wayne's Amoco,,,Quizno's,Q1936229,quiznos-658eea
-89.70489,39.79521,_TuP72yGjdbe_vMUBvQr52NWRYU=,7179,quiznos,fast_food,sandwich,yes,2701 W Lawrence Ave,Springfield,IL,62704,US,West Lawrence,(217) 787-7304,https://delivery.quiznos.com/?store_id=6444,Quizno's,Q1936229,quiznos-658eea
-135.0592774,60.7264522,Ih3ByaYFWnSHOAs7y04_cvhpwo0=,4483,quiznos,fast_food,sandwich,yes,B-210 Ogilvie Street,Whitehorse,YT,Y1A 2S3,CA,Whitehorse,(867) 456-3000,,Quizno's,Q1936229,quiznos-658eea
-119.782277,39.5569,Rzi_0vglFyj6anuQDX5lcwTQrY4=,5221,quiznos,fast_food,sandwich,yes,"2905 Northtowne Ln, Ste 120",Reno,NV,89512,US,Wildcreek,,https://delivery.quiznos.com/?store_id=6399,Quizno's,Q1936229,quiznos-658eea
-83.536729,42.511685,f7-ZsfLUiiV2tihg0aj917aw68I=,1231,quiznos,fast_food,sandwich,yes,29814 S Wixom Rd,Wixom,MI,48393,US,"Wixom, MI",(248) 960-4808,https://delivery.quiznos.com/?store_id=6237,Quizno's,Q1936229,quiznos-658eea
-79.3597955,43.857876,ShuoNg1hCwCzdqj7iklY2jeSMvA=,4766,quiznos,fast_food,sandwich,yes,8865 Woodbine Ave Bldg D Unit 2,Markham,ON,L3R 4X9,CA,Woodbine and Applecreek,,https://delivery.quiznos.com/?store_id=6708,Quizno's,Q1936229,quiznos-658eea
-90.17458,32.33401,HGePtdyYLWQWh79l8-I4GTgkVgY=,1482,quiznos,fast_food,sandwich,yes,2945 Old Canton Rd,Jackson,MS,39216,US,Woodland Hills,(601) 713-0357,https://delivery.quiznos.com/?store_id=6247,Quizno's,Q1936229,quiznos-658eea
-95.45669,30.16732,AEUtj0v9V93POq9bgZ9ZP3-OUAc=,3054,quiznos,fast_food,sandwich,yes,1440A Lake Woodlands Dr,The Woodlands,TX,77380,US,Woodlands Town Centre,(281) 419-5968,https://delivery.quiznos.com/?store_id=6317,Quizno's,Q1936229,quiznos-658eea
-118.4852258,34.2269687,GVi3ips9Jj2XoyW2wDp_dCwqMJQ=,14986,quiznos,fast_food,sandwich,yes,8625 Woodley Ave,North Hills,CA,91343,US,Woodley and Parthenia,,https://delivery.quiznos.com/?store_id=10034,Quizno's,Q1936229,quiznos-658eea
-67.6124658,46.1731278,clvW0FnoAxs0RmKWt-aukbco7nc=,12293,quiznos,fast_food,sandwich,yes,121 Route 550,Hartford,NB,E7M 6B6,CA,"Woodstock, NB",,https://delivery.quiznos.com/?store_id=6797,Quizno's,Q1936229,quiznos-658eea
-73.5623802,45.5023902,Pc8i2VEp4cO0XKBHqJQDSsmBr6Y=,8128,quiznos,fast_food,sandwich,yes,393 St. Jaques Local C146,Montreal,QC,H2Z 2B1,CA,World Trade Center,,https://delivery.quiznos.com/?store_id=6755,Quizno's,Q1936229,quiznos-658eea
-114.4023598,62.449868,S27whf7K2tYtxwjR-MQM41NsjwE=,5212,quiznos,fast_food,sandwich,yes,106-314 Old Airport Rd,Yellowknife,NT,X1A 3T3,CA,Yellowknife,(867) 920-7827,https://delivery.quiznos.com/?store_id=6720,Quizno's,Q1936229,quiznos-658eea
-114.4164709,62.440928,-ULM5BhZe18SOkl0e69E1t2DNlQ=,14500,quiznos,fast_food,sandwich,yes,1 Yellowknife Airport,Yellowknife,NT,X1A 3T2,CA,Yellowknife Airport,,https://delivery.quiznos.com/?store_id=6826,Quizno's,Q1936229,quiznos-658eea
-122.5927042,46.9344466,cGZeWEruo8XHYCAqiSIBho_CGp8=,4015,quiznos,fast_food,sandwich,yes,1202 E Yelm Ave Ste E,Yelm,WA,98597,US,Yelm Plaza Shopping Center,(360) 400-7827,https://delivery.quiznos.com/?store_id=6358,Quizno's,Q1936229,quiznos-658eea
